{"type":"FeatureCollection","name":"aicas_cdmb","features":[{"type":"Feature","properties":{"tipo":"aica","fuente":"Humboldt","nombre":"Serrania de Yariguies","codigo":"CO073"},"geometry":{"type":"Polygon","coordinates":[[[-73.2924,6.7147],[-73.2941,6.7154],[-73.3036,6.7311],[-73.3115,6.7467],[-73.3254,6.752],[-73.3428,6.7615],[-73.3402,6.7694],[-73.3358,6.7763],[-73.3497,6.7816],[-73.3515,6.7792],[-73.3609,6.778],[-73.3671,6.7673],[-73.3659,6.7609],[-73.3671,6.7597],[-73.3644,6.7558],[-73.3663,6.7497],[-73.3648,6.7459],[-73.3617,6.746],[-73.3648,6.7398],[-73.3669,6.739],[-73.3617,6.7376],[-73.3565,6.7406],[-73.3553,6.7383],[-73.3609,6.7303],[-73.3591,6.7266],[-73.3634,6.7231],[-73.363,6.7205],[-73.367,6.7208],[-73.3682,6.7182],[-73.3742,6.7158],[-73.368,6.7094],[-73.3623,6.7062],[-73.3654,6.705],[-73.3658,6.7009],[-73.3737,6.6993],[-73.3722,6.696],[-73.3752,6.6943],[-73.3774,6.696],[-73.3796,6.6945],[-73.3835,6.6951],[-73.3803,6.6929],[-73.3804,6.6896],[-73.3783,6.6885],[-73.3821,6.6864],[-73.3768,6.6826],[-73.3769,6.6803],[-73.3784,6.68],[-73.3808,6.6829],[-73.3769,6.671],[-73.3734,6.6683],[-73.3807,6.6703],[-73.3782,6.6666],[-73.3805,6.6606],[-73.378,6.6592],[-73.3773,6.6546],[-73.3843,6.6502],[-73.3806,6.6468],[-73.369,6.6469],[-73.3709,6.6429],[-73.3669,6.636],[-73.3658,6.635],[-73.3614,6.6362],[-73.3579,6.6282],[-73.3458,6.6225],[-73.3464,6.6211],[-73.3495,6.6215],[-73.3542,6.6161],[-73.3528,6.613],[-73.3536,6.6103],[-73.3506,6.6073],[-73.3527,6.6041],[-73.3488,6.6],[-73.3578,6.6003],[-73.3566,6.6016],[-73.3608,6.6045],[-73.3581,6.6053],[-73.3579,6.6081],[-73.3606,6.6097],[-73.3602,6.6123],[-73.3615,6.6131],[-73.364,6.6131],[-73.3653,6.6087],[-73.3676,6.6075],[-73.3721,6.6098],[-73.3715,6.6116],[-73.3766,6.608],[-73.3795,6.6108],[-73.3849,6.611],[-73.3805,6.6046],[-73.3832,6.6031],[-73.38287,6.6],[-73.52709,6.6],[-73.5254,6.6046],[-73.5219,6.6036],[-73.5219,6.6095],[-73.5181,6.6104],[-73.5189,6.6112],[-73.5166,6.618],[-73.5177,6.6191],[-73.5196,6.6153],[-73.522,6.6148],[-73.5194,6.6217],[-73.5234,6.6246],[-73.5126,6.626],[-73.5038,6.6251],[-73.5009,6.6235],[-73.4985,6.6285],[-73.4983,6.6347],[-73.4964,6.637],[-73.4971,6.6412],[-73.4898,6.6421],[-73.4871,6.6404],[-73.4875,6.6434],[-73.4841,6.6501],[-73.4859,6.6517],[-73.4799,6.662],[-73.4764,6.6549],[-73.4696,6.6575],[-73.4732,6.6581],[-73.4715,6.6664],[-73.4726,6.6694],[-73.4698,6.6712],[-73.4701,6.6729],[-73.4618,6.6738],[-73.459,6.6717],[-73.4526,6.6712],[-73.4465,6.6747],[-73.4479,6.6784],[-73.4467,6.6819],[-73.4407,6.6856],[-73.4394,6.6904],[-73.4444,6.6962],[-73.4409,6.6982],[-73.439,6.6948],[-73.4351,6.696],[-73.4355,6.7],[-73.4374,6.6997],[-73.4381,6.7029],[-73.4401,6.7035],[-73.4382,6.7086],[-73.4441,6.7146],[-73.4412,6.7161],[-73.4415,6.7187],[-73.4356,6.7254],[-73.4391,6.7277],[-73.4384,6.7299],[-73.4405,6.735],[-73.4463,6.7372],[-73.4602,6.7328],[-73.4663,6.7667],[-73.4611,6.7807],[-73.4811,6.7746],[-73.5011,6.7876],[-73.5168,6.805],[-73.5289,6.7963],[-73.5455,6.7885],[-73.5489,6.812],[-73.5689,6.8015],[-73.6003,6.8172],[-73.6229,6.8372],[-73.6464,6.832],[-73.6298,6.7641],[-73.6533,6.7494],[-73.6777,6.7572],[-73.6933,6.7485],[-73.7255,6.7633],[-73.7612,6.8111],[-73.7655,6.8216],[-73.7473,6.859],[-73.7377,6.8824],[-73.7316,6.9033],[-73.6942,6.8903],[-73.6725,6.9024],[-73.6629,6.9155],[-73.682,6.9277],[-73.6994,6.9433],[-73.702,6.9494],[-73.6524,7.0068],[-73.6124,7.066],[-73.562,7.1312],[-73.5402,7.1538],[-73.4863,7.1495],[-73.455,7.139],[-73.4367,7.1216],[-73.4045,7.1016],[-73.3889,7.0834],[-73.3697,7.0642],[-73.348,7.0651],[-73.3419,7.0407],[-73.3169,7.0276],[-73.3201,6.9955],[-73.3201,6.9656],[-73.3046,6.95],[-73.2819,6.9407],[-73.2664,6.9262],[-73.2468,6.9117],[-73.2696,6.8549],[-73.2582,6.8466],[-73.25,6.8507],[-73.2375,6.8734],[-73.2179,6.8755],[-73.2034,6.8641],[-73.2138,6.8496],[-73.2242,6.83],[-73.2511,6.7722],[-73.2563,6.7484],[-73.2677,6.735],[-73.2924,6.7147]]]}},{"type":"Feature","properties":{"tipo":"aica","fuente":"Humboldt","nombre":"Cerro La Judia","codigo":"CO171"},"geometry":{"type":"Polygon","coordinates":[[[-73.0105,7.143],[-73.0017,7.1148],[-73.0023,7.1103],[-73.008,7.1101],[-73.0105,7.0954],[-73.0093,7.0927],[-72.9974,7.0949],[-72.9984,7.0921],[-72.9948,7.0866],[-72.996,7.0835],[-72.995,7.0744],[-72.9989,7.061],[-73.0011,7.058],[-73.0008,7.0527],[-73.0024,7.0508],[-73.0015,7.0467],[-73.0051,7.0388],[-73.005,7.0347],[-73.0078,7.0303],[-73.0133,7.0263],[-73.0158,7.0141],[-73.0207,7.0165],[-73.0255,7.0248],[-73.029,7.0238],[-73.0314,7.0262],[-73.033,7.0382],[-73.0373,7.0431],[-73.0342,7.0472],[-73.0343,7.0505],[-73.0454,7.0548],[-73.0399,7.0612],[-73.0628,7.0551],[-73.0667,7.046],[-73.0724,7.0427],[-73.0744,7.0395],[-73.0802,7.0491],[-73.0851,7.0626],[-73.0966,7.0751],[-73.0999,7.0759],[-73.099,7.0787],[-73.1004,7.0783],[-73.1007,7.0828],[-73.1027,7.0863],[-73.0944,7.0873],[-73.0891,7.0856],[-73.0861,7.0824],[-73.0837,7.0826],[-73.0827,7.0842],[-73.0838,7.0917],[-73.0823,7.096],[-73.0787,7.0941],[-73.0752,7.095],[-73.0653,7.0999],[-73.0611,7.1043],[-73.0568,7.1238],[-73.0524,7.1233],[-73.0495,7.1252],[-73.0514,7.1281],[-73.0509,7.1308],[-73.0484,7.1295],[-73.0448,7.1315],[-73.0423,7.1351],[-73.0353,7.1378],[-73.0349,7.1401],[-73.0261,7.1417],[-73.0227,7.1374],[-73.0116,7.1365],[-73.0143,7.1406],[-73.0125,7.1435],[-73.0105,7.143]]]}},{"type":"Feature","properties":{"tipo":"aica","fuente":"Humboldt","nombre":"Bosques secos del valle del rio Chicamocha","codigo":"CO074"},"geometry":{"type":"Polygon","coordinates":[[[-73.2924,6.7147],[-73.2677,6.735],[-73.2563,6.7484],[-73.2511,6.7722],[-73.2242,6.83],[-73.2138,6.8496],[-73.2034,6.8641],[-73.2179,6.8755],[-73.2375,6.8734],[-73.25,6.8507],[-73.2582,6.8466],[-73.2696,6.8549],[-73.2468,6.9117],[-73.2664,6.9262],[-73.2819,6.9407],[-73.3046,6.95],[-73.3201,6.9656],[-73.3201,6.9955],[-73.3169,7.0224],[-73.3169,7.0513],[-73.3096,7.0565],[-73.3013,7.0472],[-73.2807,7.0389],[-73.2631,7.0254],[-73.2538,7.0099],[-73.2528,6.9954],[-73.2425,6.9861],[-73.2322,6.983],[-73.2156,6.9726],[-73.2012,6.9416],[-73.1795,6.925],[-73.1723,6.9157],[-73.1609,6.9074],[-73.1454,6.9074],[-73.1113,6.9187],[-73.0906,6.9186],[-73.0896,6.9083],[-73.1062,6.8918],[-73.1196,6.8825],[-73.1403,6.8609],[-73.1393,6.8505],[-73.1228,6.8433],[-73.1167,6.7967],[-73.1064,6.7781],[-73.095,6.7771],[-73.0671,6.7667],[-73.0619,6.7811],[-73.0485,6.7935],[-73.0339,6.8121],[-73.0204,6.8358],[-72.9976,6.8595],[-72.9935,6.8833],[-72.9666,6.8925],[-72.9449,6.8646],[-72.9491,6.8408],[-72.946,6.817],[-72.9326,6.7994],[-72.9431,6.7705],[-72.9328,6.7478],[-72.9204,6.7333],[-72.9111,6.7177],[-72.9029,6.7229],[-72.8853,6.7032],[-72.8854,6.6867],[-72.8668,6.6546],[-72.8566,6.6329],[-72.837,6.6091],[-72.8262,6.6055],[-72.8213,6.6108],[-72.7885,6.602],[-72.7426,6.6085],[-72.72935,6.6],[-72.9547,6.6],[-72.9775,6.6218],[-72.9981,6.6632],[-72.9991,6.6942],[-73.0248,6.7242],[-73.0445,6.7056],[-73.0766,6.6974],[-73.0921,6.6871],[-73.1252,6.6862],[-73.1396,6.6976],[-73.1686,6.7038],[-73.2016,6.7132],[-73.2079,6.6915],[-73.2421,6.6554],[-73.2277,6.6423],[-73.243,6.6074],[-73.24486,6.6],[-73.34877,6.6],[-73.3513,6.6027],[-73.3495,6.6215],[-73.3457,6.622],[-73.3492,6.6241],[-73.3479,6.6381],[-73.3501,6.6403],[-73.3278,6.6772],[-73.3071,6.701],[-73.2924,6.7147]]]}}]}