{"type":"FeatureCollection","name":"areas_protegidas_runap_cdmb","features":[{"type":"Feature","properties":{"nombre":"Angula Alta - Humedal El Pantano","tipo":"Distritos Regionales de Manejo Integrado","fuente":"RUNAP","condicion":"REGISTRADA","administra":"CDMB","url":"https://runap.parquesnacionales.gov.co/area-protegida/1013","hectareas":3628.8},"geometry":{"type":"Polygon","coordinates":[[[-73.2336,7.0799],[-73.2421,7.0782],[-73.2459,7.0754],[-73.2457,7.0736],[-73.2465,7.0712],[-73.2506,7.0679],[-73.2497,7.0634],[-73.25,7.062],[-73.2532,7.0603],[-73.2575,7.0549],[-73.2618,7.0532],[-73.2616,7.051],[-73.263,7.0466],[-73.2615,7.0433],[-73.2615,7.0411],[-73.2591,7.0393],[-73.2545,7.0396],[-73.2524,7.0389],[-73.2506,7.031],[-73.2481,7.0266],[-73.2492,7.0232],[-73.2505,7.0218],[-73.2588,7.0183],[-73.2631,7.0152],[-73.264,7.0123],[-73.2604,7.0052],[-73.2601,7.0013],[-73.2586,6.9987],[-73.2575,6.9984],[-73.2533,6.9993],[-73.2497,6.9953],[-73.2472,6.9957],[-73.2424,6.9985],[-73.2396,6.998],[-73.2366,6.9962],[-73.2346,6.9927],[-73.2333,6.9877],[-73.2221,6.9764],[-73.2197,6.9718],[-73.2184,6.9728],[-73.216,6.977],[-73.2161,6.9829],[-73.215,6.9855],[-73.2135,6.9867],[-73.2071,6.9875],[-73.2101,6.9911],[-73.2103,6.9973],[-73.2122,6.9998],[-73.2161,7.0017],[-73.2167,7.0031],[-73.2166,7.0047],[-73.2148,7.0082],[-73.2119,7.0112],[-73.2173,7.0136],[-73.2226,7.0192],[-73.2235,7.0195],[-73.2269,7.018],[-73.2289,7.0203],[-73.2271,7.0282],[-73.2219,7.0374],[-73.2225,7.0418],[-73.225,7.0447],[-73.2254,7.0489],[-73.2242,7.0501],[-73.2223,7.0498],[-73.221,7.0511],[-73.2193,7.0535],[-73.219,7.0561],[-73.2196,7.0569],[-73.2223,7.0567],[-73.2247,7.0587],[-73.2258,7.061],[-73.2256,7.0631],[-73.2264,7.0651],[-73.2296,7.0681],[-73.2339,7.0702],[-73.2357,7.0758],[-73.2353,7.0769],[-73.232,7.0799],[-73.2336,7.0799]]]}},{"type":"Feature","properties":{"nombre":"Bosques Andinos Húmedos el Rasgón","tipo":"Parques Naturales Regionales","fuente":"RUNAP","condicion":"CONSTRUCCION","administra":"CDMB","url":"https://runap.parquesnacionales.gov.co/area-protegida/413","hectareas":6593.3},"geometry":{"type":"Polygon","coordinates":[[[-72.9572,7.0121],[-72.9559,7.0119],[-72.9513,7.0138],[-72.9513,7.0152],[-72.9503,7.0166],[-72.9522,7.0179],[-72.9524,7.0194],[-72.9522,7.0198],[-72.9514,7.0192],[-72.9497,7.0208],[-72.9514,7.0227],[-72.9491,7.024],[-72.9508,7.0255],[-72.9503,7.0269],[-72.9495,7.027],[-72.9486,7.0283],[-72.9503,7.0297],[-72.9485,7.0309],[-72.9486,7.0329],[-72.9467,7.0329],[-72.945,7.034],[-72.9454,7.0368],[-72.9467,7.0369],[-72.9442,7.0386],[-72.9404,7.0383],[-72.9401,7.0377],[-72.9408,7.0308],[-72.9388,7.0301],[-72.9376,7.0304],[-72.9349,7.0287],[-72.9384,7.0259],[-72.9417,7.0216],[-72.9433,7.0217],[-72.9416,7.0189],[-72.9393,7.017],[-72.9336,7.0188],[-72.931,7.0186],[-72.9278,7.0173],[-72.924,7.0174],[-72.9213,7.0191],[-72.9169,7.02],[-72.9162,7.0207],[-72.9145,7.0257],[-72.9144,7.0347],[-72.9136,7.0415],[-72.9163,7.0462],[-72.9167,7.0489],[-72.9146,7.054],[-72.9085,7.0645],[-72.9074,7.0741],[-72.9078,7.0805],[-72.91,7.0812],[-72.9155,7.0849],[-72.9195,7.0858],[-72.9241,7.0892],[-72.9335,7.0936],[-72.9373,7.0976],[-72.9405,7.0967],[-72.9459,7.0935],[-72.9466,7.0925],[-72.9473,7.0883],[-72.949,7.0875],[-72.9506,7.089],[-72.9518,7.0916],[-72.9678,7.0925],[-72.9698,7.0935],[-72.9709,7.0958],[-72.9697,7.0986],[-72.9719,7.0982],[-72.9724,7.1019],[-72.976,7.0971],[-72.978,7.0959],[-72.9782,7.0978],[-72.9802,7.0989],[-72.9786,7.1021],[-72.9815,7.1021],[-72.9825,7.1036],[-72.9831,7.102],[-72.9821,7.0994],[-72.9848,7.0952],[-72.9883,7.0875],[-72.9905,7.0853],[-72.9908,7.0807],[-72.9899,7.0793],[-72.991,7.0776],[-72.9883,7.0765],[-72.9891,7.0753],[-72.9886,7.0737],[-72.9893,7.0729],[-72.9893,7.0694],[-72.9904,7.068],[-72.9903,7.0659],[-72.983,7.0616],[-72.9833,7.059],[-72.9865,7.0559],[-72.9856,7.0543],[-72.9873,7.0514],[-72.9877,7.0479],[-72.9885,7.0464],[-72.9867,7.0455],[-72.9882,7.0445],[-72.9879,7.0438],[-72.9896,7.0428],[-72.9888,7.042],[-72.9912,7.0411],[-72.9914,7.0387],[-72.9897,7.0383],[-72.9877,7.0389],[-72.9855,7.0355],[-72.9777,7.0348],[-72.9776,7.032],[-72.9742,7.0264],[-72.9752,7.0248],[-72.9757,7.0186],[-72.9717,7.0158],[-72.9714,7.0146],[-72.9728,7.0138],[-72.9735,7.0123],[-72.9729,7.0105],[-72.9732,7.0087],[-72.9674,7.0081],[-72.9618,7.0146],[-72.9572,7.0121]]]}},{"type":"Feature","properties":{"nombre":"Bosques de Misiguay","tipo":"Parques Naturales Regionales","fuente":"RUNAP","condicion":"REGISTRADA","administra":"CDMB","url":"https://runap.parquesnacionales.gov.co/area-protegida/1002","hectareas":2804.2},"geometry":{"type":"Polygon","coordinates":[[[-73.1182,7.4357],[-73.1234,7.4354],[-73.1273,7.433],[-73.1291,7.4334],[-73.1293,7.4326],[-73.1306,7.4332],[-73.1294,7.429],[-73.1278,7.4284],[-73.1277,7.4271],[-73.1301,7.4283],[-73.1308,7.4279],[-73.131,7.4292],[-73.1317,7.4295],[-73.1337,7.4293],[-73.1355,7.4312],[-73.1349,7.4283],[-73.1338,7.4276],[-73.1335,7.4261],[-73.1321,7.4247],[-73.1317,7.4225],[-73.1332,7.42],[-73.13,7.4173],[-73.1276,7.4189],[-73.1221,7.4208],[-73.1213,7.4184],[-73.1185,7.4155],[-73.1169,7.4149],[-73.1172,7.4112],[-73.1168,7.4101],[-73.1163,7.4103],[-73.117,7.4085],[-73.1164,7.4075],[-73.1165,7.4043],[-73.1211,7.403],[-73.1209,7.4014],[-73.1217,7.4011],[-73.122,7.4001],[-73.1156,7.3959],[-73.1147,7.3959],[-73.1132,7.3893],[-73.1146,7.3882],[-73.1139,7.3862],[-73.1154,7.3819],[-73.118,7.3821],[-73.1193,7.3812],[-73.1203,7.3821],[-73.1257,7.3774],[-73.132,7.3762],[-73.1309,7.3735],[-73.1321,7.3732],[-73.1329,7.372],[-73.1327,7.3708],[-73.1337,7.3709],[-73.134,7.3687],[-73.1324,7.369],[-73.1316,7.3684],[-73.1305,7.3667],[-73.1282,7.3651],[-73.128,7.3634],[-73.1292,7.3622],[-73.1331,7.3611],[-73.1328,7.36],[-73.1334,7.3595],[-73.133,7.3589],[-73.1338,7.357],[-73.1349,7.3572],[-73.1354,7.3584],[-73.1376,7.3587],[-73.1397,7.3569],[-73.1402,7.3556],[-73.1391,7.355],[-73.1371,7.3519],[-73.1348,7.3514],[-73.1314,7.3518],[-73.127,7.3534],[-73.125,7.3578],[-73.125,7.3616],[-73.1226,7.3631],[-73.1215,7.3654],[-73.1203,7.365],[-73.118,7.3697],[-73.1155,7.3712],[-73.1144,7.3698],[-73.1122,7.3706],[-73.1105,7.3724],[-73.1103,7.3768],[-73.1093,7.3784],[-73.1078,7.3792],[-73.1062,7.3825],[-73.1044,7.3818],[-73.1038,7.3826],[-73.1022,7.3855],[-73.1023,7.3877],[-73.0963,7.3952],[-73.098,7.3963],[-73.0946,7.3983],[-73.0942,7.3978],[-73.0885,7.4066],[-73.0826,7.4177],[-73.0818,7.4205],[-73.0815,7.4232],[-73.0845,7.4274],[-73.0831,7.4287],[-73.0842,7.43],[-73.0817,7.4423],[-73.0843,7.4461],[-73.0871,7.4481],[-73.0894,7.4511],[-73.0906,7.4511],[-73.0933,7.4493],[-73.0953,7.4495],[-73.0962,7.4469],[-73.1013,7.4446],[-73.1055,7.4413],[-73.1079,7.4384],[-73.1103,7.438],[-73.111,7.4337],[-73.1089,7.4304],[-73.1098,7.4297],[-73.112,7.4299],[-73.1121,7.4274],[-73.1115,7.4264],[-73.1132,7.4273],[-73.1142,7.4271],[-73.1152,7.4291],[-73.1166,7.4291],[-73.1165,7.428],[-73.1178,7.4286],[-73.1168,7.4314],[-73.1172,7.4326],[-73.1157,7.4322],[-73.1163,7.4334],[-73.118,7.4341],[-73.1182,7.4357]]]}},{"type":"Feature","properties":{"nombre":"Bucaramanga","tipo":"Distritos Regionales de Manejo Integrado","fuente":"RUNAP","condicion":"CONSTRUCCION","administra":"CDMB","url":"https://runap.parquesnacionales.gov.co/area-protegida/480","hectareas":4691.9},"geometry":{"type":"MultiPolygon","coordinates":[[[[-73.1021,7.1311],[-73.1033,7.1299],[-73.1038,7.1304],[-73.104,7.1289],[-73.1052,7.1298],[-73.1048,7.1283],[-73.1056,7.1271],[-73.1048,7.1265],[-73.1054,7.1265],[-73.1057,7.125],[-73.1052,7.1214],[-73.1062,7.1203],[-73.1062,7.1185],[-73.1052,7.118],[-73.1058,7.1188],[-73.105,7.1197],[-73.1049,7.1212],[-73.1048,7.1192],[-73.1046,7.1202],[-73.103,7.1204],[-73.1027,7.1213],[-73.103,7.1204],[-73.1045,7.1202],[-73.1046,7.1192],[-73.1034,7.1186],[-73.1029,7.1158],[-73.1025,7.1176],[-73.1036,7.1191],[-73.1032,7.1195],[-73.1024,7.1182],[-73.1012,7.1185],[-73.0999,7.1167],[-73.0991,7.1165],[-73.0989,7.1146],[-73.1001,7.1143],[-73.0998,7.1169],[-73.1004,7.1139],[-73.1009,7.1138],[-73.0994,7.1136],[-73.0989,7.1122],[-73.1001,7.1113],[-73.1012,7.1132],[-73.1004,7.1149],[-73.1017,7.1145],[-73.1029,7.1156],[-73.1022,7.1118],[-73.1039,7.1092],[-73.1027,7.1096],[-73.1019,7.1086],[-73.1041,7.1075],[-73.1041,7.106],[-73.1065,7.1048],[-73.1059,7.1042],[-73.1036,7.1051],[-73.1018,7.1067],[-73.1004,7.1066],[-73.1,7.1071],[-73.101,7.1084],[-73.0999,7.1092],[-73.0998,7.1102],[-73.0983,7.1111],[-73.0964,7.1111],[-73.0945,7.1069],[-73.0925,7.1075],[-73.0932,7.1081],[-73.0895,7.1081],[-73.0931,7.1071],[-73.0932,7.1063],[-73.0942,7.1064],[-73.0921,7.1043],[-73.0927,7.104],[-73.0899,7.102],[-73.0904,7.1003],[-73.0909,7.1],[-73.0919,7.1009],[-73.0908,7.1026],[-73.0927,7.104],[-73.0939,7.1023],[-73.094,7.1003],[-73.0945,7.1002],[-73.0937,7.0997],[-73.0936,7.0983],[-73.0921,7.0987],[-73.0918,7.0972],[-73.093,7.0967],[-73.093,7.0961],[-73.092,7.0958],[-73.0903,7.0973],[-73.0909,7.0959],[-73.0903,7.0958],[-73.0904,7.0946],[-73.0895,7.0966],[-73.0894,7.0949],[-73.0898,7.0942],[-73.0904,7.0945],[-73.0896,7.094],[-73.0895,7.0931],[-73.0886,7.0943],[-73.0883,7.0921],[-73.0889,7.0906],[-73.0889,7.0942],[-73.0898,7.0908],[-73.089,7.09],[-73.0881,7.0914],[-73.0876,7.0901],[-73.088,7.0899],[-73.087,7.0894],[-73.0868,7.0875],[-73.0858,7.0869],[-73.086,7.0861],[-73.0848,7.0862],[-73.0847,7.0869],[-73.0839,7.0862],[-73.0841,7.0847],[-73.0826,7.0839],[-73.0827,7.0811],[-73.0823,7.0797],[-73.0809,7.0787],[-73.0813,7.0776],[-73.0808,7.0756],[-73.0823,7.0738],[-73.0832,7.074],[-73.0832,7.0732],[-73.0814,7.0735],[-73.0804,7.0728],[-73.0839,7.0715],[-73.0839,7.0702],[-73.0833,7.0698],[-73.0837,7.0706],[-73.083,7.071],[-73.0802,7.071],[-73.0791,7.072],[-73.0786,7.069],[-73.0783,7.0699],[-73.0781,7.0692],[-73.0775,7.0698],[-73.0777,7.0705],[-73.0771,7.0706],[-73.0769,7.07],[-73.0781,7.0692],[-73.0783,7.0699],[-73.0785,7.0689],[-73.0791,7.0706],[-73.0798,7.0705],[-73.08,7.0697],[-73.0809,7.0703],[-73.0806,7.0693],[-73.0812,7.0687],[-73.079,7.0672],[-73.0807,7.0673],[-73.0816,7.0667],[-73.08,7.0662],[-73.0785,7.067],[-73.0768,7.0669],[-73.0763,7.0683],[-73.0735,7.0686],[-73.0738,7.0695],[-73.0754,7.0701],[-73.0745,7.0703],[-73.0759,7.0716],[-73.0751,7.0716],[-73.0757,7.0721],[-73.0755,7.0731],[-73.0741,7.0744],[-73.0737,7.0737],[-73.0731,7.0746],[-73.0742,7.077],[-73.074,7.0784],[-73.0735,7.0777],[-73.072,7.0791],[-73.0694,7.0795],[-73.0686,7.0807],[-73.0703,7.0807],[-73.07,7.0835],[-73.0692,7.0837],[-73.0695,7.0844],[-73.0666,7.0854],[-73.0652,7.089],[-73.0628,7.089],[-73.063,7.0918],[-73.0618,7.0938],[-73.0611,7.0997],[-73.0606,7.0996],[-73.0611,7.1005],[-73.0607,7.1021],[-73.059,7.1042],[-73.0598,7.1091],[-73.0613,7.1107],[-73.0624,7.1108],[-73.0639,7.113],[-73.066,7.1124],[-73.0665,7.1135],[-73.0701,7.1137],[-73.0692,7.1156],[-73.0708,7.1166],[-73.0704,7.118],[-73.0712,7.1187],[-73.0732,7.118],[-73.0746,7.1158],[-73.0752,7.1171],[-73.0763,7.1157],[-73.0782,7.1189],[-73.079,7.1177],[-73.0787,7.1155],[-73.0795,7.1146],[-73.0785,7.1139],[-73.0787,7.1131],[-73.0778,7.1117],[-73.0786,7.1095],[-73.0796,7.1094],[-73.0813,7.1121],[-73.083,7.1108],[-73.0849,7.1134],[-73.0832,7.115],[-73.0836,7.1158],[-73.0829,7.1168],[-73.0833,7.1178],[-73.0855,7.1184],[-73.0859,7.1194],[-73.0853,7.1202],[-73.0843,7.1199],[-73.0829,7.1214],[-73.0858,7.1225],[-73.086,7.1242],[-73.0874,7.1232],[-73.0895,7.1233],[-73.0894,7.125],[-73.0915,7.1252],[-73.0917,7.127],[-73.0932,7.1266],[-73.0944,7.1249],[-73.0943,7.1239],[-73.095,7.1235],[-73.0957,7.1255],[-73.0971,7.1254],[-73.0955,7.1272],[-73.0953,7.1284],[-73.0968,7.129],[-73.0983,7.1279],[-73.0994,7.1293],[-73.1009,7.1295],[-73.1006,7.1273],[-73.1018,7.129],[-73.1013,7.1299],[-73.1021,7.1311]],[[-73.1031,7.1225],[-73.1027,7.1229],[-73.1025,7.1222],[-73.1032,7.1209],[-73.1031,7.1225]],[[-73.0833,7.0845],[-73.0835,7.0855],[-73.083,7.0855],[-73.0833,7.0845]]],[[[-73.1439,7.1504],[-73.1447,7.1514],[-73.1464,7.1491],[-73.1479,7.1488],[-73.147,7.1473],[-73.1493,7.1484],[-73.1486,7.1472],[-73.1494,7.1465],[-73.1492,7.1435],[-73.1505,7.1407],[-73.1517,7.1407],[-73.1521,7.1392],[-73.1504,7.1374],[-73.1508,7.1368],[-73.1527,7.1375],[-73.1538,7.133],[-73.1552,7.1303],[-73.1539,7.1286],[-73.1526,7.1285],[-73.1514,7.1261],[-73.1549,7.1281],[-73.1553,7.1278],[-73.1561,7.124],[-73.1581,7.1202],[-73.1569,7.1195],[-73.157,7.1188],[-73.1584,7.1189],[-73.1591,7.1134],[-73.1606,7.1116],[-73.1578,7.1104],[-73.1582,7.1099],[-73.1601,7.1101],[-73.1613,7.109],[-73.1623,7.1054],[-73.1633,7.1046],[-73.1629,7.1028],[-73.1643,7.1018],[-73.1633,7.1016],[-73.1659,7.1],[-73.1656,7.0992],[-73.159,7.0974],[-73.155,7.099],[-73.1513,7.0993],[-73.1487,7.0987],[-73.1464,7.0997],[-73.1474,7.1003],[-73.1471,7.1009],[-73.1437,7.1006],[-73.1439,7.1021],[-73.1426,7.1018],[-73.143,7.1028],[-73.1443,7.1033],[-73.1429,7.1033],[-73.1423,7.1026],[-73.141,7.1035],[-73.1427,7.1048],[-73.141,7.1048],[-73.1418,7.1057],[-73.1404,7.1056],[-73.1409,7.1063],[-73.1402,7.1061],[-73.1404,7.1069],[-73.1389,7.1065],[-73.1389,7.1073],[-73.1381,7.1078],[-73.1383,7.1087],[-73.1371,7.11],[-73.1343,7.1095],[-73.1324,7.1126],[-73.1335,7.1126],[-73.1346,7.1115],[-73.1328,7.1135],[-73.1345,7.1135],[-73.1357,7.1115],[-73.1372,7.1117],[-73.1395,7.1105],[-73.143,7.1082],[-73.1441,7.1067],[-73.1443,7.1082],[-73.1451,7.1075],[-73.1431,7.1092],[-73.1426,7.111],[-73.141,7.1111],[-73.1407,7.1118],[-73.141,7.1106],[-73.1404,7.1106],[-73.1403,7.1115],[-73.1377,7.1129],[-73.1368,7.1143],[-73.1348,7.115],[-73.1346,7.1161],[-73.1314,7.1192],[-73.1319,7.1204],[-73.1329,7.1191],[-73.1348,7.1185],[-73.1399,7.1143],[-73.1417,7.1156],[-73.142,7.1139],[-73.1464,7.1113],[-73.1467,7.1102],[-73.1478,7.1108],[-73.1431,7.1139],[-73.1428,7.1147],[-73.1436,7.1152],[-73.1405,7.1164],[-73.1396,7.1158],[-73.1392,7.1173],[-73.1379,7.1169],[-73.137,7.1188],[-73.1358,7.1192],[-73.1368,7.1206],[-73.1381,7.1209],[-73.1398,7.1194],[-73.1413,7.1188],[-73.1417,7.1199],[-73.1471,7.1169],[-73.1463,7.1181],[-73.1467,7.1185],[-73.1454,7.1183],[-73.1409,7.1208],[-73.1408,7.122],[-73.1429,7.1227],[-73.1401,7.1227],[-73.139,7.1233],[-73.1367,7.1227],[-73.1346,7.1245],[-73.1364,7.1256],[-73.1387,7.1255],[-73.1394,7.1262],[-73.1354,7.1267],[-73.1348,7.1256],[-73.1323,7.1266],[-73.1318,7.1274],[-73.1326,7.1289],[-73.1349,7.1287],[-73.1351,7.1296],[-73.1363,7.1294],[-73.1377,7.1301],[-73.1356,7.13],[-73.1345,7.1312],[-73.1366,7.1323],[-73.1362,7.1338],[-73.1357,7.134],[-73.135,7.1332],[-73.1327,7.1336],[-73.1311,7.1352],[-73.1325,7.1372],[-73.1345,7.1381],[-73.1361,7.138],[-73.1366,7.1387],[-73.1372,7.1381],[-73.1373,7.1388],[-73.1385,7.1384],[-73.1388,7.1391],[-73.1379,7.1386],[-73.1369,7.1391],[-73.1361,7.138],[-73.1354,7.1393],[-73.1358,7.1413],[-73.137,7.1422],[-73.1366,7.145],[-73.1384,7.1452],[-73.1385,7.1458],[-73.1362,7.1463],[-73.133,7.1451],[-73.1365,7.1482],[-73.1392,7.148],[-73.1408,7.1469],[-73.1414,7.1474],[-73.1397,7.1487],[-73.1415,7.1486],[-73.1424,7.1501],[-73.1439,7.1504]]],[[[-73.1226,7.1123],[-73.123,7.1127],[-73.1283,7.1118],[-73.1327,7.1088],[-73.1325,7.108],[-73.1347,7.108],[-73.1356,7.1064],[-73.1364,7.1065],[-73.1365,7.1051],[-73.1358,7.1048],[-73.137,7.1039],[-73.1381,7.1046],[-73.1392,7.1039],[-73.1378,7.1032],[-73.1392,7.1021],[-73.1381,7.1005],[-73.1386,7.1003],[-73.1399,7.1023],[-73.1406,7.101],[-73.1413,7.1017],[-73.1423,7.1008],[-73.1423,7.0995],[-73.1428,7.1003],[-73.1447,7.0997],[-73.1452,7.1006],[-73.147,7.1007],[-73.1462,7.0996],[-73.1486,7.0986],[-73.1514,7.0992],[-73.1578,7.098],[-73.1588,7.0973],[-73.1577,7.0963],[-73.1583,7.0956],[-73.1615,7.0964],[-73.1614,7.0958],[-73.1622,7.0957],[-73.1662,7.0961],[-73.1667,7.0937],[-73.1667,7.092],[-73.1658,7.0919],[-73.1662,7.0889],[-73.165,7.0888],[-73.1641,7.0898],[-73.1648,7.0881],[-73.1637,7.0869],[-73.1616,7.0864],[-73.1611,7.0885],[-73.1608,7.0866],[-73.1591,7.0866],[-73.1565,7.091],[-73.1566,7.0899],[-73.1558,7.0896],[-73.1584,7.0863],[-73.1569,7.0858],[-73.1548,7.0869],[-73.1538,7.0853],[-73.1503,7.0848],[-73.1501,7.0839],[-73.1414,7.0861],[-73.1411,7.0881],[-73.14,7.0864],[-73.1362,7.088],[-73.1366,7.0887],[-73.1338,7.0889],[-73.132,7.0915],[-73.1309,7.0906],[-73.1303,7.0913],[-73.1307,7.0937],[-73.1295,7.0947],[-73.1291,7.0942],[-73.127,7.0952],[-73.1284,7.0952],[-73.1275,7.0961],[-73.1278,7.0968],[-73.1284,7.097],[-73.1317,7.0948],[-73.1326,7.0928],[-73.1324,7.0911],[-73.1333,7.091],[-73.1337,7.0896],[-73.135,7.0902],[-73.1352,7.0915],[-73.1387,7.0895],[-73.1384,7.0921],[-73.1372,7.0914],[-73.1366,7.0923],[-73.1349,7.0922],[-73.1298,7.097],[-73.1308,7.0972],[-73.1299,7.0986],[-73.1314,7.0973],[-73.1311,7.0966],[-73.1318,7.0957],[-73.1326,7.0954],[-73.133,7.0967],[-73.1333,7.0952],[-73.1354,7.0944],[-73.1357,7.0937],[-73.1377,7.0941],[-73.1412,7.0936],[-73.1444,7.0891],[-73.1457,7.0883],[-73.1464,7.0892],[-73.1457,7.0907],[-73.1446,7.0898],[-73.1438,7.0908],[-73.1449,7.0916],[-73.143,7.0933],[-73.1436,7.0936],[-73.1405,7.094],[-73.139,7.0965],[-73.1371,7.096],[-73.1368,7.0971],[-73.1359,7.0961],[-73.1341,7.0965],[-73.1334,7.0988],[-73.1347,7.0977],[-73.1352,7.0984],[-73.1341,7.0993],[-73.1334,7.1011],[-73.1313,7.1026],[-73.131,7.1037],[-73.1331,7.1035],[-73.133,7.1046],[-73.1317,7.1044],[-73.1305,7.1055],[-73.1264,7.1052],[-73.1239,7.1075],[-73.1207,7.1083],[-73.1204,7.1093],[-73.1229,7.1088],[-73.1237,7.1093],[-73.1273,7.1071],[-73.1292,7.1077],[-73.1294,7.1082],[-73.1258,7.1095],[-73.1226,7.1123]]],[[[-73.1083,7.1582],[-73.1095,7.1583],[-73.1104,7.1576],[-73.1098,7.1555],[-73.1118,7.1549],[-73.1137,7.1503],[-73.1151,7.1499],[-73.1152,7.1488],[-73.1202,7.1499],[-73.1219,7.1532],[-73.1251,7.1523],[-73.1229,7.1506],[-73.1226,7.1488],[-73.1214,7.1473],[-73.1207,7.1476],[-73.122,7.1492],[-73.1202,7.1481],[-73.1214,7.1468],[-73.1222,7.1468],[-73.123,7.1453],[-73.1225,7.1447],[-73.1235,7.143],[-73.1231,7.1421],[-73.1218,7.1433],[-73.12,7.142],[-73.1176,7.1424],[-73.1164,7.1408],[-73.1142,7.1395],[-73.1102,7.1382],[-73.1077,7.1357],[-73.1079,7.1378],[-73.1065,7.138],[-73.1083,7.1399],[-73.1085,7.1409],[-73.1099,7.1417],[-73.1077,7.1414],[-73.1065,7.138],[-73.1073,7.1378],[-73.1053,7.1376],[-73.1064,7.137],[-73.1057,7.1369],[-73.106,7.1365],[-73.1041,7.1367],[-73.1042,7.1379],[-73.1035,7.1374],[-73.1033,7.1362],[-73.105,7.1364],[-73.1063,7.135],[-73.1051,7.1339],[-73.1032,7.1345],[-73.1047,7.1349],[-73.1045,7.1356],[-73.1029,7.1354],[-73.1019,7.136],[-73.1031,7.1381],[-73.1015,7.1383],[-73.1019,7.14],[-73.1003,7.1408],[-73.0972,7.1404],[-73.0968,7.1421],[-73.0989,7.144],[-73.0991,7.1422],[-73.0999,7.1415],[-73.1002,7.1441],[-73.1034,7.1465],[-73.1043,7.1457],[-73.1062,7.1474],[-73.1059,7.1509],[-73.1055,7.1508],[-73.1062,7.1531],[-73.1056,7.1544],[-73.1083,7.1582]]],[[[-73.0958,7.1411],[-73.0967,7.1422],[-73.0971,7.1404],[-73.0987,7.1407],[-73.0992,7.1392],[-73.0999,7.1393],[-73.0996,7.1401],[-73.1012,7.1398],[-73.1009,7.1384],[-73.1001,7.1385],[-73.1009,7.1362],[-73.1018,7.1374],[-73.102,7.1349],[-73.1008,7.1336],[-73.0979,7.1332],[-73.099,7.1321],[-73.099,7.1307],[-73.094,7.1299],[-73.0926,7.129],[-73.0926,7.1281],[-73.0941,7.1272],[-73.0933,7.1267],[-73.0944,7.1269],[-73.0949,7.1259],[-73.0949,7.1237],[-73.0943,7.1239],[-73.0945,7.1249],[-73.0932,7.1267],[-73.0916,7.127],[-73.0915,7.1252],[-73.0894,7.125],[-73.0895,7.1233],[-73.0874,7.1232],[-73.086,7.1243],[-73.0857,7.1225],[-73.0828,7.1214],[-73.0842,7.1199],[-73.0852,7.1201],[-73.0858,7.1195],[-73.0855,7.1185],[-73.0832,7.1178],[-73.0828,7.1168],[-73.0835,7.1157],[-73.0831,7.1149],[-73.0849,7.1133],[-73.0836,7.1125],[-73.0829,7.1108],[-73.0812,7.1121],[-73.0796,7.1095],[-73.0789,7.1093],[-73.0779,7.1117],[-73.0785,7.1138],[-73.0796,7.1145],[-73.0787,7.1156],[-73.0789,7.1181],[-73.0778,7.1189],[-73.0765,7.1159],[-73.0751,7.1171],[-73.0747,7.1158],[-73.0724,7.1186],[-73.0752,7.1183],[-73.0779,7.1204],[-73.078,7.1215],[-73.0809,7.1252],[-73.0818,7.1275],[-73.0845,7.1285],[-73.0861,7.1278],[-73.0859,7.1297],[-73.0867,7.1323],[-73.0875,7.1325],[-73.0876,7.1341],[-73.0879,7.1327],[-73.0891,7.1316],[-73.0884,7.133],[-73.0888,7.1342],[-73.0904,7.1355],[-73.0928,7.1359],[-73.0945,7.1388],[-73.0944,7.1408],[-73.0958,7.1411]]],[[[-73.1263,7.0796],[-73.126,7.0805],[-73.127,7.0812],[-73.1268,7.0798],[-73.1281,7.0791],[-73.1277,7.0779],[-73.1283,7.0772],[-73.1306,7.0782],[-73.1304,7.0789],[-73.1291,7.079],[-73.1301,7.08],[-73.1287,7.0806],[-73.129,7.0811],[-73.1304,7.0812],[-73.1331,7.0795],[-73.1337,7.078],[-73.1332,7.0764],[-73.134,7.0773],[-73.1341,7.0756],[-73.1354,7.0756],[-73.1353,7.0746],[-73.1363,7.0752],[-73.1367,7.0737],[-73.1356,7.0728],[-73.136,7.0719],[-73.1398,7.0751],[-73.141,7.074],[-73.1445,7.074],[-73.1462,7.0727],[-73.1479,7.0724],[-73.1502,7.0685],[-73.1517,7.0671],[-73.1521,7.0643],[-73.1477,7.0638],[-73.1442,7.0647],[-73.1435,7.0658],[-73.1435,7.0649],[-73.137,7.0663],[-73.1376,7.0675],[-73.1369,7.0678],[-73.1363,7.0665],[-73.1341,7.0723],[-73.1347,7.0738],[-73.1336,7.0741],[-73.1336,7.0733],[-73.133,7.0733],[-73.1305,7.0751],[-73.1309,7.0742],[-73.1299,7.0736],[-73.1327,7.072],[-73.1328,7.0704],[-73.1337,7.0706],[-73.1345,7.0695],[-73.135,7.0665],[-73.134,7.0665],[-73.1323,7.0677],[-73.1327,7.0656],[-73.1321,7.0665],[-73.1261,7.0675],[-73.1247,7.0707],[-73.1269,7.0703],[-73.127,7.0725],[-73.1263,7.0733],[-73.1267,7.0737],[-73.1261,7.0753],[-73.1272,7.074],[-73.1286,7.0742],[-73.1274,7.0767],[-73.1262,7.0772],[-73.1261,7.0788],[-73.1247,7.0792],[-73.1251,7.0798],[-73.1263,7.0796]]],[[[-73.1527,7.0807],[-73.1531,7.081],[-73.1533,7.0779],[-73.1555,7.0752],[-73.1592,7.0763],[-73.1599,7.0771],[-73.1599,7.0764],[-73.1617,7.0757],[-73.1613,7.0745],[-73.1627,7.0749],[-73.1603,7.0731],[-73.1583,7.0735],[-73.1586,7.0714],[-73.156,7.0729],[-73.1542,7.0751],[-73.1501,7.0732],[-73.1507,7.0739],[-73.1504,7.0744],[-73.1487,7.0734],[-73.1507,7.0727],[-73.1516,7.0716],[-73.1515,7.0725],[-73.1527,7.0737],[-73.1501,7.0732],[-73.1537,7.0751],[-73.1548,7.0747],[-73.1551,7.0728],[-73.1565,7.0721],[-73.1561,7.071],[-73.1574,7.0713],[-73.158,7.0699],[-73.1588,7.0706],[-73.1609,7.0696],[-73.1612,7.0688],[-73.1607,7.0683],[-73.1613,7.0688],[-73.1609,7.0696],[-73.1625,7.0685],[-73.1621,7.0658],[-73.161,7.0661],[-73.1605,7.0646],[-73.1596,7.0643],[-73.1579,7.0659],[-73.1587,7.064],[-73.1545,7.0637],[-73.153,7.0671],[-73.1479,7.0726],[-73.1464,7.0728],[-73.1447,7.0741],[-73.1409,7.0742],[-73.1399,7.0752],[-73.14,7.0763],[-73.144,7.0772],[-73.1477,7.0769],[-73.1508,7.078],[-73.1511,7.0789],[-73.1517,7.0787],[-73.1519,7.0803],[-73.1527,7.0807]]],[[[-73.1082,7.0871],[-73.1094,7.0866],[-73.1112,7.0821],[-73.1113,7.0835],[-73.1126,7.0842],[-73.1127,7.0853],[-73.1135,7.0852],[-73.1136,7.0831],[-73.1127,7.0827],[-73.1126,7.0806],[-73.1142,7.082],[-73.1141,7.0806],[-73.1133,7.0801],[-73.1136,7.0792],[-73.1144,7.0789],[-73.1148,7.0798],[-73.1155,7.0796],[-73.1155,7.0775],[-73.1161,7.077],[-73.1175,7.0775],[-73.1174,7.0758],[-73.119,7.0746],[-73.1189,7.0758],[-73.1199,7.0735],[-73.1177,7.074],[-73.1171,7.0748],[-73.1165,7.0743],[-73.1185,7.0737],[-73.1208,7.0717],[-73.1237,7.0705],[-73.1234,7.0687],[-73.1179,7.0698],[-73.1169,7.0705],[-73.1163,7.0722],[-73.1133,7.0739],[-73.113,7.0743],[-73.1155,7.0737],[-73.1135,7.0751],[-73.1128,7.0768],[-73.1119,7.0767],[-73.1122,7.0779],[-73.1115,7.0775],[-73.1109,7.0789],[-73.1083,7.0804],[-73.1112,7.0801],[-73.1087,7.0815],[-73.1105,7.0812],[-73.1093,7.0824],[-73.1092,7.085],[-73.1082,7.0871]]],[[[-73.1258,7.0884],[-73.1297,7.0873],[-73.1289,7.0864],[-73.1292,7.0858],[-73.132,7.0871],[-73.1347,7.0853],[-73.134,7.0841],[-73.1336,7.0849],[-73.1309,7.084],[-73.1309,7.0848],[-73.1318,7.0852],[-73.1305,7.0856],[-73.1295,7.0848],[-73.1293,7.083],[-73.1281,7.0815],[-73.1253,7.0813],[-73.123,7.0829],[-73.1253,7.0825],[-73.1266,7.0831],[-73.1273,7.0837],[-73.1268,7.0843],[-73.1258,7.0836],[-73.1256,7.0863],[-73.1274,7.0859],[-73.1282,7.0867],[-73.1258,7.0884]]],[[[-73.1413,7.0828],[-73.1412,7.0821],[-73.1424,7.0829],[-73.1467,7.0804],[-73.1503,7.0809],[-73.1507,7.0802],[-73.149,7.0781],[-73.1483,7.079],[-73.1469,7.0784],[-73.1453,7.0786],[-73.1422,7.0802],[-73.1375,7.0795],[-73.1376,7.0781],[-73.1381,7.0784],[-73.1392,7.0774],[-73.1392,7.0764],[-73.1375,7.0779],[-73.1371,7.0794],[-73.138,7.0797],[-73.1381,7.081],[-73.1394,7.0805],[-73.1397,7.0821],[-73.1413,7.0828]]],[[[-73.1346,7.085],[-73.1412,7.0831],[-73.1377,7.083],[-73.1364,7.0823],[-73.1362,7.0828],[-73.135,7.0811],[-73.1344,7.0824],[-73.133,7.081],[-73.132,7.081],[-73.1323,7.083],[-73.1314,7.0832],[-73.1317,7.0841],[-73.1336,7.0849],[-73.134,7.0841],[-73.1346,7.085]]],[[[-73.1254,7.155],[-73.1266,7.1544],[-73.1263,7.1532],[-73.1251,7.1539],[-73.1218,7.1532],[-73.1202,7.1502],[-73.1201,7.1507],[-73.1194,7.1505],[-73.1192,7.1496],[-73.1152,7.1488],[-73.1151,7.15],[-73.1137,7.1504],[-73.117,7.1501],[-73.1197,7.1521],[-73.1211,7.1544],[-73.1229,7.154],[-73.1254,7.155]]],[[[-73.1169,7.0907],[-73.1174,7.0904],[-73.1148,7.0883],[-73.1126,7.0882],[-73.1113,7.0869],[-73.1089,7.0892],[-73.1093,7.09],[-73.111,7.0884],[-73.1127,7.0895],[-73.1139,7.0893],[-73.1169,7.0907]]],[[[-73.104,7.1189],[-73.1048,7.1191],[-73.104,7.117],[-73.1055,7.1141],[-73.1042,7.1157],[-73.1046,7.1085],[-73.1035,7.1106],[-73.1037,7.1139],[-73.1025,7.115],[-73.104,7.1189]]],[[[-73.1182,7.076],[-73.1182,7.0765],[-73.1188,7.0763],[-73.1227,7.0725],[-73.1242,7.0729],[-73.125,7.0752],[-73.1255,7.0753],[-73.126,7.0735],[-73.1245,7.0724],[-73.1232,7.0723],[-73.1239,7.071],[-73.1206,7.0724],[-73.119,7.0757],[-73.1185,7.0751],[-73.1182,7.076]]],[[[-73.1196,7.0903],[-73.1206,7.091],[-73.1227,7.0897],[-73.1227,7.0889],[-73.1214,7.0898],[-73.1194,7.0877],[-73.1202,7.0894],[-73.1149,7.0885],[-73.1175,7.0907],[-73.1196,7.0903]]],[[[-73.1607,7.082],[-73.1616,7.0819],[-73.1603,7.0813],[-73.1613,7.0802],[-73.1654,7.0817],[-73.1623,7.08],[-73.163,7.0792],[-73.1633,7.0766],[-73.1616,7.0782],[-73.1608,7.077],[-73.1611,7.0798],[-73.1598,7.0813],[-73.1607,7.082]]],[[[-73.0966,7.1295],[-73.0977,7.13],[-73.0986,7.1288],[-73.0967,7.1291],[-73.0953,7.1285],[-73.0956,7.1269],[-73.0948,7.1264],[-73.0938,7.1278],[-73.094,7.129],[-73.0944,7.1295],[-73.0952,7.1291],[-73.0959,7.1299],[-73.0966,7.1295]]],[[[-73.1182,7.0838],[-73.1196,7.0834],[-73.1197,7.0822],[-73.1208,7.0822],[-73.1207,7.0808],[-73.119,7.0806],[-73.1184,7.0825],[-73.117,7.0833],[-73.1182,7.0838]]],[[[-73.1016,7.1066],[-73.1058,7.1038],[-73.1042,7.1039],[-73.1014,7.1057],[-73.0989,7.1058],[-73.1016,7.1066]]],[[[-73.1044,7.1321],[-73.1051,7.1302],[-73.1041,7.1289],[-73.1041,7.1299],[-73.1048,7.1298],[-73.1038,7.1308],[-73.1044,7.1321]]],[[[-73.1017,7.1181],[-73.101,7.1163],[-73.1017,7.1172],[-73.1026,7.1155],[-73.1003,7.1161],[-73.1017,7.1181]]],[[[-73.1047,7.1138],[-73.1043,7.1156],[-73.1058,7.1139],[-73.1059,7.1128],[-73.105,7.1127],[-73.1053,7.1135],[-73.1047,7.1138]]],[[[-73.0984,7.1286],[-73.099,7.13],[-73.0994,7.1294],[-73.0989,7.1282],[-73.098,7.128],[-73.097,7.1291],[-73.0984,7.1286]]],[[[-73.1248,7.0775],[-73.1257,7.0775],[-73.1263,7.0763],[-73.1248,7.0775]]],[[[-73.1641,7.083],[-73.1658,7.0821],[-73.1643,7.0829],[-73.1619,7.0819],[-73.1641,7.083]]],[[[-73.1516,7.0674],[-73.151,7.0685],[-73.1525,7.0674],[-73.1516,7.0674]]]]}},{"type":"Feature","properties":{"nombre":"Cerro la Judía","tipo":"Parques Naturales Regionales","fuente":"RUNAP","condicion":"CONSTRUCCION","administra":"CDMB","url":"https://runap.parquesnacionales.gov.co/area-protegida/414","hectareas":3519.8},"geometry":{"type":"Polygon","coordinates":[[[-73.0401,7.1173],[-73.0395,7.1154],[-73.0384,7.1152],[-73.0377,7.1141],[-73.039,7.1097],[-73.0404,7.1094],[-73.0422,7.1106],[-73.0432,7.1105],[-73.0469,7.1082],[-73.0423,7.1082],[-73.0381,7.1067],[-73.043,7.1063],[-73.0434,7.1042],[-73.0474,7.1022],[-73.0498,7.1044],[-73.0503,7.1032],[-73.0496,7.1029],[-73.0494,7.1017],[-73.0481,7.101],[-73.0499,7.0985],[-73.0465,7.0999],[-73.0446,7.0998],[-73.0426,7.1013],[-73.0415,7.1009],[-73.0403,7.099],[-73.0369,7.0987],[-73.0407,7.0944],[-73.0443,7.0917],[-73.0457,7.0883],[-73.0432,7.0871],[-73.044,7.086],[-73.0457,7.0857],[-73.0481,7.0842],[-73.0494,7.0813],[-73.0463,7.0815],[-73.0447,7.0801],[-73.045,7.0768],[-73.0428,7.0728],[-73.0427,7.0705],[-73.0402,7.0681],[-73.039,7.0679],[-73.0384,7.0668],[-73.0376,7.0672],[-73.0374,7.0662],[-73.0358,7.0661],[-73.0322,7.0677],[-73.029,7.0706],[-73.0271,7.0696],[-73.0244,7.0667],[-73.0215,7.0676],[-73.0203,7.0672],[-73.0203,7.0703],[-73.0196,7.0717],[-73.0199,7.0743],[-73.0187,7.0743],[-73.0206,7.0769],[-73.0205,7.0816],[-73.0159,7.0848],[-73.0141,7.0815],[-73.015,7.08],[-73.0147,7.0786],[-73.0124,7.0803],[-73.0107,7.0775],[-73.0113,7.0763],[-73.0108,7.0746],[-73.0119,7.0723],[-73.0089,7.07],[-73.0091,7.067],[-73.0099,7.0665],[-73.0099,7.0649],[-73.0149,7.0652],[-73.0185,7.0624],[-73.0205,7.0595],[-73.0179,7.0598],[-73.0164,7.0592],[-73.0152,7.0579],[-73.0107,7.0556],[-73.0064,7.0524],[-73.0063,7.052],[-73.0114,7.0516],[-73.0114,7.05],[-73.0081,7.0485],[-73.0049,7.0498],[-73.0033,7.0513],[-73.0044,7.0583],[-72.9994,7.0576],[-73.0,7.0588],[-72.9985,7.0597],[-72.9986,7.0608],[-72.9997,7.0619],[-72.9989,7.0623],[-72.9976,7.0651],[-72.9996,7.066],[-73.0004,7.0675],[-73.0019,7.0681],[-73.0022,7.0689],[-73.0014,7.0705],[-72.9987,7.0701],[-72.9996,7.0723],[-72.9964,7.0726],[-72.9953,7.0742],[-72.9975,7.0762],[-72.997,7.0769],[-72.9974,7.0787],[-72.997,7.0795],[-72.9962,7.0794],[-72.9969,7.0844],[-72.9963,7.0848],[-72.9991,7.0856],[-72.9986,7.0868],[-73.0001,7.0896],[-73.0005,7.0934],[-73.0031,7.0944],[-73.0035,7.0951],[-73.0046,7.0938],[-73.006,7.0945],[-73.0075,7.0938],[-73.0074,7.0918],[-73.0085,7.0925],[-73.0098,7.0921],[-73.0116,7.0937],[-73.011,7.0966],[-73.0114,7.0992],[-73.0108,7.1007],[-73.0099,7.1012],[-73.0056,7.0997],[-73.0007,7.1016],[-72.9985,7.1051],[-72.993,7.1094],[-72.9949,7.1118],[-72.9952,7.1154],[-72.997,7.1221],[-72.9998,7.1243],[-73.0047,7.1309],[-73.0044,7.1366],[-73.005,7.1395],[-73.0094,7.1405],[-73.0079,7.1359],[-73.0082,7.132],[-73.0092,7.1315],[-73.0091,7.1305],[-73.0108,7.1294],[-73.0159,7.1286],[-73.0168,7.1287],[-73.0161,7.13],[-73.0171,7.1308],[-73.0166,7.1312],[-73.0182,7.1342],[-73.0166,7.1361],[-73.0184,7.1358],[-73.0195,7.1366],[-73.0217,7.1352],[-73.0227,7.1364],[-73.0225,7.1383],[-73.0235,7.1412],[-73.0242,7.1405],[-73.0242,7.1393],[-73.0233,7.1378],[-73.0241,7.1365],[-73.0236,7.1355],[-73.0213,7.1345],[-73.025,7.1325],[-73.0317,7.1372],[-73.0304,7.1381],[-73.028,7.1366],[-73.027,7.137],[-73.0294,7.1385],[-73.0298,7.1397],[-73.0321,7.1403],[-73.0332,7.1396],[-73.035,7.1407],[-73.0346,7.1392],[-73.0331,7.1378],[-73.0336,7.1376],[-73.0327,7.1373],[-73.0331,7.1359],[-73.035,7.1334],[-73.0367,7.1331],[-73.0366,7.1317],[-73.0354,7.1314],[-73.0357,7.1299],[-73.0372,7.1304],[-73.0378,7.1298],[-73.0397,7.1298],[-73.0391,7.1289],[-73.0371,7.1284],[-73.0365,7.1274],[-73.0371,7.1271],[-73.0352,7.1244],[-73.0389,7.1202],[-73.0415,7.1197],[-73.0418,7.117],[-73.0401,7.1173]]]}},{"type":"Feature","properties":{"nombre":"Complejo Ciénagas Papayal","tipo":"Distritos Regionales de Manejo Integrado","fuente":"RUNAP","condicion":"CONSTRUCCION","administra":"CDMB","url":"https://runap.parquesnacionales.gov.co/area-protegida/1004","hectareas":2838.2},"geometry":{"type":"Polygon","coordinates":[[[-73.5962,7.618],[-73.5983,7.6219],[-73.6023,7.6358],[-73.6109,7.6466],[-73.6168,7.6619],[-73.6173,7.6646],[-73.6226,7.6668],[-73.6265,7.6727],[-73.6293,7.6742],[-73.6342,7.6737],[-73.6386,7.6776],[-73.642,7.6749],[-73.6446,7.6708],[-73.6475,7.6679],[-73.6486,7.6688],[-73.6501,7.6688],[-73.6533,7.6678],[-73.6598,7.664],[-73.6611,7.6616],[-73.6609,7.6606],[-73.6621,7.66],[-73.6615,7.6587],[-73.6551,7.6592],[-73.6545,7.6574],[-73.6555,7.653],[-73.654,7.6516],[-73.6511,7.6512],[-73.6514,7.65],[-73.6528,7.6486],[-73.6555,7.6475],[-73.6541,7.6449],[-73.6542,7.6421],[-73.6529,7.6395],[-73.646,7.6313],[-73.6455,7.6286],[-73.6462,7.6239],[-73.6432,7.6237],[-73.644,7.6222],[-73.6436,7.6186],[-73.6416,7.6195],[-73.6415,7.6151],[-73.6386,7.615],[-73.6376,7.6176],[-73.6331,7.6175],[-73.6323,7.6205],[-73.5992,7.6162],[-73.5962,7.618]]]}},{"type":"Feature","properties":{"nombre":"El Aburrido","tipo":"Distritos Regionales de Manejo Integrado","fuente":"RUNAP","condicion":"INSCRITA","administra":"CDMB","url":"https://runap.parquesnacionales.gov.co/area-protegida/1826","hectareas":1102.4},"geometry":{"type":"Polygon","coordinates":[[[-73.1081,7.263],[-73.1088,7.2639],[-73.1118,7.2624],[-73.1117,7.2617],[-73.113,7.2601],[-73.1115,7.2594],[-73.1107,7.2573],[-73.1143,7.2506],[-73.1159,7.2496],[-73.1141,7.2474],[-73.1108,7.2459],[-73.1083,7.2454],[-73.1072,7.247],[-73.1062,7.2449],[-73.11,7.2364],[-73.1089,7.235],[-73.1065,7.234],[-73.1052,7.2316],[-73.1021,7.2291],[-73.0964,7.2293],[-73.0977,7.2271],[-73.1018,7.2239],[-73.1018,7.222],[-73.1003,7.2198],[-73.0998,7.2219],[-73.0923,7.2242],[-73.0862,7.2251],[-73.0842,7.229],[-73.084,7.2348],[-73.0793,7.2348],[-73.0788,7.2356],[-73.076,7.2368],[-73.0747,7.2392],[-73.0743,7.2436],[-73.0783,7.2417],[-73.0819,7.2443],[-73.0815,7.2473],[-73.0821,7.2506],[-73.0814,7.2539],[-73.0841,7.2575],[-73.0901,7.2587],[-73.0914,7.2581],[-73.0953,7.2529],[-73.0987,7.2516],[-73.1007,7.2557],[-73.104,7.2578],[-73.1081,7.263]]]}},{"type":"Feature","properties":{"nombre":"Finca El Prado","tipo":"Reserva Natural de la Sociedad Civil","fuente":"RUNAP","condicion":"REGISTRADA","administra":"PNN","url":"https://runap.parquesnacionales.gov.co/area-protegida/706","hectareas":17.6},"geometry":{"type":"Polygon","coordinates":[[[-73.3618,7.1311],[-73.3609,7.1287],[-73.3591,7.1273],[-73.3558,7.1309],[-73.357,7.1307],[-73.3604,7.1321],[-73.3618,7.1311]]]}},{"type":"Feature","properties":{"nombre":"Honduras","tipo":"Distritos Regionales de Manejo Integrado","fuente":"RUNAP","condicion":"INSCRITA","administra":"CDMB","url":"https://runap.parquesnacionales.gov.co/area-protegida/1827","hectareas":671.8},"geometry":{"type":"Polygon","coordinates":[[[-73.0961,7.2932],[-73.0968,7.2944],[-73.1001,7.2929],[-73.102,7.2898],[-73.1047,7.2897],[-73.1067,7.2878],[-73.1031,7.2826],[-73.1016,7.2821],[-73.1013,7.2807],[-73.1048,7.2786],[-73.1037,7.2769],[-73.1059,7.2753],[-73.1074,7.2724],[-73.0837,7.2593],[-73.0814,7.2627],[-73.08,7.2685],[-73.0805,7.2746],[-73.0815,7.277],[-73.0855,7.281],[-73.0888,7.2825],[-73.0897,7.285],[-73.0914,7.285],[-73.091,7.2885],[-73.0894,7.2895],[-73.0888,7.2918],[-73.0902,7.2928],[-73.0924,7.2912],[-73.0961,7.2932]]]}},{"type":"Feature","properties":{"nombre":"La Victoria","tipo":"Reserva Natural de la Sociedad Civil","fuente":"RUNAP","condicion":"REGISTRADA","administra":"PNN","url":"https://runap.parquesnacionales.gov.co/area-protegida/1613","hectareas":9.0},"geometry":{"type":"Polygon","coordinates":[[[-73.0522,7.0834],[-73.053,7.0808],[-73.0519,7.0805],[-73.0505,7.0811],[-73.0506,7.0829],[-73.0513,7.0846],[-73.0528,7.0839],[-73.0522,7.0834]]]}},{"type":"Feature","properties":{"nombre":"Páramo de Santurbán","tipo":"Parques Naturales Regionales","fuente":"RUNAP","condicion":"INSCRITA","administra":"CDMB","url":"https://runap.parquesnacionales.gov.co/area-protegida/688","hectareas":11695.4},"geometry":{"type":"Polygon","coordinates":[[[-72.9505,7.5163],[-72.9523,7.5178],[-72.9543,7.5161],[-72.9538,7.5154],[-72.9518,7.5158],[-72.9526,7.5135],[-72.955,7.5115],[-72.9583,7.5107],[-72.9609,7.5091],[-72.962,7.5068],[-72.9643,7.5046],[-72.9691,7.5016],[-72.9686,7.5011],[-72.9662,7.5014],[-72.965,7.4973],[-72.9686,7.4934],[-72.9683,7.4916],[-72.9634,7.4942],[-72.9603,7.4942],[-72.9563,7.4929],[-72.9513,7.4923],[-72.9498,7.4915],[-72.95,7.4843],[-72.9472,7.4836],[-72.9477,7.4811],[-72.9467,7.4804],[-72.9475,7.4793],[-72.9465,7.4792],[-72.9452,7.4808],[-72.9429,7.4812],[-72.9429,7.4797],[-72.9411,7.4771],[-72.9389,7.4775],[-72.9365,7.476],[-72.9322,7.4755],[-72.9296,7.4775],[-72.9282,7.4793],[-72.9281,7.4806],[-72.9271,7.4798],[-72.9221,7.4837],[-72.9222,7.4821],[-72.9238,7.4785],[-72.922,7.4781],[-72.9193,7.4794],[-72.9175,7.4792],[-72.9174,7.4785],[-72.9183,7.4781],[-72.9177,7.4764],[-72.9182,7.4754],[-72.9176,7.4748],[-72.9179,7.4739],[-72.9173,7.4729],[-72.914,7.474],[-72.9138,7.4732],[-72.9127,7.473],[-72.9134,7.4713],[-72.9129,7.4709],[-72.9131,7.4689],[-72.912,7.468],[-72.9124,7.4672],[-72.9118,7.4669],[-72.9131,7.4649],[-72.913,7.4637],[-72.9172,7.4632],[-72.9175,7.4616],[-72.9159,7.4603],[-72.9172,7.4595],[-72.9222,7.46],[-72.9219,7.4573],[-72.9243,7.4564],[-72.9239,7.4548],[-72.9247,7.4536],[-72.9206,7.451],[-72.923,7.4491],[-72.9227,7.4437],[-72.9175,7.4416],[-72.9181,7.4396],[-72.9264,7.4387],[-72.9285,7.4341],[-72.9265,7.4309],[-72.9277,7.4263],[-72.9299,7.4255],[-72.9344,7.4194],[-72.9436,7.4173],[-72.9452,7.4177],[-72.9488,7.4141],[-72.9502,7.4111],[-72.9441,7.4084],[-72.9444,7.4025],[-72.9416,7.4027],[-72.9392,7.3979],[-72.9394,7.3936],[-72.9416,7.3916],[-72.9368,7.3874],[-72.9321,7.3864],[-72.9296,7.385],[-72.9229,7.3847],[-72.922,7.3827],[-72.9205,7.3857],[-72.9199,7.3842],[-72.9185,7.3844],[-72.9142,7.388],[-72.9062,7.3849],[-72.9024,7.3886],[-72.9015,7.3877],[-72.9001,7.388],[-72.8988,7.3861],[-72.8967,7.3882],[-72.8947,7.3886],[-72.8932,7.3906],[-72.8869,7.3931],[-72.886,7.3919],[-72.8867,7.3895],[-72.8849,7.3891],[-72.8824,7.3873],[-72.8814,7.3862],[-72.8813,7.3841],[-72.8799,7.3835],[-72.8801,7.3815],[-72.8828,7.3814],[-72.8876,7.3765],[-72.8859,7.3762],[-72.8837,7.3738],[-72.8835,7.3713],[-72.8917,7.3671],[-72.896,7.3619],[-72.8982,7.3611],[-72.9017,7.3581],[-72.9023,7.3537],[-72.8995,7.3545],[-72.9018,7.3501],[-72.9001,7.3505],[-72.8948,7.3454],[-72.8955,7.3455],[-72.8963,7.3441],[-72.8947,7.3436],[-72.8877,7.3442],[-72.8855,7.3417],[-72.8846,7.3395],[-72.8844,7.3364],[-72.8859,7.3326],[-72.8874,7.3314],[-72.8858,7.3276],[-72.8832,7.3283],[-72.8797,7.3314],[-72.8773,7.3299],[-72.8769,7.3273],[-72.8744,7.3252],[-72.8731,7.3285],[-72.8698,7.3265],[-72.8678,7.3288],[-72.8605,7.329],[-72.8613,7.3251],[-72.8592,7.324],[-72.8543,7.3179],[-72.8557,7.317],[-72.8544,7.316],[-72.8564,7.3133],[-72.8555,7.3101],[-72.8582,7.3081],[-72.8586,7.3043],[-72.8598,7.3035],[-72.8618,7.3033],[-72.8625,7.3045],[-72.8647,7.3051],[-72.8653,7.3065],[-72.8702,7.3074],[-72.8716,7.3034],[-72.8715,7.2984],[-72.8754,7.2982],[-72.8766,7.2994],[-72.8863,7.2995],[-72.8874,7.299],[-72.8874,7.2979],[-72.894,7.2952],[-72.8946,7.2944],[-72.8955,7.2946],[-72.897,7.293],[-72.8998,7.2928],[-72.8997,7.296],[-72.9017,7.2957],[-72.9072,7.2999],[-72.91,7.3058],[-72.9173,7.3016],[-72.9193,7.2956],[-72.9229,7.2922],[-72.9151,7.2897],[-72.913,7.2871],[-72.912,7.2834],[-72.9098,7.2805],[-72.909,7.2808],[-72.9048,7.2772],[-72.9036,7.2731],[-72.8983,7.2708],[-72.8961,7.2678],[-72.8931,7.266],[-72.8907,7.2636],[-72.8884,7.2626],[-72.8858,7.2635],[-72.8835,7.2634],[-72.8808,7.2619],[-72.8765,7.262],[-72.8759,7.2683],[-72.8731,7.2689],[-72.8701,7.2736],[-72.871,7.2758],[-72.8709,7.2777],[-72.8672,7.2791],[-72.8635,7.2831],[-72.8595,7.2845],[-72.8562,7.2845],[-72.8553,7.2867],[-72.849,7.2913],[-72.8457,7.295],[-72.8391,7.2983],[-72.836,7.3024],[-72.8366,7.3039],[-72.8363,7.3054],[-72.8392,7.3111],[-72.8407,7.3136],[-72.843,7.3152],[-72.8406,7.3181],[-72.8394,7.3207],[-72.8403,7.3249],[-72.8413,7.3263],[-72.8396,7.3308],[-72.8402,7.3383],[-72.8397,7.3419],[-72.8422,7.345],[-72.8402,7.3457],[-72.8389,7.3502],[-72.8368,7.3537],[-72.8366,7.3587],[-72.842,7.3609],[-72.8498,7.3604],[-72.8559,7.3617],[-72.8557,7.3642],[-72.8505,7.3732],[-72.8573,7.3793],[-72.8698,7.3865],[-72.8715,7.3869],[-72.8722,7.3894],[-72.8734,7.3906],[-72.8731,7.3924],[-72.8749,7.3936],[-72.8756,7.3954],[-72.8771,7.4016],[-72.8789,7.4041],[-72.8784,7.4055],[-72.8794,7.4077],[-72.8827,7.4105],[-72.8846,7.4143],[-72.8884,7.4188],[-72.8902,7.4192],[-72.8907,7.4214],[-72.8918,7.4216],[-72.8927,7.4265],[-72.8959,7.428],[-72.8973,7.4315],[-72.9004,7.4344],[-72.901,7.4476],[-72.8933,7.4727],[-72.8933,7.475],[-72.8959,7.478],[-72.8989,7.4792],[-72.9025,7.4793],[-72.9062,7.4813],[-72.91,7.4879],[-72.9154,7.4918],[-72.9206,7.4914],[-72.9254,7.4948],[-72.9284,7.4939],[-72.9282,7.4957],[-72.929,7.4988],[-72.9323,7.5052],[-72.9353,7.5076],[-72.9392,7.5121],[-72.9439,7.5144],[-72.9494,7.5155],[-72.9505,7.5163]]]}},{"type":"Feature","properties":{"nombre":"Santurbán Arboledas","tipo":"Parques Naturales Regionales","fuente":"RUNAP","condicion":"INSCRITA","administra":"CORPONOR","url":"https://runap.parquesnacionales.gov.co/area-protegida/1035","hectareas":21861.9},"geometry":{"type":"Polygon","coordinates":[[[-72.82,7.7127],[-72.8213,7.7122],[-72.8247,7.7077],[-72.8299,7.7067],[-72.8313,7.7056],[-72.8316,7.7043],[-72.8325,7.7041],[-72.8344,7.704],[-72.8374,7.7053],[-72.8381,7.7073],[-72.8407,7.7099],[-72.8411,7.7097],[-72.8424,7.7077],[-72.844,7.7072],[-72.8446,7.7041],[-72.8495,7.6995],[-72.8499,7.6972],[-72.8486,7.695],[-72.8492,7.693],[-72.8556,7.6866],[-72.8611,7.6768],[-72.8647,7.6749],[-72.8683,7.6717],[-72.8702,7.6718],[-72.875,7.675],[-72.8834,7.6787],[-72.89,7.6808],[-72.8931,7.681],[-72.8975,7.6797],[-72.8999,7.6815],[-72.9025,7.6857],[-72.9028,7.6916],[-72.9036,7.6926],[-72.9089,7.6884],[-72.9135,7.6837],[-72.9196,7.6805],[-72.921,7.6785],[-72.9243,7.6764],[-72.9323,7.6671],[-72.9398,7.6665],[-72.9477,7.6686],[-72.9517,7.6655],[-72.9559,7.667],[-72.957,7.6695],[-72.9586,7.6694],[-72.9564,7.6597],[-72.9592,7.6607],[-72.9622,7.6605],[-72.9638,7.6564],[-72.966,7.6556],[-72.9674,7.6536],[-72.968,7.6504],[-72.9689,7.6487],[-72.971,7.6474],[-72.9725,7.6428],[-72.9744,7.6406],[-72.9753,7.6381],[-72.9824,7.6313],[-72.9816,7.6276],[-72.9816,7.6222],[-72.9828,7.6204],[-72.9801,7.6142],[-72.98,7.612],[-72.9812,7.6089],[-72.9846,7.6063],[-72.9861,7.6017],[-72.9873,7.6007],[-72.9887,7.5979],[-72.9896,7.5895],[-72.9868,7.5694],[-72.9864,7.5609],[-72.9842,7.5562],[-72.9849,7.5497],[-72.9811,7.5454],[-72.9781,7.5405],[-72.9775,7.5318],[-72.9782,7.5294],[-72.9732,7.525],[-72.9696,7.5237],[-72.9622,7.5194],[-72.9565,7.5192],[-72.954,7.5165],[-72.9499,7.5153],[-72.9452,7.515],[-72.9394,7.5125],[-72.9376,7.5099],[-72.9367,7.5056],[-72.9313,7.5035],[-72.9281,7.4953],[-72.9221,7.4918],[-72.9152,7.4905],[-72.91,7.4879],[-72.9089,7.4869],[-72.9078,7.4825],[-72.9024,7.4771],[-72.9005,7.478],[-72.8987,7.4806],[-72.8956,7.4805],[-72.8961,7.4785],[-72.894,7.4748],[-72.894,7.4724],[-72.8958,7.4657],[-72.8931,7.4642],[-72.888,7.4639],[-72.884,7.4662],[-72.8804,7.4697],[-72.8762,7.4769],[-72.8726,7.4793],[-72.8718,7.4848],[-72.8684,7.4908],[-72.8613,7.493],[-72.8585,7.4952],[-72.859,7.5014],[-72.8577,7.5119],[-72.8561,7.5132],[-72.8533,7.5133],[-72.8503,7.5152],[-72.8481,7.5194],[-72.8474,7.5238],[-72.8459,7.5263],[-72.841,7.5278],[-72.8403,7.5307],[-72.8381,7.5326],[-72.8357,7.5362],[-72.8357,7.5406],[-72.8375,7.5458],[-72.8369,7.5491],[-72.8387,7.5535],[-72.8398,7.5605],[-72.8407,7.5607],[-72.8418,7.5594],[-72.8463,7.5596],[-72.8468,7.5601],[-72.8462,7.5609],[-72.8464,7.563],[-72.8447,7.5639],[-72.844,7.5653],[-72.8424,7.5656],[-72.8445,7.569],[-72.8462,7.5701],[-72.8481,7.57],[-72.8492,7.5715],[-72.8492,7.5725],[-72.8507,7.5698],[-72.8549,7.5714],[-72.8531,7.5763],[-72.8496,7.5807],[-72.8492,7.5821],[-72.8517,7.5806],[-72.853,7.5812],[-72.86,7.5809],[-72.8606,7.5825],[-72.8619,7.583],[-72.8628,7.5822],[-72.8659,7.582],[-72.8637,7.5808],[-72.8647,7.5793],[-72.8631,7.5779],[-72.864,7.5742],[-72.8657,7.5734],[-72.8656,7.5719],[-72.8633,7.5702],[-72.862,7.5676],[-72.864,7.567],[-72.8648,7.5658],[-72.8631,7.564],[-72.86,7.5622],[-72.8619,7.5613],[-72.8635,7.5614],[-72.8645,7.5601],[-72.8669,7.561],[-72.8673,7.5603],[-72.8663,7.5593],[-72.8684,7.5583],[-72.8673,7.556],[-72.8708,7.5551],[-72.8713,7.5544],[-72.8689,7.5533],[-72.8678,7.5539],[-72.8652,7.5537],[-72.8639,7.5551],[-72.8628,7.5549],[-72.8638,7.5534],[-72.8641,7.5506],[-72.866,7.5498],[-72.8674,7.5505],[-72.8682,7.549],[-72.8704,7.5501],[-72.8702,7.5466],[-72.8714,7.5449],[-72.8739,7.5454],[-72.8755,7.5504],[-72.8761,7.5502],[-72.8778,7.5488],[-72.8774,7.5467],[-72.8783,7.5457],[-72.8784,7.5438],[-72.8808,7.5428],[-72.8824,7.5401],[-72.8842,7.5392],[-72.8842,7.5398],[-72.8853,7.5399],[-72.8865,7.539],[-72.8872,7.5393],[-72.8874,7.5429],[-72.8869,7.544],[-72.8884,7.5451],[-72.8877,7.5451],[-72.8876,7.5457],[-72.8909,7.5471],[-72.891,7.5477],[-72.8872,7.5528],[-72.8855,7.554],[-72.8871,7.5546],[-72.8892,7.5516],[-72.8907,7.5532],[-72.8859,7.5588],[-72.887,7.5592],[-72.8926,7.5586],[-72.8949,7.5568],[-72.894,7.5603],[-72.8925,7.5609],[-72.8932,7.5616],[-72.8932,7.5628],[-72.8917,7.5636],[-72.8916,7.5645],[-72.895,7.5616],[-72.8956,7.5622],[-72.8959,7.5603],[-72.8973,7.559],[-72.8983,7.5586],[-72.8999,7.5591],[-72.9001,7.5596],[-72.8982,7.5618],[-72.8933,7.5662],[-72.8962,7.5654],[-72.8991,7.5684],[-72.8989,7.5693],[-72.8966,7.5706],[-72.8978,7.5706],[-72.899,7.5726],[-72.898,7.5736],[-72.8976,7.5762],[-72.8964,7.5769],[-72.8972,7.5785],[-72.9002,7.5803],[-72.9014,7.5832],[-72.9038,7.5808],[-72.903,7.579],[-72.904,7.5783],[-72.9051,7.5797],[-72.9074,7.5799],[-72.908,7.5787],[-72.9118,7.5789],[-72.9155,7.5804],[-72.9156,7.5822],[-72.917,7.5831],[-72.9184,7.5826],[-72.9191,7.5814],[-72.9234,7.5821],[-72.9274,7.5812],[-72.9285,7.582],[-72.9321,7.5803],[-72.9339,7.577],[-72.9332,7.5746],[-72.9341,7.5723],[-72.9333,7.5679],[-72.9346,7.5662],[-72.9342,7.5653],[-72.9357,7.5629],[-72.9395,7.5632],[-72.941,7.564],[-72.9427,7.5632],[-72.9434,7.5617],[-72.9463,7.5608],[-72.9477,7.5582],[-72.9504,7.5572],[-72.9534,7.5549],[-72.9534,7.5534],[-72.9553,7.5515],[-72.9557,7.5454],[-72.9551,7.5445],[-72.9561,7.5434],[-72.9567,7.5396],[-72.9574,7.5388],[-72.9564,7.5356],[-72.957,7.5324],[-72.9552,7.5286],[-72.9556,7.5276],[-72.9598,7.5255],[-72.9617,7.5254],[-72.9609,7.5277],[-72.9621,7.5282],[-72.9625,7.5277],[-72.9641,7.5288],[-72.9625,7.5309],[-72.9636,7.533],[-72.9633,7.536],[-72.9624,7.5373],[-72.9645,7.5371],[-72.9649,7.5376],[-72.9644,7.5391],[-72.9624,7.5412],[-72.9632,7.5425],[-72.962,7.5432],[-72.9623,7.544],[-72.9646,7.5442],[-72.9652,7.5449],[-72.9645,7.5459],[-72.9616,7.5464],[-72.9623,7.5482],[-72.9634,7.5486],[-72.9637,7.5508],[-72.9654,7.5524],[-72.9626,7.5542],[-72.9619,7.556],[-72.9625,7.5594],[-72.9617,7.5605],[-72.9633,7.5614],[-72.9627,7.5629],[-72.9637,7.5637],[-72.9643,7.5664],[-72.9654,7.5665],[-72.9657,7.5697],[-72.9645,7.57],[-72.9605,7.5684],[-72.9597,7.5652],[-72.9542,7.5624],[-72.9531,7.5649],[-72.9526,7.5689],[-72.9532,7.5731],[-72.9476,7.5737],[-72.9436,7.5727],[-72.9431,7.5747],[-72.9419,7.576],[-72.939,7.5776],[-72.944,7.5792],[-72.9441,7.5803],[-72.9393,7.5815],[-72.9374,7.5832],[-72.9364,7.5861],[-72.935,7.5873],[-72.9318,7.5868],[-72.93,7.5855],[-72.9288,7.5855],[-72.9289,7.588],[-72.9274,7.5897],[-72.9276,7.5906],[-72.9316,7.594],[-72.9341,7.5937],[-72.9351,7.5963],[-72.9342,7.5972],[-72.9337,7.6],[-72.9317,7.6005],[-72.9292,7.6047],[-72.9283,7.6049],[-72.9271,7.6042],[-72.9279,7.5976],[-72.9272,7.5943],[-72.9253,7.5924],[-72.9244,7.5929],[-72.9244,7.5957],[-72.922,7.5989],[-72.9226,7.6005],[-72.922,7.6015],[-72.9185,7.5982],[-72.9165,7.5983],[-72.9157,7.5971],[-72.9154,7.6009],[-72.9148,7.6014],[-72.9138,7.6011],[-72.9134,7.6017],[-72.9127,7.5996],[-72.9141,7.5972],[-72.9139,7.596],[-72.9148,7.5954],[-72.9135,7.5947],[-72.912,7.5968],[-72.9103,7.5977],[-72.9102,7.5986],[-72.909,7.5994],[-72.9078,7.6022],[-72.9061,7.6041],[-72.904,7.604],[-72.9034,7.6032],[-72.9025,7.6039],[-72.9025,7.6059],[-72.9041,7.606],[-72.908,7.6079],[-72.906,7.6098],[-72.9058,7.6108],[-72.9063,7.6134],[-72.9089,7.6153],[-72.9053,7.6158],[-72.9051,7.6168],[-72.9068,7.6198],[-72.9078,7.6187],[-72.9098,7.6209],[-72.9064,7.6213],[-72.905,7.6224],[-72.9039,7.6224],[-72.8989,7.6199],[-72.8982,7.6185],[-72.8942,7.6185],[-72.8926,7.6195],[-72.8975,7.6224],[-72.8974,7.6243],[-72.8962,7.627],[-72.8999,7.6314],[-72.902,7.6367],[-72.9005,7.6408],[-72.8939,7.6381],[-72.89,7.6427],[-72.8905,7.6447],[-72.8943,7.6449],[-72.8968,7.646],[-72.8951,7.6474],[-72.8955,7.6493],[-72.8947,7.6521],[-72.8971,7.6565],[-72.8846,7.6583],[-72.888,7.6613],[-72.8884,7.6624],[-72.8905,7.6633],[-72.8915,7.6648],[-72.8944,7.6656],[-72.8922,7.6675],[-72.8917,7.6687],[-72.8898,7.6692],[-72.8871,7.6687],[-72.8863,7.6701],[-72.8855,7.6702],[-72.8836,7.6681],[-72.8829,7.67],[-72.8796,7.6698],[-72.8788,7.669],[-72.8787,7.6675],[-72.8825,7.6616],[-72.8788,7.6609],[-72.8791,7.6579],[-72.8766,7.6551],[-72.8729,7.6598],[-72.8716,7.6648],[-72.8701,7.665],[-72.8708,7.6671],[-72.8694,7.6697],[-72.8688,7.6696],[-72.8686,7.6685],[-72.867,7.6702],[-72.8655,7.6679],[-72.8654,7.6671],[-72.8673,7.6656],[-72.8673,7.6643],[-72.8661,7.6626],[-72.864,7.6624],[-72.863,7.6657],[-72.8604,7.6668],[-72.8576,7.6627],[-72.8568,7.6638],[-72.8576,7.6646],[-72.8575,7.6658],[-72.8596,7.6685],[-72.8595,7.6708],[-72.8574,7.6718],[-72.8583,7.6727],[-72.8585,7.6755],[-72.8568,7.6746],[-72.856,7.676],[-72.8511,7.6745],[-72.8517,7.6762],[-72.8495,7.6763],[-72.8487,7.6772],[-72.8529,7.6778],[-72.8515,7.6808],[-72.8519,7.6816],[-72.851,7.6826],[-72.8502,7.6798],[-72.8483,7.6797],[-72.8485,7.6815],[-72.8466,7.68],[-72.8458,7.6763],[-72.8408,7.6774],[-72.8403,7.6776],[-72.8404,7.679],[-72.8394,7.6787],[-72.8382,7.6776],[-72.839,7.676],[-72.8373,7.6756],[-72.8361,7.6731],[-72.8353,7.6733],[-72.834,7.6719],[-72.8318,7.6735],[-72.833,7.6761],[-72.8315,7.6803],[-72.8281,7.6816],[-72.8272,7.6813],[-72.823,7.6842],[-72.8216,7.683],[-72.8215,7.6821],[-72.8186,7.6823],[-72.8166,7.6832],[-72.8186,7.6894],[-72.8171,7.6891],[-72.8166,7.69],[-72.8141,7.6911],[-72.8142,7.6917],[-72.8159,7.6917],[-72.8156,7.6928],[-72.8231,7.6944],[-72.8189,7.7003],[-72.8188,7.7011],[-72.8195,7.7013],[-72.8187,7.7031],[-72.8216,7.7041],[-72.8199,7.7066],[-72.8186,7.7074],[-72.8196,7.7109],[-72.8193,7.7116],[-72.8182,7.7118],[-72.8182,7.7126],[-72.82,7.7127]]]}},{"type":"Feature","properties":{"nombre":"Santurbán Mutiscua Pamplona","tipo":"Parques Naturales Regionales","fuente":"RUNAP","condicion":"INSCRITA","administra":"CORPONOR","url":"https://runap.parquesnacionales.gov.co/area-protegida/1036","hectareas":9384.3},"geometry":{"type":"Polygon","coordinates":[[[-72.7947,7.2576],[-72.7938,7.2634],[-72.7944,7.2659],[-72.7934,7.2704],[-72.79,7.2692],[-72.7866,7.2701],[-72.7882,7.282],[-72.7845,7.2815],[-72.7823,7.2836],[-72.7816,7.2832],[-72.781,7.2838],[-72.7795,7.2831],[-72.7788,7.2835],[-72.7788,7.2847],[-72.777,7.284],[-72.7756,7.2852],[-72.7731,7.2812],[-72.7737,7.28],[-72.7727,7.2809],[-72.7716,7.2806],[-72.7711,7.2782],[-72.7708,7.2796],[-72.767,7.2805],[-72.7669,7.2812],[-72.7688,7.2822],[-72.7675,7.2832],[-72.767,7.2858],[-72.7654,7.2867],[-72.765,7.2882],[-72.7658,7.2971],[-72.7629,7.2977],[-72.7647,7.2978],[-72.7648,7.2999],[-72.7635,7.3003],[-72.7639,7.3011],[-72.7625,7.3009],[-72.7616,7.3032],[-72.7607,7.3031],[-72.7617,7.3042],[-72.7606,7.3051],[-72.7626,7.3047],[-72.7638,7.3056],[-72.7646,7.305],[-72.7661,7.3054],[-72.7658,7.3072],[-72.7641,7.3089],[-72.7644,7.3094],[-72.7661,7.3086],[-72.7679,7.3087],[-72.7684,7.3096],[-72.7701,7.3095],[-72.7704,7.3085],[-72.7712,7.3086],[-72.7722,7.3095],[-72.7722,7.3112],[-72.7735,7.311],[-72.7735,7.3118],[-72.7755,7.3124],[-72.7754,7.3113],[-72.7767,7.3111],[-72.7775,7.3122],[-72.7773,7.3139],[-72.7785,7.3152],[-72.7769,7.3156],[-72.7747,7.3149],[-72.774,7.3166],[-72.772,7.3164],[-72.7716,7.3186],[-72.7706,7.3188],[-72.7704,7.3202],[-72.7681,7.3217],[-72.7684,7.3238],[-72.7703,7.3254],[-72.7676,7.3269],[-72.768,7.3298],[-72.7695,7.3308],[-72.771,7.3309],[-72.7736,7.3277],[-72.7741,7.3322],[-72.7756,7.3305],[-72.7752,7.3299],[-72.7762,7.3297],[-72.7769,7.3316],[-72.7757,7.3328],[-72.7743,7.3327],[-72.7746,7.3354],[-72.7756,7.3363],[-72.7767,7.3356],[-72.7787,7.3318],[-72.7783,7.3309],[-72.7788,7.3284],[-72.7775,7.3289],[-72.7788,7.3259],[-72.7801,7.3261],[-72.7816,7.325],[-72.7817,7.3235],[-72.783,7.3219],[-72.7849,7.3218],[-72.7852,7.3235],[-72.7852,7.3257],[-72.7843,7.3255],[-72.7845,7.3272],[-72.7832,7.3305],[-72.7838,7.3304],[-72.784,7.3317],[-72.7858,7.3301],[-72.7867,7.3308],[-72.7875,7.3296],[-72.7889,7.3303],[-72.7896,7.3288],[-72.7902,7.3288],[-72.7902,7.3309],[-72.7922,7.328],[-72.7905,7.3262],[-72.7917,7.325],[-72.7925,7.327],[-72.7956,7.3273],[-72.7963,7.3279],[-72.7963,7.3285],[-72.7949,7.3285],[-72.7947,7.3292],[-72.796,7.3309],[-72.7951,7.333],[-72.7959,7.3331],[-72.7963,7.3339],[-72.7919,7.3362],[-72.7911,7.3372],[-72.7914,7.3381],[-72.7952,7.3391],[-72.7961,7.34],[-72.7961,7.3406],[-72.7948,7.3405],[-72.794,7.3414],[-72.7947,7.3436],[-72.7885,7.3436],[-72.7913,7.3464],[-72.7916,7.3491],[-72.7928,7.351],[-72.7895,7.3576],[-72.7922,7.359],[-72.7937,7.3625],[-72.7885,7.3628],[-72.7875,7.3631],[-72.787,7.3642],[-72.7845,7.3618],[-72.7839,7.3633],[-72.7866,7.366],[-72.7859,7.366],[-72.7854,7.3684],[-72.7835,7.3697],[-72.7807,7.3696],[-72.7793,7.3709],[-72.7818,7.3726],[-72.7844,7.3722],[-72.7844,7.3733],[-72.7832,7.3737],[-72.7832,7.3751],[-72.7804,7.3754],[-72.7777,7.378],[-72.7768,7.3779],[-72.7767,7.3793],[-72.7739,7.3806],[-72.772,7.3798],[-72.7699,7.3802],[-72.7685,7.3826],[-72.7666,7.3838],[-72.7651,7.3831],[-72.7656,7.3819],[-72.7635,7.3807],[-72.7622,7.3816],[-72.7623,7.3849],[-72.7598,7.3868],[-72.7588,7.3852],[-72.756,7.3877],[-72.7546,7.3853],[-72.7538,7.3855],[-72.7535,7.3864],[-72.7531,7.3861],[-72.7507,7.3874],[-72.7517,7.388],[-72.7514,7.3886],[-72.7503,7.3883],[-72.7504,7.3901],[-72.7488,7.3922],[-72.7465,7.3931],[-72.7474,7.3955],[-72.7484,7.3964],[-72.7488,7.3988],[-72.7569,7.3957],[-72.7571,7.3951],[-72.7553,7.3941],[-72.7566,7.3927],[-72.7569,7.3911],[-72.7574,7.3906],[-72.7595,7.3915],[-72.7595,7.3908],[-72.7608,7.3899],[-72.7612,7.393],[-72.7637,7.3923],[-72.765,7.3938],[-72.7658,7.3921],[-72.7678,7.3919],[-72.7678,7.3945],[-72.7693,7.3947],[-72.7702,7.3969],[-72.7699,7.3974],[-72.7674,7.3964],[-72.7672,7.3981],[-72.7651,7.3975],[-72.764,7.3985],[-72.7656,7.4002],[-72.7665,7.4002],[-72.7665,7.4014],[-72.7634,7.4039],[-72.7641,7.4048],[-72.7632,7.4065],[-72.7656,7.4058],[-72.7659,7.4074],[-72.7628,7.4086],[-72.7643,7.4091],[-72.7661,7.4079],[-72.7664,7.4087],[-72.7676,7.4087],[-72.7669,7.4092],[-72.7672,7.4107],[-72.7628,7.4155],[-72.7589,7.4186],[-72.7543,7.4211],[-72.7523,7.4255],[-72.7526,7.426],[-72.7533,7.4255],[-72.7539,7.4267],[-72.7551,7.4258],[-72.7565,7.4275],[-72.7593,7.4266],[-72.7607,7.4269],[-72.7627,7.4247],[-72.7634,7.4251],[-72.7645,7.4246],[-72.7652,7.4234],[-72.7642,7.4214],[-72.7629,7.4222],[-72.7642,7.423],[-72.7612,7.4223],[-72.762,7.4234],[-72.7606,7.423],[-72.7602,7.4221],[-72.759,7.4221],[-72.7605,7.4198],[-72.7614,7.4205],[-72.7609,7.4212],[-72.7614,7.4218],[-72.7618,7.42],[-72.7628,7.4202],[-72.7646,7.4192],[-72.7662,7.4208],[-72.7654,7.4219],[-72.766,7.4233],[-72.7687,7.42],[-72.766,7.4181],[-72.7654,7.4187],[-72.7649,7.4184],[-72.7657,7.4158],[-72.7684,7.417],[-72.7665,7.4174],[-72.769,7.4196],[-72.7713,7.4185],[-72.773,7.4202],[-72.7736,7.4233],[-72.7729,7.4232],[-72.772,7.4241],[-72.7687,7.4228],[-72.7694,7.4243],[-72.7681,7.4265],[-72.765,7.4272],[-72.765,7.4291],[-72.7642,7.4301],[-72.7605,7.4309],[-72.7616,7.4311],[-72.7618,7.4319],[-72.7632,7.4323],[-72.7635,7.4317],[-72.764,7.4323],[-72.7654,7.432],[-72.7671,7.4299],[-72.7695,7.4294],[-72.7672,7.4334],[-72.7674,7.4346],[-72.768,7.4348],[-72.7697,7.4329],[-72.7724,7.4317],[-72.7742,7.4318],[-72.7748,7.4299],[-72.776,7.4316],[-72.7782,7.4324],[-72.7806,7.4299],[-72.7879,7.426],[-72.7909,7.4232],[-72.7935,7.4227],[-72.8002,7.415],[-72.8063,7.4115],[-72.8072,7.4058],[-72.8122,7.3998],[-72.8123,7.3944],[-72.8168,7.388],[-72.8172,7.3763],[-72.82,7.3703],[-72.8213,7.3641],[-72.825,7.3599],[-72.8303,7.3595],[-72.838,7.36],[-72.8373,7.355],[-72.8402,7.3505],[-72.8404,7.3464],[-72.8415,7.3444],[-72.8401,7.3427],[-72.84,7.3415],[-72.8404,7.3378],[-72.8396,7.3307],[-72.8408,7.3291],[-72.841,7.3267],[-72.8396,7.3213],[-72.8401,7.3185],[-72.8423,7.316],[-72.8389,7.3103],[-72.8376,7.3066],[-72.835,7.3057],[-72.8344,7.3036],[-72.8328,7.3039],[-72.8304,7.3024],[-72.828,7.3021],[-72.8243,7.2998],[-72.8181,7.2977],[-72.8179,7.2969],[-72.819,7.2947],[-72.8192,7.2881],[-72.8139,7.2815],[-72.8129,7.2788],[-72.8109,7.2763],[-72.8022,7.2695],[-72.7972,7.2576],[-72.7967,7.2546],[-72.795,7.2522],[-72.7944,7.2501],[-72.793,7.2548],[-72.792,7.2552],[-72.7918,7.2562],[-72.7902,7.2545],[-72.7892,7.2548],[-72.7902,7.257],[-72.7947,7.2576]]]}},{"type":"Feature","properties":{"nombre":"Serranía de los Yariguíes","tipo":"Distritos Regionales de Manejo Integrado","fuente":"RUNAP","condicion":"REGISTRADA","administra":"CAS","url":"https://runap.parquesnacionales.gov.co/area-protegida/473","hectareas":418910.5},"geometry":{"type":"Polygon","coordinates":[[[-73.4135,7.1039],[-73.4175,7.1069],[-73.4165,7.1069],[-73.4166,7.1087],[-73.4168,7.1072],[-73.4183,7.1077],[-73.4291,7.1172],[-73.4295,7.119],[-73.4286,7.1195],[-73.4302,7.1213],[-73.4302,7.1229],[-73.4326,7.1245],[-73.434,7.1263],[-73.4354,7.1296],[-73.436,7.1296],[-73.436,7.131],[-73.4374,7.1304],[-73.4408,7.134],[-73.445,7.1338],[-73.4464,7.1347],[-73.4467,7.1343],[-73.4494,7.1351],[-73.4486,7.1355],[-73.4507,7.1362],[-73.4519,7.1393],[-73.4506,7.1389],[-73.4534,7.1402],[-73.4588,7.1416],[-73.4612,7.1416],[-73.4624,7.1422],[-73.4631,7.1438],[-73.4693,7.1455],[-73.476,7.1486],[-73.4801,7.149],[-73.4828,7.1504],[-73.4816,7.15],[-73.482,7.1508],[-73.4943,7.1514],[-73.4991,7.1492],[-73.5022,7.1495],[-73.505,7.1487],[-73.5067,7.1474],[-73.5069,7.1491],[-73.5055,7.1514],[-73.5069,7.1503],[-73.5071,7.1476],[-73.5085,7.1461],[-73.5131,7.1441],[-73.5147,7.144],[-73.5183,7.1456],[-73.5206,7.1476],[-73.5252,7.1549],[-73.528,7.1566],[-73.5315,7.1566],[-73.5328,7.1591],[-73.5424,7.1589],[-73.5441,7.1577],[-73.5465,7.1578],[-73.5483,7.1601],[-73.5486,7.1625],[-73.5502,7.1632],[-73.5478,7.1646],[-73.5441,7.1644],[-73.5447,7.1656],[-73.546,7.1663],[-73.5481,7.1662],[-73.5499,7.1647],[-73.5521,7.1648],[-73.5551,7.166],[-73.5551,7.1618],[-73.5567,7.1597],[-73.5584,7.159],[-73.5593,7.1575],[-73.5635,7.1575],[-73.5644,7.1566],[-73.5651,7.154],[-73.5663,7.1531],[-73.5685,7.1527],[-73.5702,7.1541],[-73.5727,7.1527],[-73.5741,7.1501],[-73.5763,7.151],[-73.5783,7.1545],[-73.5802,7.1546],[-73.5816,7.1534],[-73.5827,7.1537],[-73.5845,7.1551],[-73.5905,7.1626],[-73.5932,7.162],[-73.5949,7.1593],[-73.5962,7.1594],[-73.5977,7.161],[-73.5975,7.163],[-73.5981,7.1642],[-73.6005,7.1633],[-73.6021,7.1634],[-73.6036,7.1648],[-73.6039,7.1669],[-73.6052,7.1678],[-73.6056,7.1648],[-73.608,7.1626],[-73.6106,7.1625],[-73.6135,7.161],[-73.6125,7.1598],[-73.6133,7.158],[-73.6128,7.1572],[-73.6099,7.1565],[-73.6088,7.1507],[-73.606,7.1476],[-73.605,7.1449],[-73.6031,7.144],[-73.5978,7.1342],[-73.6009,7.1318],[-73.5994,7.128],[-73.5996,7.1266],[-73.603,7.1237],[-73.6028,7.1226],[-73.6,7.1216],[-73.5998,7.1193],[-73.5981,7.1176],[-73.5986,7.1169],[-73.5983,7.1149],[-73.6002,7.1153],[-73.6001,7.1117],[-73.6012,7.1077],[-73.5952,7.1073],[-73.5938,7.1065],[-73.5938,7.1073],[-73.5925,7.1082],[-73.5876,7.1076],[-73.5867,7.1064],[-73.5859,7.1065],[-73.5862,7.1056],[-73.5855,7.1042],[-73.5836,7.103],[-73.5834,7.1022],[-73.5814,7.1015],[-73.5801,7.102],[-73.5802,7.1012],[-73.5794,7.1007],[-73.5725,7.104],[-73.572,7.1052],[-73.5696,7.1053],[-73.5689,7.1046],[-73.5668,7.1066],[-73.5654,7.1052],[-73.564,7.1053],[-73.5641,7.1041],[-73.5629,7.1024],[-73.5615,7.1026],[-73.5612,7.1017],[-73.5602,7.1015],[-73.5603,7.1009],[-73.5585,7.1007],[-73.5587,7.0999],[-73.5576,7.0983],[-73.5583,7.0969],[-73.5573,7.0938],[-73.5578,7.0918],[-73.5554,7.0879],[-73.5521,7.0857],[-73.5484,7.0843],[-73.5468,7.0847],[-73.5462,7.0841],[-73.546,7.0801],[-73.5481,7.0775],[-73.5489,7.075],[-73.5488,7.0713],[-73.5459,7.0655],[-73.5458,7.0639],[-73.5485,7.0626],[-73.5478,7.0605],[-73.5479,7.0547],[-73.5496,7.0518],[-73.5517,7.0512],[-73.556,7.046],[-73.5567,7.0414],[-73.5555,7.0378],[-73.5559,7.0367],[-73.5542,7.0347],[-73.5542,7.0321],[-73.5532,7.0283],[-73.5504,7.0263],[-73.5487,7.0238],[-73.5488,7.021],[-73.5481,7.0187],[-73.5453,7.0177],[-73.5449,7.0163],[-73.5463,7.0126],[-73.5484,7.0102],[-73.5516,7.0085],[-73.553,7.0053],[-73.5572,7.0037],[-73.5583,6.9992],[-73.5626,6.9905],[-73.5629,6.9879],[-73.5622,6.986],[-73.5628,6.9839],[-73.5616,6.9801],[-73.5621,6.9787],[-73.5611,6.972],[-73.5618,6.9704],[-73.5638,6.9703],[-73.5653,6.9673],[-73.5654,6.9647],[-73.5642,6.9614],[-73.5611,6.9586],[-73.5615,6.9567],[-73.5631,6.9544],[-73.5649,6.9538],[-73.565,6.95],[-73.5661,6.9481],[-73.5682,6.9464],[-73.5683,6.945],[-73.5719,6.9436],[-73.5719,6.9412],[-73.5748,6.9405],[-73.5761,6.9374],[-73.5757,6.9353],[-73.5772,6.9337],[-73.5763,6.9319],[-73.5766,6.9304],[-73.5776,6.9295],[-73.5796,6.9295],[-73.5816,6.9262],[-73.5805,6.9232],[-73.5806,6.9209],[-73.5775,6.9189],[-73.5767,6.9159],[-73.5767,6.9136],[-73.5794,6.91],[-73.5778,6.9091],[-73.578,6.906],[-73.5745,6.9018],[-73.5759,6.9001],[-73.5758,6.8973],[-73.5764,6.8964],[-73.5753,6.8956],[-73.5757,6.8946],[-73.5775,6.8938],[-73.5783,6.8921],[-73.5798,6.8913],[-73.5802,6.889],[-73.581,6.8901],[-73.5819,6.8901],[-73.5815,6.8878],[-73.5807,6.887],[-73.5787,6.888],[-73.5778,6.8892],[-73.5751,6.889],[-73.5735,6.8873],[-73.5716,6.8885],[-73.5683,6.8871],[-73.5668,6.8883],[-73.5643,6.8888],[-73.5628,6.8911],[-73.5596,6.8917],[-73.5588,6.8924],[-73.5541,6.8912],[-73.5541,6.8896],[-73.5571,6.8876],[-73.5583,6.8853],[-73.5577,6.8842],[-73.5534,6.8833],[-73.5532,6.881],[-73.5515,6.8795],[-73.5528,6.8784],[-73.5547,6.8782],[-73.5547,6.8771],[-73.553,6.8757],[-73.5542,6.8759],[-73.5551,6.8706],[-73.5523,6.868],[-73.551,6.8678],[-73.5503,6.8691],[-73.5517,6.8695],[-73.55,6.8728],[-73.5483,6.8736],[-73.5473,6.8726],[-73.5477,6.8678],[-73.5485,6.8658],[-73.5484,6.8647],[-73.5459,6.8611],[-73.5473,6.8552],[-73.546,6.852],[-73.5478,6.8496],[-73.5473,6.8467],[-73.5481,6.8454],[-73.5472,6.8435],[-73.5438,6.8421],[-73.5419,6.8404],[-73.5414,6.8388],[-73.5388,6.837],[-73.5375,6.8344],[-73.539,6.8304],[-73.5408,6.8284],[-73.5407,6.8196],[-73.5433,6.8162],[-73.5444,6.8122],[-73.5459,6.8106],[-73.5471,6.8074],[-73.5492,6.8049],[-73.5488,6.8031],[-73.5493,6.7998],[-73.5484,6.799],[-73.5433,6.7994],[-73.543,6.7978],[-73.5397,6.7956],[-73.5408,6.7952],[-73.5407,6.7939],[-73.5416,6.7932],[-73.5402,6.7912],[-73.5433,6.7849],[-73.5417,6.7839],[-73.5419,6.783],[-73.5396,6.7805],[-73.5375,6.7792],[-73.5362,6.7792],[-73.536,6.7777],[-73.5371,6.7759],[-73.5336,6.7744],[-73.534,6.7733],[-73.5379,6.7715],[-73.5397,6.7684],[-73.5399,6.7677],[-73.5377,6.7673],[-73.5372,6.7659],[-73.5355,6.7649],[-73.5388,6.7625],[-73.5393,6.761],[-73.5369,6.7572],[-73.5332,6.7558],[-73.5345,6.7534],[-73.5343,6.7512],[-73.5311,6.7503],[-73.5335,6.7471],[-73.5314,6.7464],[-73.5323,6.7433],[-73.5315,6.7425],[-73.5317,6.7408],[-73.5288,6.7413],[-73.5299,6.7399],[-73.5301,6.7382],[-73.5274,6.736],[-73.5257,6.7375],[-73.5249,6.7356],[-73.5553,6.7356],[-73.5554,6.7384],[-73.5603,6.7432],[-73.5617,6.7455],[-73.5658,6.7475],[-73.5679,6.7506],[-73.5708,6.752],[-73.5735,6.752],[-73.5751,6.7546],[-73.577,6.7561],[-73.576,6.7579],[-73.5784,6.7584],[-73.5791,6.7604],[-73.5815,6.7612],[-73.5847,6.7639],[-73.5857,6.7662],[-73.5878,6.7671],[-73.5877,6.7683],[-73.5886,6.7696],[-73.5904,6.7703],[-73.5951,6.7681],[-73.5963,6.7695],[-73.6011,6.7713],[-73.6079,6.7691],[-73.6137,6.7708],[-73.6155,6.7696],[-73.6173,6.7698],[-73.6174,6.7679],[-73.6182,6.767],[-73.6209,6.7677],[-73.6217,6.7666],[-73.6246,6.7659],[-73.6253,6.7649],[-73.6262,6.7518],[-73.6256,6.7501],[-73.6244,6.749],[-73.6244,6.7475],[-73.6262,6.7449],[-73.6297,6.7432],[-73.6303,6.7413],[-73.6294,6.7391],[-73.6308,6.7379],[-73.631,6.7334],[-73.6339,6.7281],[-73.6328,6.7276],[-73.632,6.7249],[-73.6337,6.7248],[-73.6353,6.7235],[-73.6359,6.7199],[-73.6375,6.7217],[-73.6382,6.721],[-73.6365,6.7132],[-73.6368,6.7111],[-73.6428,6.7076],[-73.6435,6.7064],[-73.6417,6.7055],[-73.6418,6.7046],[-73.6426,6.7039],[-73.6445,6.704],[-73.6452,6.7033],[-73.6459,6.6993],[-73.6451,6.6944],[-73.6461,6.6951],[-73.6466,6.6947],[-73.6491,6.6911],[-73.649,6.6906],[-73.6476,6.6909],[-73.6477,6.6901],[-73.651,6.6872],[-73.6519,6.6872],[-73.6521,6.6848],[-73.6531,6.6836],[-73.6549,6.6836],[-73.6549,6.6811],[-73.6569,6.6793],[-73.6567,6.6787],[-73.6613,6.677],[-73.6632,6.6788],[-73.6691,6.6764],[-73.6694,6.6756],[-73.6721,6.6769],[-73.6731,6.6766],[-73.673,6.6754],[-73.6714,6.674],[-73.6723,6.6731],[-73.6731,6.6704],[-73.672,6.666],[-73.6734,6.6656],[-73.673,6.664],[-73.6744,6.6627],[-73.675,6.6584],[-73.6767,6.6578],[-73.6775,6.6564],[-73.6787,6.6562],[-73.6799,6.6535],[-73.679,6.6474],[-73.6778,6.6463],[-73.6793,6.6442],[-73.6814,6.6453],[-73.6823,6.6442],[-73.6832,6.645],[-73.6838,6.6446],[-73.6849,6.646],[-73.6874,6.6433],[-73.6891,6.6398],[-73.6871,6.6372],[-73.6879,6.6365],[-73.6886,6.6373],[-73.6895,6.6362],[-73.6905,6.6368],[-73.6909,6.6363],[-73.6902,6.6332],[-73.6887,6.6319],[-73.6901,6.631],[-73.691,6.6244],[-73.6924,6.6239],[-73.6923,6.6217],[-73.6937,6.6209],[-73.6939,6.618],[-73.6947,6.6174],[-73.6928,6.6162],[-73.6947,6.6145],[-73.6973,6.6143],[-73.6984,6.6123],[-73.698,6.6102],[-73.6987,6.6069],[-73.6981,6.6053],[-73.7008,6.6016],[-73.6999,6.6011],[-73.6993,6.5984],[-73.6997,6.5979],[-73.7013,6.597],[-73.7041,6.5968],[-73.7052,6.5981],[-73.7078,6.5981],[-73.7089,6.5992],[-73.7119,6.5978],[-73.7142,6.598],[-73.7148,6.5964],[-73.7162,6.5999],[-73.7195,6.5984],[-73.7193,6.6023],[-73.7172,6.6046],[-73.7171,6.6059],[-73.7201,6.6064],[-73.7205,6.6083],[-73.723,6.6098],[-73.7238,6.6097],[-73.7246,6.6081],[-73.7267,6.609],[-73.7275,6.6133],[-73.7259,6.6143],[-73.7262,6.6151],[-73.7297,6.6145],[-73.7308,6.6125],[-73.7327,6.6134],[-73.735,6.6169],[-73.7342,6.6181],[-73.7345,6.6198],[-73.7329,6.6225],[-73.7333,6.6247],[-73.7343,6.6253],[-73.7334,6.6265],[-73.7334,6.628],[-73.7351,6.6298],[-73.7331,6.6325],[-73.7353,6.6345],[-73.7357,6.6362],[-73.734,6.6362],[-73.7318,6.6387],[-73.7598,6.6387],[-73.7604,6.6368],[-73.7617,6.6363],[-73.7605,6.635],[-73.7619,6.6343],[-73.7629,6.6319],[-73.765,6.6323],[-73.7649,6.6303],[-73.7665,6.6303],[-73.7668,6.6297],[-73.7675,6.6301],[-73.7684,6.6281],[-73.7689,6.6288],[-73.7694,6.6286],[-73.7701,6.6272],[-73.7711,6.627],[-73.7716,6.625],[-73.7723,6.6254],[-73.7729,6.6232],[-73.7725,6.6218],[-73.7735,6.6214],[-73.7727,6.6202],[-73.7714,6.6197],[-73.7732,6.6187],[-73.7744,6.6165],[-73.7759,6.6161],[-73.7783,6.6139],[-73.78,6.6154],[-73.7822,6.6145],[-73.7827,6.6126],[-73.7814,6.611],[-73.7847,6.6077],[-73.7875,6.6035],[-73.7981,6.5991],[-73.8023,6.5965],[-73.8017,6.5952],[-73.7972,6.5924],[-73.7953,6.5903],[-73.7937,6.5833],[-73.7958,6.5804],[-73.7951,6.5781],[-73.7906,6.5776],[-73.7865,6.5802],[-73.7856,6.5753],[-73.7844,6.5744],[-73.7809,6.5735],[-73.7785,6.5718],[-73.7744,6.5736],[-73.7682,6.5721],[-73.7643,6.5726],[-73.7605,6.57],[-73.7578,6.5664],[-73.7563,6.5654],[-73.7531,6.5654],[-73.7527,6.5645],[-73.7563,6.5612],[-73.7611,6.5538],[-73.7639,6.5478],[-73.7657,6.546],[-73.7662,6.5427],[-73.7684,6.5393],[-73.7665,6.5377],[-73.7663,6.5368],[-73.7687,6.5308],[-73.7684,6.5282],[-73.769,6.5255],[-73.7685,6.5236],[-73.7691,6.5222],[-73.7686,6.521],[-73.7655,6.5193],[-73.7649,6.5167],[-73.7671,6.5086],[-73.7661,6.5071],[-73.7676,6.5044],[-73.7695,6.5036],[-73.7698,6.5014],[-73.7675,6.4987],[-73.7649,6.4974],[-73.7599,6.4987],[-73.7582,6.5],[-73.757,6.4986],[-73.757,6.4977],[-73.7579,6.4968],[-73.7661,6.4962],[-73.7691,6.4953],[-73.7712,6.4925],[-73.773,6.4928],[-73.775,6.4916],[-73.7752,6.4909],[-73.774,6.4901],[-73.7826,6.488],[-73.7838,6.4859],[-73.7864,6.4843],[-73.7889,6.4811],[-73.7902,6.4772],[-73.7934,6.4753],[-73.7942,6.4721],[-73.7911,6.4693],[-73.7903,6.4657],[-73.7886,6.4639],[-73.7897,6.4617],[-73.7895,6.4605],[-73.7874,6.459],[-73.7852,6.4602],[-73.7842,6.4563],[-73.8159,6.4563],[-73.817,6.4573],[-73.8187,6.4561],[-73.8222,6.4575],[-73.8235,6.4569],[-73.8237,6.4559],[-73.8284,6.455],[-73.8301,6.4529],[-73.8299,6.4518],[-73.8312,6.4516],[-73.8315,6.4487],[-73.8335,6.4479],[-73.8342,6.4485],[-73.8346,6.4461],[-73.8363,6.4445],[-73.8382,6.4455],[-73.8386,6.4466],[-73.8379,6.4476],[-73.8395,6.45],[-73.8407,6.4501],[-73.8414,6.4489],[-73.8435,6.4499],[-73.8443,6.4491],[-73.8438,6.4479],[-73.8443,6.447],[-73.8466,6.4466],[-73.8481,6.4438],[-73.8483,6.445],[-73.8503,6.4451],[-73.8499,6.4462],[-73.8507,6.4468],[-73.8533,6.4445],[-73.854,6.4447],[-73.8542,6.4435],[-73.8545,6.4444],[-73.8558,6.4436],[-73.8557,6.4418],[-73.8562,6.4428],[-73.858,6.443],[-73.8582,6.4411],[-73.8592,6.4413],[-73.86,6.4389],[-73.8613,6.4391],[-73.8615,6.4375],[-73.8635,6.4371],[-73.864,6.4354],[-73.8653,6.4355],[-73.8656,6.4344],[-73.8649,6.4323],[-73.8662,6.4321],[-73.8669,6.4327],[-73.8672,6.4313],[-73.8684,6.4303],[-73.8683,6.4286],[-73.8696,6.4263],[-73.8729,6.4276],[-73.8736,6.4269],[-73.875,6.4275],[-73.8779,6.4219],[-73.877,6.4207],[-73.8777,6.4201],[-73.8773,6.4188],[-73.8793,6.4158],[-73.8814,6.4145],[-73.8881,6.4159],[-73.8923,6.4189],[-73.8949,6.4195],[-73.8935,6.4233],[-73.8936,6.4238],[-73.8948,6.4236],[-73.8952,6.4246],[-73.8978,6.4225],[-73.8992,6.418],[-73.8986,6.4214],[-73.8998,6.4231],[-73.9015,6.4232],[-73.9018,6.4223],[-73.8997,6.4207],[-73.9039,6.4153],[-73.9046,6.4161],[-73.9062,6.4158],[-73.9058,6.4127],[-73.9068,6.4098],[-73.9089,6.4106],[-73.9099,6.408],[-73.9115,6.4082],[-73.9133,6.4073],[-73.9154,6.4101],[-73.9197,6.4135],[-73.9155,6.4198],[-73.9156,6.4229],[-73.9167,6.4228],[-73.9178,6.4186],[-73.9212,6.417],[-73.9223,6.4142],[-73.9247,6.4157],[-73.9236,6.417],[-73.9238,6.4185],[-73.9308,6.4216],[-73.9319,6.4206],[-73.9309,6.4154],[-73.9313,6.4133],[-73.9325,6.4179],[-73.9346,6.4168],[-73.9349,6.4146],[-73.9358,6.4135],[-73.9363,6.4138],[-73.9363,6.4176],[-73.9383,6.4181],[-73.9382,6.4158],[-73.9393,6.4148],[-73.9406,6.4158],[-73.9399,6.417],[-73.9409,6.4191],[-73.9445,6.4195],[-73.9446,6.4167],[-73.9458,6.4146],[-73.9454,6.4129],[-73.9432,6.4138],[-73.941,6.4137],[-73.9407,6.4091],[-73.9374,6.4081],[-73.938,6.4073],[-73.938,6.4051],[-73.9393,6.4035],[-73.9389,6.4003],[-73.9382,6.3997],[-73.9365,6.3998],[-73.9354,6.4037],[-73.9324,6.4038],[-73.9318,6.4028],[-73.9323,6.3989],[-73.9331,6.3984],[-73.9346,6.3987],[-73.9354,6.3979],[-73.9348,6.3958],[-73.9355,6.3929],[-73.9354,6.3869],[-73.9374,6.3799],[-73.9387,6.3781],[-73.9386,6.3743],[-73.9413,6.3668],[-73.9417,6.3611],[-73.9429,6.3592],[-73.9426,6.3579],[-73.9459,6.3565],[-73.9463,6.3548],[-73.9455,6.3467],[-73.9464,6.3449],[-73.9449,6.3425],[-73.9445,6.339],[-73.9447,6.3298],[-73.9467,6.3281],[-73.947,6.3287],[-73.9482,6.3287],[-73.9513,6.3265],[-73.9521,6.3241],[-73.9519,6.3205],[-73.9534,6.3192],[-73.954,6.3168],[-73.9562,6.3158],[-73.9564,6.3141],[-73.9581,6.3119],[-73.958,6.3079],[-73.9589,6.3031],[-73.9624,6.296],[-73.9633,6.2954],[-73.9648,6.2897],[-73.9669,6.2851],[-73.967,6.2832],[-73.9668,6.2814],[-73.9647,6.2793],[-73.958,6.2781],[-73.9569,6.2757],[-73.9571,6.2736],[-73.955,6.272],[-73.954,6.2703],[-73.9541,6.2665],[-73.9528,6.2631],[-73.9516,6.2617],[-73.952,6.2603],[-73.9503,6.2562],[-73.94,6.2514],[-73.9381,6.2497],[-73.9269,6.2502],[-73.9237,6.2498],[-73.9209,6.2482],[-73.921,6.166],[-73.9236,6.1638],[-73.9244,6.162],[-73.9271,6.1614],[-73.9265,6.1588],[-73.9286,6.1566],[-73.9271,6.1564],[-73.9256,6.1538],[-73.9256,6.1531],[-73.9277,6.1525],[-73.9272,6.1512],[-73.9278,6.1475],[-73.9266,6.1449],[-73.9275,6.1421],[-73.93,6.141],[-73.9302,6.1368],[-73.9315,6.1342],[-73.9336,6.1319],[-73.932,6.1287],[-73.9342,6.1267],[-73.9334,6.1229],[-73.931,6.1203],[-73.9286,6.119],[-73.9248,6.1187],[-73.9234,6.1166],[-73.9223,6.1123],[-73.9183,6.1063],[-73.917,6.1065],[-73.9113,6.1117],[-73.9071,6.1138],[-73.9013,6.1233],[-73.898,6.1236],[-73.8967,6.1252],[-73.8938,6.1255],[-73.891,6.1266],[-73.8886,6.1302],[-73.882,6.1325],[-73.8786,6.142],[-73.8777,6.1465],[-73.8787,6.15],[-73.8767,6.1533],[-73.8746,6.1541],[-73.8733,6.1556],[-73.8698,6.1567],[-73.8694,6.158],[-73.8701,6.1598],[-73.8669,6.16],[-73.8662,6.1617],[-73.8644,6.1633],[-73.8632,6.1661],[-73.8606,6.1675],[-73.8609,6.1715],[-73.8591,6.1748],[-73.8571,6.1754],[-73.8552,6.1773],[-73.8519,6.1775],[-73.8511,6.1788],[-73.8456,6.1799],[-73.843,6.1815],[-73.8413,6.1835],[-73.8396,6.1841],[-73.8388,6.1872],[-73.8364,6.1884],[-73.8325,6.1925],[-73.8302,6.1931],[-73.8291,6.1958],[-73.8263,6.1964],[-73.8262,6.1975],[-73.8278,6.2001],[-73.8239,6.2004],[-73.8188,6.2044],[-73.8141,6.2056],[-73.8124,6.2077],[-73.8089,6.2076],[-73.8077,6.209],[-73.8021,6.2119],[-73.7988,6.2117],[-73.795,6.2135],[-73.7926,6.2125],[-73.7912,6.2136],[-73.7893,6.2138],[-73.7858,6.2124],[-73.7836,6.2104],[-73.7813,6.2114],[-73.7742,6.2078],[-73.7711,6.2079],[-73.7702,6.204],[-73.7503,6.204],[-73.7495,6.2028],[-73.7437,6.2014],[-73.7408,6.198],[-73.7378,6.197],[-73.7373,6.1962],[-73.7345,6.1957],[-73.7326,6.1938],[-73.7277,6.1922],[-73.7265,6.1909],[-73.7221,6.1888],[-73.7189,6.1854],[-73.7181,6.1827],[-73.7156,6.1797],[-73.7133,6.1746],[-73.7131,6.1759],[-73.7106,6.1796],[-73.7081,6.1806],[-73.7057,6.1831],[-73.7043,6.1833],[-73.7014,6.1856],[-73.6977,6.1907],[-73.6866,6.1978],[-73.6864,6.2005],[-73.6853,6.2022],[-73.6855,6.2045],[-73.6843,6.2067],[-73.684,6.2092],[-73.6837,6.2099],[-73.6818,6.2105],[-73.6817,6.2122],[-73.6791,6.2182],[-73.6797,6.2202],[-73.6793,6.2235],[-73.6813,6.2263],[-73.6801,6.2283],[-73.68,6.2355],[-73.6793,6.2372],[-73.6806,6.239],[-73.6806,6.2404],[-73.6799,6.2416],[-73.6819,6.2429],[-73.6819,6.2449],[-73.6827,6.2459],[-73.6825,6.2476],[-73.6843,6.2493],[-73.6837,6.2505],[-73.6823,6.251],[-73.6825,6.2523],[-73.6758,6.2514],[-73.6736,6.25],[-73.6716,6.2498],[-73.6697,6.2472],[-73.6671,6.2475],[-73.6647,6.2488],[-73.662,6.2461],[-73.6582,6.2448],[-73.6535,6.2457],[-73.6514,6.2452],[-73.6502,6.2459],[-73.6496,6.2452],[-73.6476,6.2454],[-73.6448,6.2475],[-73.6424,6.2549],[-73.6446,6.257],[-73.6471,6.2579],[-73.6453,6.2589],[-73.6434,6.2614],[-73.6388,6.2692],[-73.6361,6.2689],[-73.6342,6.2718],[-73.6318,6.2699],[-73.6299,6.2693],[-73.6287,6.2678],[-73.6245,6.2674],[-73.6198,6.2653],[-73.6176,6.2616],[-73.614,6.2589],[-73.6103,6.2579],[-73.6076,6.254],[-73.6029,6.2512],[-73.5985,6.2449],[-73.5863,6.2382],[-73.5857,6.2361],[-73.5848,6.2353],[-73.5821,6.2351],[-73.5798,6.2339],[-73.5761,6.2269],[-73.5725,6.223],[-73.5286,6.223],[-73.531,6.2176],[-73.5295,6.2131],[-73.5269,6.2116],[-73.5246,6.2073],[-73.5178,6.2002],[-73.5164,6.1969],[-73.5135,6.1929],[-73.5101,6.1917],[-73.5092,6.1846],[-73.507,6.1814],[-73.5047,6.1804],[-73.5017,6.1768],[-73.4994,6.176],[-73.4978,6.176],[-73.4933,6.1777],[-73.4886,6.1758],[-73.4866,6.1763],[-73.4838,6.1758],[-73.4833,6.1773],[-73.4804,6.1808],[-73.4804,6.1866],[-73.476,6.1915],[-73.4744,6.1973],[-73.4669,6.2052],[-73.4655,6.2095],[-73.4631,6.2114],[-73.4612,6.215],[-73.4576,6.2188],[-73.4575,6.2225],[-73.4563,6.225],[-73.4549,6.226],[-73.4542,6.2293],[-73.4526,6.2311],[-73.4478,6.2293],[-73.4445,6.2331],[-73.443,6.2361],[-73.4438,6.2384],[-73.4433,6.24],[-73.4448,6.241],[-73.4453,6.2448],[-73.4463,6.2454],[-73.448,6.2443],[-73.4499,6.2448],[-73.4475,6.2488],[-73.4441,6.2517],[-73.4458,6.2551],[-73.4449,6.2566],[-73.4448,6.2586],[-73.443,6.264],[-73.442,6.2645],[-73.4421,6.2666],[-73.441,6.2705],[-73.4396,6.2719],[-73.4401,6.2761],[-73.4394,6.2778],[-73.4378,6.2785],[-73.4364,6.2782],[-73.4344,6.28],[-73.4326,6.2853],[-73.4278,6.291],[-73.4262,6.2939],[-73.4236,6.2943],[-73.4227,6.2963],[-73.4208,6.2979],[-73.4175,6.2981],[-73.4174,6.3023],[-73.413,6.3068],[-73.412,6.3075],[-73.4106,6.3069],[-73.4092,6.3074],[-73.4062,6.3097],[-73.4058,6.3118],[-73.4068,6.3156],[-73.4052,6.3187],[-73.3998,6.3166],[-73.3993,6.3147],[-73.3946,6.312],[-73.3918,6.3115],[-73.3868,6.3115],[-73.3834,6.3132],[-73.3815,6.3118],[-73.3776,6.3106],[-73.369,6.3105],[-73.3657,6.3112],[-73.3605,6.3141],[-73.3595,6.3161],[-73.3598,6.3221],[-73.3629,6.329],[-73.3595,6.3332],[-73.3596,6.3368],[-73.3568,6.3384],[-73.3565,6.3426],[-73.3521,6.3476],[-73.3512,6.3497],[-73.3498,6.3495],[-73.3454,6.3515],[-73.3401,6.3586],[-73.338,6.3602],[-73.336,6.3653],[-73.3336,6.3672],[-73.3293,6.3686],[-73.3291,6.3745],[-73.3278,6.3791],[-73.3291,6.3833],[-73.329,6.3861],[-73.3253,6.391],[-73.3225,6.3921],[-73.3203,6.397],[-73.3177,6.3998],[-73.318,6.4025],[-73.3191,6.4048],[-73.3184,6.4075],[-73.3169,6.4094],[-73.3171,6.4126],[-73.3163,6.415],[-73.3174,6.4187],[-73.3179,6.4238],[-73.3155,6.4251],[-73.315,6.4291],[-73.3125,6.4313],[-73.3114,6.4336],[-73.3098,6.4444],[-73.3048,6.4553],[-73.3048,6.4566],[-73.3034,6.4587],[-73.3042,6.4626],[-73.3023,6.4698],[-73.2999,6.4752],[-73.2972,6.4794],[-73.2944,6.4814],[-73.2916,6.4865],[-73.2834,6.4937],[-73.2822,6.4973],[-73.2798,6.4994],[-73.2764,6.5063],[-73.2742,6.5084],[-73.2734,6.5111],[-73.2746,6.5204],[-73.2729,6.5255],[-73.2739,6.5366],[-73.2751,6.5406],[-73.2777,6.5443],[-73.2772,6.5467],[-73.2796,6.549],[-73.2818,6.5538],[-73.2824,6.5641],[-73.2804,6.5684],[-73.2802,6.5713],[-73.2787,6.5758],[-73.278,6.5828],[-73.2705,6.5967],[-73.2711,6.6005],[-73.2729,6.6037],[-73.2731,6.6061],[-73.269,6.6121],[-73.2682,6.6163],[-73.2659,6.619],[-73.2656,6.6204],[-73.2665,6.6237],[-73.2661,6.6266],[-73.2637,6.6299],[-73.2626,6.6354],[-73.2607,6.639],[-73.2608,6.6533],[-73.2651,6.6562],[-73.2661,6.6594],[-73.2651,6.6649],[-73.2653,6.6692],[-73.2633,6.6724],[-73.2582,6.6718],[-73.2549,6.676],[-73.2555,6.6784],[-73.2591,6.6836],[-73.2589,6.6853],[-73.2577,6.6846],[-73.2587,6.6857],[-73.2594,6.6881],[-73.2615,6.6903],[-73.2616,6.6916],[-73.2581,6.695],[-73.2574,6.6978],[-73.258,6.701],[-73.2547,6.7035],[-73.2548,6.7087],[-73.2528,6.7117],[-73.2492,6.7134],[-73.2473,6.7151],[-73.2419,6.7154],[-73.2361,6.718],[-73.2334,6.7206],[-73.2308,6.7259],[-73.2288,6.7273],[-73.2273,6.7274],[-73.226,6.7286],[-73.2234,6.7348],[-73.2207,6.7377],[-73.2173,6.7435],[-73.2168,6.7523],[-73.2142,6.7575],[-73.2136,6.7621],[-73.2104,6.7687],[-73.2041,6.7687],[-73.2012,6.7675],[-73.1994,6.7675],[-73.1978,6.7645],[-73.1974,6.7657],[-73.1991,6.7721],[-73.2006,6.7846],[-73.2002,6.7874],[-73.1989,6.7883],[-73.198,6.7902],[-73.1989,6.7939],[-73.1986,6.797],[-73.1974,6.799],[-73.1942,6.8001],[-73.191,6.8034],[-73.1879,6.8081],[-73.1842,6.8106],[-73.1811,6.8247],[-73.1775,6.8258],[-73.176,6.8269],[-73.1758,6.8319],[-73.171,6.8376],[-73.1691,6.8423],[-73.1694,6.8464],[-73.1671,6.8491],[-73.1668,6.8511],[-73.1686,6.8553],[-73.1685,6.8608],[-73.1704,6.8674],[-73.1711,6.8803],[-73.1723,6.8826],[-73.1743,6.8825],[-73.175,6.8831],[-73.1763,6.8887],[-73.1784,6.8902],[-73.1828,6.8955],[-73.1851,6.9015],[-73.1877,6.9033],[-73.1931,6.9021],[-73.1986,6.9038],[-73.2012,6.9055],[-73.2075,6.9152],[-73.213,6.9209],[-73.2167,6.9265],[-73.2192,6.9281],[-73.2221,6.9333],[-73.2251,6.9364],[-73.2284,6.9463],[-73.2388,6.9583],[-73.2429,6.9592],[-73.2465,6.9617],[-73.2513,6.9628],[-73.256,6.9664],[-73.261,6.967],[-73.2629,6.97],[-73.2653,6.9701],[-73.2718,6.9784],[-73.2783,6.9847],[-73.2826,6.9948],[-73.2841,7.0019],[-73.2876,7.0078],[-73.2887,7.0108],[-73.2909,7.0128],[-73.2943,7.0141],[-73.297,7.0195],[-73.3071,7.0246],[-73.3152,7.0271],[-73.3206,7.0298],[-73.3227,7.0317],[-73.3287,7.032],[-73.3352,7.0354],[-73.3373,7.0379],[-73.3415,7.0395],[-73.3433,7.0415],[-73.3453,7.046],[-73.3454,7.0516],[-73.3418,7.0548],[-73.3414,7.0575],[-73.3463,7.0653],[-73.3468,7.0649],[-73.3493,7.0654],[-73.3494,7.0645],[-73.3545,7.0626],[-73.3614,7.064],[-73.3692,7.0641],[-73.3743,7.0653],[-73.3758,7.0666],[-73.374,7.0662],[-73.3739,7.0668],[-73.3752,7.0675],[-73.3765,7.0671],[-73.3775,7.0681],[-73.3756,7.068],[-73.3737,7.0689],[-73.376,7.0694],[-73.3788,7.0715],[-73.3816,7.0716],[-73.3862,7.0775],[-73.39,7.0799],[-73.3922,7.0831],[-73.3938,7.0841],[-73.3949,7.0874],[-73.3936,7.0935],[-73.3962,7.095],[-73.4003,7.0989],[-73.4032,7.1003],[-73.4056,7.1003],[-73.4095,7.1016],[-73.4135,7.1039]],[[-73.3509,6.8961],[-73.3504,6.8955],[-73.3487,6.8966],[-73.349,6.8921],[-73.3463,6.8873],[-73.3414,6.8833],[-73.34,6.8808],[-73.3367,6.8779],[-73.3397,6.8622],[-73.3427,6.8541],[-73.3426,6.8496],[-73.341,6.848],[-73.341,6.8457],[-73.3426,6.8441],[-73.3455,6.8427],[-73.348,6.8396],[-73.3482,6.8342],[-73.3502,6.8314],[-73.3503,6.8273],[-73.3525,6.8244],[-73.3529,6.8217],[-73.3583,6.8238],[-73.3599,6.8254],[-73.3599,6.8285],[-73.3632,6.8289],[-73.3656,6.8279],[-73.3671,6.8302],[-73.3694,6.8312],[-73.3702,6.8313],[-73.3707,6.8291],[-73.3734,6.8295],[-73.373,6.8272],[-73.3737,6.8268],[-73.3711,6.8166],[-73.3699,6.8162],[-73.3702,6.8154],[-73.3693,6.8138],[-73.3657,6.8169],[-73.3642,6.8155],[-73.3629,6.8168],[-73.3621,6.816],[-73.36,6.8171],[-73.3601,6.8177],[-73.3571,6.8173],[-73.3545,6.8151],[-73.355,6.8127],[-73.3547,6.8039],[-73.356,6.7984],[-73.3588,6.7948],[-73.3599,6.7895],[-73.3625,6.7871],[-73.3621,6.7849],[-73.3597,6.7822],[-73.3596,6.7796],[-73.3619,6.7761],[-73.3646,6.7744],[-73.369,6.7654],[-73.3707,6.7559],[-73.3706,6.7517],[-73.3682,6.7472],[-73.3683,6.7454],[-73.3671,6.7425],[-73.3682,6.7414],[-73.3709,6.7355],[-73.3659,6.7365],[-73.3571,6.7351],[-73.3526,6.7377],[-73.3517,6.7355],[-73.3569,6.7309],[-73.3637,6.7306],[-73.3659,6.7291],[-73.3661,6.7274],[-73.3672,6.7257],[-73.3634,6.7261],[-73.3603,6.7256],[-73.3588,6.7244],[-73.3583,6.7223],[-73.3592,6.7215],[-73.361,6.7224],[-73.3622,6.7221],[-73.3627,6.7161],[-73.362,6.7144],[-73.3642,6.7136],[-73.3657,6.7113],[-73.3672,6.7114],[-73.3697,6.7143],[-73.3711,6.7138],[-73.3736,6.707],[-73.3718,6.7051],[-73.3652,6.703],[-73.362,6.7012],[-73.3622,6.6982],[-73.37,6.6965],[-73.3712,6.6993],[-73.3732,6.6996],[-73.3735,6.6986],[-73.3722,6.6962],[-73.3687,6.6933],[-73.3716,6.6914],[-73.3743,6.6932],[-73.3761,6.6917],[-73.38,6.6924],[-73.3797,6.6915],[-73.3764,6.6897],[-73.3769,6.687],[-73.3747,6.6857],[-73.3778,6.685],[-73.3784,6.6826],[-73.376,6.6807],[-73.3732,6.6798],[-73.3733,6.6775],[-73.3749,6.6771],[-73.3773,6.6802],[-73.3827,6.68],[-73.3804,6.6752],[-73.3796,6.6719],[-73.3805,6.6698],[-73.3801,6.6665],[-73.3824,6.6607],[-73.3828,6.6568],[-73.386,6.6546],[-73.387,6.6508],[-73.3888,6.649],[-73.3907,6.6451],[-73.4003,6.6388],[-73.4003,6.636],[-73.389,6.6303],[-73.3817,6.6297],[-73.3792,6.6261],[-73.3738,6.6236],[-73.3729,6.6219],[-73.3714,6.6216],[-73.3699,6.6193],[-73.368,6.6185],[-73.362,6.6191],[-73.359,6.6178],[-73.3578,6.6167],[-73.3569,6.6143],[-73.3534,6.6118],[-73.3516,6.6093],[-73.3497,6.6083],[-73.347,6.5985],[-73.3477,6.5959],[-73.3486,6.5954],[-73.3493,6.5956],[-73.3492,6.5963],[-73.3544,6.5975],[-73.3543,6.5982],[-73.3531,6.5988],[-73.3574,6.6017],[-73.3546,6.6025],[-73.3551,6.6038],[-73.3544,6.6053],[-73.3568,6.6065],[-73.3566,6.6104],[-73.3579,6.6111],[-73.3593,6.6104],[-73.3608,6.6107],[-73.3601,6.6092],[-73.3616,6.6074],[-73.362,6.6057],[-73.3633,6.6057],[-73.3641,6.6046],[-73.3652,6.6046],[-73.3684,6.6119],[-73.3693,6.6115],[-73.3728,6.6082],[-73.3719,6.6036],[-73.3725,6.6031],[-73.3733,6.6035],[-73.3733,6.6054],[-73.3744,6.6062],[-73.3747,6.6074],[-73.3761,6.608],[-73.3792,6.608],[-73.3808,6.6091],[-73.3885,6.6077],[-73.3903,6.6065],[-73.3881,6.605],[-73.3791,6.594],[-73.3799,6.5941],[-73.3788,6.591],[-73.3793,6.5896],[-73.3856,6.5903],[-73.3862,6.5893],[-73.3867,6.5906],[-73.3892,6.5903],[-73.3919,6.5924],[-73.3926,6.5955],[-73.3947,6.596],[-73.3936,6.5948],[-73.3938,6.593],[-73.3946,6.5924],[-73.3936,6.5901],[-73.3939,6.5887],[-73.3932,6.5873],[-73.3917,6.5865],[-73.3914,6.5852],[-73.3919,6.5811],[-73.395,6.5799],[-73.3971,6.578],[-73.4024,6.5767],[-73.4028,6.5741],[-73.4022,6.5728],[-73.406,6.5722],[-73.4062,6.5702],[-73.4074,6.5693],[-73.4116,6.5697],[-73.4154,6.567],[-73.4165,6.5566],[-73.4145,6.5558],[-73.4119,6.5576],[-73.4086,6.5577],[-73.4067,6.5588],[-73.4024,6.5482],[-73.402,6.5437],[-73.4013,6.5426],[-73.402,6.5382],[-73.4003,6.5337],[-73.4044,6.5326],[-73.4089,6.5324],[-73.4118,6.5307],[-73.4079,6.5317],[-73.406,6.5308],[-73.405,6.5287],[-73.4015,6.5271],[-73.3988,6.5238],[-73.3971,6.5232],[-73.3971,6.5215],[-73.3989,6.521],[-73.3985,6.5201],[-73.3959,6.5193],[-73.3944,6.5213],[-73.3918,6.5219],[-73.3922,6.5194],[-73.3915,6.5177],[-73.3896,6.5178],[-73.3886,6.5162],[-73.3855,6.5169],[-73.3837,6.5116],[-73.3852,6.5125],[-73.3863,6.511],[-73.3872,6.5117],[-73.3879,6.5114],[-73.3881,6.5091],[-73.3901,6.5097],[-73.3907,6.5073],[-73.3913,6.5072],[-73.3901,6.5062],[-73.3928,6.506],[-73.3922,6.5056],[-73.3937,6.5029],[-73.3889,6.5033],[-73.3884,6.5015],[-73.3892,6.4991],[-73.3873,6.499],[-73.3864,6.4979],[-73.3841,6.4977],[-73.3833,6.5005],[-73.3805,6.4976],[-73.379,6.4973],[-73.379,6.4927],[-73.3763,6.4908],[-73.3767,6.49],[-73.3747,6.4895],[-73.3756,6.4875],[-73.3747,6.4867],[-73.375,6.4856],[-73.3727,6.4853],[-73.3764,6.4829],[-73.3765,6.4821],[-73.3821,6.4841],[-73.384,6.4835],[-73.3865,6.4803],[-73.3876,6.4775],[-73.3906,6.4776],[-73.3914,6.4758],[-73.3921,6.4763],[-73.3913,6.4775],[-73.3938,6.4784],[-73.3945,6.4795],[-73.3929,6.4802],[-73.3921,6.4813],[-73.3954,6.4824],[-73.3953,6.4841],[-73.3977,6.4842],[-73.4006,6.4806],[-73.4026,6.4807],[-73.403,6.4812],[-73.4022,6.482],[-73.4043,6.4831],[-73.4043,6.485],[-73.406,6.4859],[-73.4062,6.482],[-73.4089,6.4772],[-73.4069,6.4744],[-73.4072,6.4717],[-73.408,6.473],[-73.4148,6.4762],[-73.4203,6.4754],[-73.4218,6.4712],[-73.4244,6.4675],[-73.4216,6.4653],[-73.4158,6.4657],[-73.4077,6.4606],[-73.4058,6.4579],[-73.408,6.4576],[-73.4138,6.4608],[-73.4163,6.4597],[-73.417,6.4603],[-73.4182,6.4597],[-73.4188,6.4582],[-73.421,6.4567],[-73.4176,6.4559],[-73.4171,6.4549],[-73.4143,6.4537],[-73.4136,6.4527],[-73.4157,6.4509],[-73.4117,6.4489],[-73.4124,6.447],[-73.411,6.4469],[-73.4086,6.4452],[-73.4122,6.4279],[-73.4112,6.4261],[-73.4106,6.4219],[-73.4068,6.4211],[-73.408,6.4186],[-73.4101,6.4175],[-73.4096,6.4157],[-73.4118,6.4139],[-73.4115,6.4131],[-73.4091,6.412],[-73.4131,6.4088],[-73.4121,6.4034],[-73.4136,6.4045],[-73.4173,6.4052],[-73.4185,6.4064],[-73.4219,6.4041],[-73.4229,6.4059],[-73.4239,6.4054],[-73.4248,6.4034],[-73.4245,6.3998],[-73.437,6.4007],[-73.4418,6.4002],[-73.4434,6.4013],[-73.4558,6.3987],[-73.4562,6.4042],[-73.457,6.406],[-73.4578,6.4056],[-73.4594,6.4009],[-73.4638,6.3995],[-73.4624,6.3978],[-73.4623,6.3942],[-73.4615,6.3938],[-73.4597,6.3888],[-73.4577,6.387],[-73.4574,6.3852],[-73.4566,6.385],[-73.4556,6.3828],[-73.4566,6.3818],[-73.4561,6.3803],[-73.4587,6.3791],[-73.4618,6.3808],[-73.4633,6.3805],[-73.4644,6.3797],[-73.465,6.378],[-73.4641,6.3761],[-73.4643,6.3731],[-73.4705,6.3729],[-73.4717,6.3683],[-73.4717,6.3613],[-73.4704,6.3557],[-73.4715,6.3544],[-73.4721,6.3521],[-73.4722,6.348],[-73.4746,6.348],[-73.4763,6.3554],[-73.4759,6.3606],[-73.478,6.3631],[-73.48,6.369],[-73.4789,6.3709],[-73.4773,6.3715],[-73.4759,6.3739],[-73.4783,6.3761],[-73.4781,6.3777],[-73.4771,6.3782],[-73.4772,6.3794],[-73.4853,6.3779],[-73.4899,6.375],[-73.4921,6.3727],[-73.4941,6.3727],[-73.5004,6.3756],[-73.5089,6.373],[-73.5147,6.3695],[-73.5166,6.3671],[-73.5173,6.3648],[-73.518,6.3665],[-73.5176,6.3686],[-73.5138,6.3762],[-73.5207,6.3746],[-73.5248,6.3753],[-73.5279,6.376],[-73.532,6.3792],[-73.5334,6.3796],[-73.535,6.3776],[-73.5394,6.3766],[-73.5419,6.3744],[-73.5486,6.3756],[-73.5489,6.3762],[-73.5466,6.3771],[-73.5466,6.3788],[-73.5484,6.3799],[-73.55,6.3842],[-73.5533,6.3867],[-73.5545,6.3884],[-73.5549,6.3977],[-73.556,6.399],[-73.5595,6.4009],[-73.5616,6.4045],[-73.5646,6.4063],[-73.5686,6.4103],[-73.5686,6.4111],[-73.5673,6.4117],[-73.5625,6.4105],[-73.556,6.4108],[-73.5541,6.4092],[-73.5501,6.4077],[-73.55,6.411],[-73.5493,6.4129],[-73.5439,6.416],[-73.5435,6.4189],[-73.5446,6.4198],[-73.5437,6.425],[-73.5469,6.4288],[-73.5468,6.4301],[-73.5419,6.437],[-73.5406,6.4424],[-73.5389,6.442],[-73.5371,6.4394],[-73.5364,6.4393],[-73.5351,6.4398],[-73.5326,6.4423],[-73.5266,6.4405],[-73.526,6.4426],[-73.5275,6.4466],[-73.5255,6.4454],[-73.5241,6.4456],[-73.5213,6.4498],[-73.5188,6.4515],[-73.5183,6.4531],[-73.5174,6.453],[-73.5164,6.4544],[-73.5168,6.4563],[-73.5159,6.4569],[-73.516,6.4577],[-73.5185,6.4596],[-73.5191,6.4618],[-73.5219,6.4631],[-73.5213,6.4663],[-73.523,6.4712],[-73.5231,6.4756],[-73.5251,6.4773],[-73.53,6.478],[-73.5332,6.4799],[-73.533,6.4917],[-73.5338,6.4963],[-73.5347,6.4969],[-73.5373,6.4896],[-73.5386,6.4905],[-73.5406,6.4907],[-73.5412,6.4903],[-73.5406,6.4892],[-73.5439,6.4877],[-73.5498,6.4853],[-73.555,6.4844],[-73.5544,6.4864],[-73.5566,6.4907],[-73.5604,6.4904],[-73.5613,6.4898],[-73.5656,6.4914],[-73.5656,6.4817],[-73.5673,6.4786],[-73.571,6.4787],[-73.5721,6.4856],[-73.5726,6.4869],[-73.5738,6.4869],[-73.5755,6.4864],[-73.5765,6.4825],[-73.5759,6.478],[-73.577,6.4773],[-73.5796,6.4774],[-73.5834,6.4882],[-73.6075,6.4814],[-73.6085,6.4832],[-73.6102,6.4823],[-73.6072,6.4893],[-73.606,6.495],[-73.6037,6.4987],[-73.5933,6.5057],[-73.5914,6.5058],[-73.5898,6.5043],[-73.5899,6.5032],[-73.5864,6.5042],[-73.5858,6.505],[-73.583,6.5046],[-73.5831,6.5065],[-73.5868,6.5093],[-73.5922,6.51],[-73.5927,6.511],[-73.5921,6.5118],[-73.595,6.5129],[-73.5956,6.5148],[-73.593,6.5159],[-73.593,6.518],[-73.5947,6.5197],[-73.5923,6.52],[-73.5915,6.5191],[-73.5902,6.5198],[-73.5888,6.5187],[-73.5878,6.5208],[-73.5837,6.5223],[-73.5848,6.5233],[-73.587,6.5227],[-73.5867,6.524],[-73.5882,6.5258],[-73.5873,6.5282],[-73.5855,6.5305],[-73.5849,6.5333],[-73.582,6.5376],[-73.5798,6.5392],[-73.5778,6.5393],[-73.5709,6.5338],[-73.572,6.5367],[-73.5741,6.5376],[-73.5727,6.5391],[-73.5715,6.5419],[-73.5691,6.5404],[-73.5694,6.5429],[-73.5675,6.5438],[-73.5676,6.5452],[-73.5691,6.5461],[-73.5697,6.5477],[-73.569,6.5479],[-73.5681,6.5469],[-73.5677,6.5484],[-73.5663,6.5486],[-73.5654,6.5505],[-73.565,6.5498],[-73.5659,6.5478],[-73.5654,6.547],[-73.5626,6.5465],[-73.5625,6.546],[-73.561,6.5463],[-73.5607,6.5455],[-73.5602,6.5495],[-73.5623,6.5505],[-73.5579,6.5523],[-73.5541,6.5568],[-73.5485,6.5603],[-73.5478,6.5622],[-73.5487,6.5626],[-73.5487,6.5634],[-73.5478,6.5642],[-73.55,6.5659],[-73.5498,6.5683],[-73.5476,6.5687],[-73.5458,6.5699],[-73.5445,6.5747],[-73.5388,6.5763],[-73.5364,6.5788],[-73.535,6.5779],[-73.5337,6.5808],[-73.532,6.5812],[-73.5313,6.5805],[-73.5306,6.5824],[-73.5248,6.581],[-73.5241,6.5794],[-73.5228,6.5787],[-73.5203,6.5804],[-73.5209,6.5816],[-73.5219,6.5817],[-73.5223,6.5851],[-73.521,6.5863],[-73.5224,6.5902],[-73.5219,6.5913],[-73.5194,6.5917],[-73.52,6.5958],[-73.5183,6.5959],[-73.5129,6.6027],[-73.5134,6.6031],[-73.5119,6.6056],[-73.5155,6.6068],[-73.5147,6.6076],[-73.5155,6.6084],[-73.5146,6.6107],[-73.5098,6.6123],[-73.5076,6.6148],[-73.5068,6.6174],[-73.5077,6.6202],[-73.5074,6.6229],[-73.5036,6.6228],[-73.5015,6.6246],[-73.4987,6.6243],[-73.4981,6.6266],[-73.4957,6.6273],[-73.4967,6.6293],[-73.495,6.6291],[-73.4931,6.6267],[-73.4939,6.6202],[-73.496,6.6188],[-73.4976,6.6152],[-73.4926,6.6125],[-73.4855,6.6104],[-73.4808,6.614],[-73.4834,6.6227],[-73.4876,6.6277],[-73.4896,6.6314],[-73.4928,6.634],[-73.4926,6.636],[-73.4933,6.638],[-73.4885,6.6387],[-73.488,6.6362],[-73.4867,6.6356],[-73.4864,6.6363],[-73.4873,6.637],[-73.4873,6.6384],[-73.4834,6.6371],[-73.4804,6.635],[-73.4784,6.6384],[-73.4803,6.6402],[-73.4821,6.6393],[-73.4828,6.6408],[-73.4835,6.6407],[-73.4837,6.6394],[-73.4841,6.6412],[-73.482,6.6439],[-73.4817,6.6454],[-73.4844,6.6471],[-73.4789,6.6474],[-73.4772,6.6513],[-73.4778,6.6529],[-73.4758,6.6521],[-73.4741,6.652],[-73.4737,6.6526],[-73.4714,6.6521],[-73.4686,6.6489],[-73.4682,6.6477],[-73.4693,6.6445],[-73.4682,6.6447],[-73.4704,6.6395],[-73.4697,6.6381],[-73.4706,6.6382],[-73.4708,6.637],[-73.4682,6.6339],[-73.463,6.637],[-73.4628,6.6396],[-73.4635,6.6416],[-73.4652,6.6426],[-73.4637,6.6428],[-73.4608,6.6417],[-73.4604,6.6425],[-73.4587,6.6428],[-73.4578,6.6438],[-73.4557,6.6486],[-73.4551,6.6528],[-73.4479,6.6595],[-73.4468,6.6633],[-73.4476,6.6689],[-73.4429,6.6714],[-73.4444,6.6746],[-73.4433,6.6794],[-73.4367,6.6836],[-73.436,6.688],[-73.4409,6.6933],[-73.4375,6.6953],[-73.4356,6.6919],[-73.4317,6.6931],[-73.4313,6.6952],[-73.4321,6.6972],[-73.4308,6.6971],[-73.4292,6.7022],[-73.4328,6.7027],[-73.4255,6.7059],[-73.4244,6.7126],[-73.426,6.7232],[-73.4216,6.7251],[-73.4213,6.7298],[-73.4195,6.7302],[-73.4172,6.7289],[-73.415,6.7295],[-73.4134,6.7281],[-73.4105,6.7277],[-73.4076,6.728],[-73.4067,6.7297],[-73.4046,6.7304],[-73.4019,6.7296],[-73.4,6.7299],[-73.3986,6.7336],[-73.4003,6.7438],[-73.3992,6.7492],[-73.3993,6.7541],[-73.4002,6.758],[-73.4048,6.7575],[-73.4032,6.7616],[-73.4056,6.7663],[-73.403,6.7671],[-73.402,6.7664],[-73.3999,6.7702],[-73.3991,6.7749],[-73.3992,6.7859],[-73.3973,6.7883],[-73.3977,6.7893],[-73.3988,6.7894],[-73.3962,6.7959],[-73.3969,6.7962],[-73.402,6.794],[-73.4016,6.7973],[-73.399,6.7983],[-73.399,6.8048],[-73.4015,6.8054],[-73.404,6.8078],[-73.4017,6.8089],[-73.3924,6.8095],[-73.3931,6.8135],[-73.3961,6.8171],[-73.395,6.8173],[-73.3919,6.8153],[-73.3902,6.8159],[-73.3889,6.8181],[-73.3918,6.8217],[-73.3852,6.821],[-73.3844,6.8217],[-73.3857,6.8221],[-73.3842,6.8246],[-73.3851,6.8259],[-73.3852,6.8283],[-73.3864,6.8294],[-73.3862,6.8304],[-73.3894,6.8334],[-73.3907,6.8372],[-73.3838,6.8332],[-73.3838,6.8354],[-73.3796,6.8335],[-73.3795,6.8366],[-73.3808,6.8391],[-73.3873,6.8398],[-73.3842,6.841],[-73.3831,6.8422],[-73.3843,6.843],[-73.3815,6.8442],[-73.3839,6.8457],[-73.3826,6.8486],[-73.383,6.8506],[-73.3812,6.8517],[-73.3806,6.8506],[-73.378,6.8495],[-73.3796,6.8519],[-73.3775,6.8528],[-73.377,6.8555],[-73.3777,6.8566],[-73.3768,6.8574],[-73.3761,6.8549],[-73.3733,6.8541],[-73.3729,6.8552],[-73.3713,6.8554],[-73.3681,6.8544],[-73.3681,6.8555],[-73.3697,6.8554],[-73.37,6.8562],[-73.3743,6.8567],[-73.373,6.8581],[-73.3723,6.8606],[-73.3703,6.8616],[-73.3717,6.863],[-73.3702,6.8649],[-73.3689,6.8687],[-73.366,6.8725],[-73.3628,6.8744],[-73.359,6.8787],[-73.355,6.878],[-73.3533,6.8761],[-73.3522,6.879],[-73.3521,6.8809],[-73.3529,6.8827],[-73.3544,6.8842],[-73.3563,6.8848],[-73.3578,6.884],[-73.36,6.8843],[-73.359,6.8858],[-73.3594,6.8874],[-73.3557,6.8867],[-73.3514,6.8875],[-73.352,6.889],[-73.3546,6.8905],[-73.3566,6.8926],[-73.3516,6.8973],[-73.3509,6.8961]]]}},{"type":"Feature","properties":{"nombre":"Sisavita","tipo":"Parques Naturales Regionales","fuente":"RUNAP","condicion":"INSCRITA","administra":"CORPONOR","url":"https://runap.parquesnacionales.gov.co/area-protegida/469","hectareas":12125.5},"geometry":{"type":"Polygon","coordinates":[[[-72.8329,7.5186],[-72.8396,7.5243],[-72.8428,7.5259],[-72.8459,7.5258],[-72.8474,7.5238],[-72.8481,7.5194],[-72.8503,7.5152],[-72.8533,7.5133],[-72.8565,7.513],[-72.8578,7.5116],[-72.859,7.5014],[-72.8585,7.4952],[-72.8613,7.493],[-72.8684,7.4908],[-72.8718,7.4848],[-72.8726,7.4793],[-72.8762,7.4769],[-72.8804,7.4697],[-72.884,7.4662],[-72.8867,7.4644],[-72.8898,7.4637],[-72.8947,7.465],[-72.9003,7.4538],[-72.9013,7.446],[-72.9005,7.4336],[-72.8955,7.4275],[-72.8933,7.4267],[-72.8929,7.4226],[-72.8919,7.4203],[-72.8846,7.4148],[-72.884,7.4116],[-72.8775,7.4054],[-72.877,7.3996],[-72.8737,7.3902],[-72.8702,7.3861],[-72.8655,7.3847],[-72.8563,7.3783],[-72.8547,7.3761],[-72.8503,7.3739],[-72.8557,7.3642],[-72.8559,7.3617],[-72.8498,7.3604],[-72.8428,7.361],[-72.8338,7.3586],[-72.8316,7.3594],[-72.8236,7.3594],[-72.8217,7.36],[-72.8207,7.3615],[-72.8202,7.3664],[-72.8179,7.3701],[-72.8164,7.3759],[-72.8156,7.3815],[-72.8164,7.3885],[-72.8115,7.3949],[-72.8119,7.3991],[-72.8066,7.4049],[-72.8068,7.4107],[-72.8015,7.413],[-72.7975,7.4158],[-72.7963,7.4185],[-72.7934,7.4214],[-72.7902,7.4221],[-72.7878,7.4254],[-72.7856,7.4267],[-72.7867,7.4295],[-72.788,7.4296],[-72.7888,7.431],[-72.7933,7.4345],[-72.7957,7.435],[-72.7984,7.4389],[-72.7978,7.4407],[-72.795,7.4415],[-72.7931,7.4437],[-72.791,7.4476],[-72.7905,7.45],[-72.7932,7.4513],[-72.7946,7.4532],[-72.792,7.4668],[-72.7956,7.4667],[-72.7985,7.4654],[-72.7999,7.466],[-72.8026,7.4655],[-72.805,7.466],[-72.8068,7.4686],[-72.8083,7.4688],[-72.8118,7.4716],[-72.813,7.4719],[-72.8147,7.4747],[-72.8172,7.4733],[-72.8188,7.4733],[-72.8186,7.4724],[-72.8205,7.4712],[-72.8243,7.4701],[-72.8279,7.4666],[-72.8289,7.4643],[-72.8332,7.4629],[-72.8366,7.4582],[-72.8371,7.4528],[-72.8403,7.452],[-72.8412,7.4524],[-72.8392,7.4541],[-72.8403,7.4556],[-72.841,7.4555],[-72.8396,7.4574],[-72.8405,7.4587],[-72.8416,7.459],[-72.8443,7.4577],[-72.8455,7.4589],[-72.8441,7.4603],[-72.8491,7.4627],[-72.8519,7.4626],[-72.8445,7.4692],[-72.8421,7.4672],[-72.8407,7.464],[-72.8378,7.4693],[-72.8402,7.4709],[-72.8381,7.4735],[-72.8375,7.4729],[-72.8314,7.4718],[-72.8285,7.4693],[-72.8278,7.4704],[-72.8283,7.472],[-72.8275,7.4739],[-72.8256,7.4724],[-72.8236,7.4723],[-72.8222,7.473],[-72.8225,7.4743],[-72.8202,7.4748],[-72.8172,7.4806],[-72.817,7.4824],[-72.8193,7.4819],[-72.8219,7.479],[-72.8246,7.4783],[-72.8261,7.4766],[-72.8278,7.4783],[-72.8418,7.4839],[-72.8475,7.488],[-72.8488,7.493],[-72.8419,7.4956],[-72.8351,7.4964],[-72.8315,7.4976],[-72.8336,7.4993],[-72.8333,7.5018],[-72.8351,7.5028],[-72.8348,7.5047],[-72.8366,7.5065],[-72.8347,7.5107],[-72.8349,7.5118],[-72.8332,7.5135],[-72.8312,7.5128],[-72.8307,7.5114],[-72.829,7.5104],[-72.8277,7.5111],[-72.8286,7.5127],[-72.8277,7.5134],[-72.8239,7.5114],[-72.8236,7.5144],[-72.8254,7.5171],[-72.827,7.5181],[-72.8329,7.5186]]]}},{"type":"Feature","properties":{"nombre":"UMPALA - CAÑON DEL CHICAMOCHA","tipo":"Distritos de Conservación de Suelos","fuente":"RUNAP","condicion":"INSCRITA","administra":"CDMB","url":"https://runap.parquesnacionales.gov.co/area-protegida/1877","hectareas":3920.2},"geometry":{"type":"Polygon","coordinates":[[[-72.9253,6.8621],[-72.9255,6.8635],[-72.924,6.867],[-72.9276,6.8717],[-72.9281,6.869],[-72.9311,6.8639],[-72.9326,6.8625],[-72.9379,6.8599],[-72.9405,6.8559],[-72.9421,6.8545],[-72.9454,6.8557],[-72.9461,6.8579],[-72.9457,6.8597],[-72.9468,6.8602],[-72.9509,6.8607],[-72.9518,6.8559],[-72.9526,6.8549],[-72.9604,6.8539],[-72.9628,6.8547],[-72.9647,6.8545],[-72.9664,6.8584],[-72.97,6.8577],[-72.9735,6.8592],[-72.974,6.8589],[-72.9746,6.8601],[-72.9814,6.8618],[-72.983,6.8595],[-72.9831,6.8571],[-72.9864,6.8545],[-72.9882,6.8548],[-72.9915,6.8508],[-72.9969,6.8486],[-72.9965,6.8456],[-72.999,6.8441],[-72.9993,6.8421],[-73.003,6.8432],[-73.006,6.847],[-73.0082,6.8423],[-73.0116,6.8373],[-73.0123,6.8357],[-73.0118,6.8346],[-73.0089,6.8329],[-73.0062,6.8327],[-73.0038,6.8291],[-72.9991,6.8306],[-72.9952,6.8259],[-72.9923,6.8248],[-72.9918,6.8251],[-72.9925,6.8261],[-72.9924,6.8276],[-72.9912,6.8285],[-72.9904,6.8281],[-72.9908,6.8273],[-72.9895,6.8251],[-72.9915,6.8233],[-72.9905,6.8212],[-72.9888,6.8201],[-72.9872,6.8205],[-72.9855,6.8224],[-72.9841,6.8225],[-72.982,6.8265],[-72.9817,6.8334],[-72.9823,6.8387],[-72.9791,6.8457],[-72.9794,6.8488],[-72.9789,6.8497],[-72.9799,6.8512],[-72.9794,6.8517],[-72.978,6.8514],[-72.9755,6.8464],[-72.9745,6.8455],[-72.9764,6.844],[-72.9765,6.8424],[-72.9749,6.8422],[-72.9743,6.8427],[-72.9731,6.8407],[-72.9713,6.8415],[-72.9733,6.8393],[-72.9764,6.8406],[-72.9774,6.8394],[-72.9796,6.8339],[-72.9801,6.8303],[-72.9796,6.8271],[-72.9803,6.8247],[-72.9864,6.8189],[-72.9885,6.8183],[-72.9911,6.8185],[-72.9926,6.8199],[-72.9936,6.8228],[-72.9958,6.824],[-72.9983,6.8235],[-72.9989,6.8227],[-72.9968,6.8197],[-72.9941,6.8186],[-72.9905,6.8149],[-72.9864,6.8129],[-72.9835,6.809],[-72.9827,6.8073],[-72.9829,6.8041],[-72.9821,6.8037],[-72.9828,6.8021],[-72.9825,6.7979],[-72.9814,6.794],[-72.9823,6.7899],[-72.9811,6.7903],[-72.9794,6.7893],[-72.977,6.7898],[-72.9752,6.7894],[-72.9745,6.7904],[-72.9717,6.7912],[-72.9693,6.7901],[-72.9661,6.79],[-72.9583,6.7919],[-72.9556,6.7956],[-72.9547,6.8001],[-72.9528,6.8014],[-72.9499,6.8021],[-72.9491,6.8054],[-72.9495,6.8079],[-72.9492,6.809],[-72.9478,6.8102],[-72.9481,6.8122],[-72.9471,6.8141],[-72.9471,6.8163],[-72.95,6.8235],[-72.9488,6.8261],[-72.9496,6.8276],[-72.9496,6.8293],[-72.9505,6.8302],[-72.9423,6.8341],[-72.9421,6.8369],[-72.9376,6.8412],[-72.9348,6.8423],[-72.9335,6.8438],[-72.9301,6.8457],[-72.9279,6.8459],[-72.9262,6.847],[-72.926,6.8486],[-72.93,6.8519],[-72.9307,6.8567],[-72.929,6.8578],[-72.9302,6.8597],[-72.9271,6.862],[-72.9253,6.8621]]]}}]}