{"type":"FeatureCollection","name":"bosque_seco_tropical_cdmb","features":[{"type":"Feature","properties":{"tipo":"bosque-seco","fuente":"MADS","nombre":"Bosque seco tropical","region":"Norandina"},"geometry":{"type":"MultiPolygon","coordinates":[[[[-73.2337,7.9229],[-73.2344,7.929],[-73.2324,7.929],[-73.2317,7.9304],[-73.233,7.9337],[-73.231,7.9337],[-73.2296,7.9358],[-73.233,7.9378],[-73.2399,7.9364],[-73.2412,7.9391],[-73.2371,7.9385],[-73.2365,7.9439],[-73.2351,7.9439],[-73.2351,7.9452],[-73.2392,7.9452],[-73.2406,7.9439],[-73.244,7.9439],[-73.244,7.9452],[-73.2412,7.9452],[-73.2378,7.9479],[-73.2337,7.9479],[-73.23165,7.95],[-73.2235,7.95],[-73.2228,7.9459],[-73.2269,7.9439],[-73.2255,7.9385],[-73.2303,7.9324],[-73.2337,7.9229]]],[[[-73.231,7.9378],[-73.2289,7.9378],[-73.2283,7.9398],[-73.2296,7.9418],[-73.2289,7.9459],[-73.2248,7.9466],[-73.2276,7.9493],[-73.2351,7.9432],[-73.2351,7.9398],[-73.231,7.9378]]],[[[-72.7114,7.8749],[-72.7128,7.8769],[-72.7121,7.8817],[-72.7162,7.881],[-72.7155,7.8884],[-72.7176,7.8932],[-72.7155,7.8938],[-72.7121,7.8905],[-72.7108,7.8932],[-72.7087,7.8925],[-72.7094,7.8945],[-72.7073,7.8959],[-72.7039,7.8959],[-72.7039,7.8925],[-72.7026,7.8918],[-72.7033,7.8884],[-72.7019,7.8891],[-72.7012,7.8857],[-72.7033,7.885],[-72.7046,7.8871],[-72.7067,7.8871],[-72.708,7.885],[-72.7101,7.885],[-72.7087,7.8796],[-72.7114,7.8749]]],[[[-73.216,7.8648],[-73.2208,7.8681],[-73.2208,7.8702],[-73.2173,7.8702],[-73.2173,7.8715],[-73.2201,7.8715],[-73.2167,7.8735],[-73.218,7.8776],[-73.2146,7.8769],[-73.2105,7.881],[-73.2057,7.8803],[-73.2057,7.879],[-73.2098,7.8783],[-73.2085,7.8756],[-73.203,7.8769],[-73.2051,7.8715],[-73.2071,7.8722],[-73.2085,7.8708],[-73.2085,7.8695],[-73.2051,7.8695],[-73.2071,7.8688],[-73.2064,7.8654],[-73.2091,7.8661],[-73.2098,7.8648],[-73.2126,7.8648],[-73.2139,7.8695],[-73.2146,7.8654],[-73.216,7.8648]]],[[[-72.68,7.8364],[-72.6821,7.8438],[-72.68,7.8458],[-72.6773,7.8451],[-72.6746,7.8465],[-72.6773,7.8499],[-72.6753,7.8519],[-72.6753,7.8539],[-72.6773,7.8553],[-72.6773,7.8593],[-72.6787,7.8614],[-72.6807,7.8614],[-72.6814,7.8641],[-72.6835,7.8607],[-72.6841,7.8648],[-72.6814,7.8654],[-72.6848,7.8675],[-72.6869,7.8668],[-72.6896,7.8681],[-72.6903,7.8654],[-72.693,7.8648],[-72.6903,7.8688],[-72.693,7.8688],[-72.6923,7.8675],[-72.6944,7.8654],[-72.6971,7.8654],[-72.6992,7.8627],[-72.7012,7.8627],[-72.7019,7.8654],[-72.6944,7.8688],[-72.6998,7.8688],[-72.6998,7.8756],[-72.6985,7.879],[-72.6937,7.879],[-72.6957,7.881],[-72.6957,7.8837],[-72.693,7.8837],[-72.6916,7.881],[-72.6882,7.8837],[-72.6875,7.8945],[-72.6869,7.8932],[-72.6848,7.8932],[-72.6889,7.8986],[-72.6882,7.9013],[-72.6828,7.9053],[-72.6794,7.9033],[-72.6732,7.9053],[-72.6678,7.9026],[-72.6643,7.906],[-72.6616,7.9067],[-72.6623,7.9107],[-72.6718,7.9114],[-72.6739,7.9101],[-72.6705,7.9141],[-72.6678,7.9121],[-72.6589,7.9121],[-72.6589,7.9094],[-72.6623,7.9047],[-72.6561,7.906],[-72.6548,7.908],[-72.65,7.908],[-72.65,7.8708],[-72.6514,7.8708],[-72.6514,7.8722],[-72.65,7.8722],[-72.6507,7.8749],[-72.6534,7.8722],[-72.652,7.8688],[-72.6561,7.8675],[-72.6568,7.8648],[-72.6609,7.8648],[-72.6623,7.8627],[-72.6589,7.8573],[-72.6623,7.8573],[-72.663,7.8546],[-72.6657,7.8553],[-72.6637,7.8512],[-72.6589,7.8519],[-72.6596,7.8485],[-72.665,7.8458],[-72.6671,7.8506],[-72.6705,7.8506],[-72.6698,7.8465],[-72.6684,7.8458],[-72.6698,7.8418],[-72.6732,7.8404],[-72.6732,7.8424],[-72.6746,7.8424],[-72.6759,7.837],[-72.68,7.8364]]],[[[-72.665,7.856],[-72.6637,7.856],[-72.6637,7.8593],[-72.6664,7.858],[-72.6643,7.8607],[-72.665,7.8627],[-72.663,7.8627],[-72.663,7.8648],[-72.6589,7.8688],[-72.6609,7.8695],[-72.6609,7.8729],[-72.665,7.8654],[-72.6684,7.8641],[-72.6691,7.8614],[-72.6725,7.8614],[-72.6725,7.8593],[-72.6705,7.8607],[-72.665,7.856]]],[[[-72.6507,7.8756],[-72.65,7.879],[-72.652,7.8796],[-72.652,7.8763],[-72.6507,7.8756]]],[[[-72.6616,7.8769],[-72.6602,7.881],[-72.6602,7.8823],[-72.6623,7.8823],[-72.6616,7.8871],[-72.665,7.8857],[-72.665,7.8877],[-72.6664,7.8884],[-72.6671,7.8844],[-72.6657,7.8844],[-72.6664,7.883],[-72.6637,7.883],[-72.6616,7.8769]]],[[[-72.6746,7.8857],[-72.6732,7.8857],[-72.6732,7.8884],[-72.6753,7.8884],[-72.6746,7.8857]]],[[[-72.6643,7.8905],[-72.6616,7.8918],[-72.6623,7.8938],[-72.6637,7.8938],[-72.6643,7.8905]]],[[[-72.6684,7.8113],[-72.6705,7.8167],[-72.6712,7.8303],[-72.6596,7.833],[-72.6596,7.8303],[-72.6616,7.8282],[-72.6575,7.8296],[-72.6575,7.8282],[-72.6596,7.8282],[-72.6602,7.8269],[-72.6602,7.8221],[-72.6575,7.8188],[-72.6616,7.8215],[-72.6643,7.8201],[-72.6643,7.8181],[-72.6691,7.8194],[-72.6691,7.8161],[-72.6671,7.8134],[-72.6671,7.8113],[-72.6684,7.8113]]],[[[-72.65,7.7802],[-72.6527,7.7809],[-72.6541,7.7795],[-72.6575,7.7795],[-72.6575,7.7822],[-72.6589,7.7822],[-72.6602,7.787],[-72.663,7.7877],[-72.663,7.7904],[-72.6589,7.7931],[-72.6582,7.7978],[-72.6541,7.8025],[-72.6541,7.8046],[-72.6507,7.8046],[-72.65,7.8079],[-72.6561,7.8079],[-72.6568,7.8059],[-72.6657,7.8073],[-72.6671,7.81],[-72.6637,7.8161],[-72.6602,7.8147],[-72.6541,7.8154],[-72.6541,7.814],[-72.6568,7.8127],[-72.6568,7.8093],[-72.6534,7.81],[-72.6527,7.812],[-72.65,7.8113],[-72.65,7.7802]]],[[[-73.246,7.7721],[-73.2522,7.7755],[-73.2515,7.7782],[-73.2542,7.7782],[-73.2549,7.7755],[-73.2576,7.7734],[-73.2528,7.7856],[-73.2501,7.7863],[-73.2501,7.7883],[-73.2522,7.789],[-73.2508,7.7924],[-73.2494,7.7904],[-73.2474,7.791],[-73.2467,7.7856],[-73.2494,7.7843],[-73.2487,7.7802],[-73.2508,7.7809],[-73.2515,7.7789],[-73.2494,7.7768],[-73.2433,7.7768],[-73.244,7.7734],[-73.246,7.7721]]],[[[-73.1306,7.7085],[-73.1306,7.7099],[-73.134,7.7099],[-73.1347,7.7119],[-73.1381,7.7112],[-73.1395,7.718],[-73.1368,7.72],[-73.1354,7.7261],[-73.1361,7.7274],[-73.1381,7.7268],[-73.1388,7.7302],[-73.1436,7.7308],[-73.1436,7.7349],[-73.1409,7.7383],[-73.1443,7.7369],[-73.1457,7.7369],[-73.1457,7.7383],[-73.1402,7.7417],[-73.1381,7.741],[-73.1381,7.7362],[-73.1347,7.7362],[-73.1347,7.7396],[-73.1327,7.7396],[-73.1327,7.741],[-73.1354,7.7417],[-73.1361,7.7437],[-73.1334,7.745],[-73.1306,7.743],[-73.13,7.745],[-73.1395,7.7484],[-73.1361,7.7504],[-73.1313,7.7491],[-73.1293,7.7504],[-73.1313,7.7525],[-73.1361,7.7525],[-73.1354,7.7538],[-73.1259,7.7532],[-73.1279,7.7511],[-73.1272,7.7491],[-73.1224,7.7518],[-73.1245,7.7572],[-73.1259,7.7552],[-73.1279,7.7552],[-73.1293,7.7579],[-73.1334,7.7586],[-73.1334,7.7565],[-73.1361,7.7559],[-73.1347,7.7599],[-73.1238,7.7586],[-73.1224,7.7559],[-73.1204,7.7565],[-73.1238,7.7613],[-73.1272,7.7633],[-73.1293,7.7633],[-73.1313,7.7613],[-73.1334,7.7619],[-73.1286,7.7674],[-73.1265,7.7674],[-73.1272,7.7647],[-73.1252,7.764],[-73.1218,7.7694],[-73.1231,7.7714],[-73.1211,7.7721],[-73.1204,7.7789],[-73.1224,7.7822],[-73.1252,7.7822],[-73.1252,7.7849],[-73.1211,7.7836],[-73.1177,7.7721],[-73.1142,7.7701],[-73.1156,7.7687],[-73.1211,7.768],[-73.1211,7.7667],[-73.1183,7.7667],[-73.1177,7.7653],[-73.1204,7.7599],[-73.1197,7.7579],[-73.1177,7.7592],[-73.1177,7.7572],[-73.1224,7.7498],[-73.1204,7.7471],[-73.1224,7.741],[-73.1211,7.7376],[-73.1252,7.7349],[-73.1245,7.7288],[-73.1259,7.7274],[-73.1259,7.7241],[-73.1245,7.7214],[-73.1272,7.7193],[-73.1265,7.7173],[-73.1279,7.7159],[-73.1272,7.7119],[-73.1286,7.7085],[-73.1306,7.7085]]],[[[-73.1259,7.6699],[-73.1265,7.6733],[-73.1245,7.6747],[-73.1293,7.6848],[-73.1286,7.6889],[-73.1313,7.6929],[-73.1306,7.6956],[-73.1272,7.6956],[-73.1265,7.6929],[-73.1218,7.6916],[-73.1259,7.6848],[-73.1238,7.6801],[-73.1259,7.6801],[-73.1218,7.6787],[-73.1204,7.6733],[-73.1259,7.6699]]],[[[-73.1354,7.6564],[-73.1347,7.6584],[-73.1361,7.6611],[-73.1388,7.6591],[-73.1402,7.6605],[-73.1436,7.6591],[-73.1443,7.6632],[-73.1409,7.6645],[-73.1395,7.6666],[-73.1395,7.6747],[-73.1375,7.6747],[-73.1368,7.6781],[-73.1347,7.6767],[-73.1334,7.6787],[-73.134,7.6801],[-73.1368,7.6787],[-73.1368,7.6814],[-73.1327,7.6814],[-73.1327,7.6835],[-73.13,7.6855],[-73.1293,7.6821],[-73.1354,7.674],[-73.1334,7.674],[-73.132,7.676],[-73.1286,7.672],[-73.1272,7.6686],[-73.1286,7.6679],[-73.1279,7.6645],[-73.1293,7.6632],[-73.1272,7.6618],[-73.1272,7.6591],[-73.1313,7.6578],[-73.1313,7.6632],[-73.134,7.6652],[-73.1327,7.6611],[-73.1334,7.6578],[-73.1354,7.6564]]],[[[-72.6568,7.6483],[-72.6548,7.6496],[-72.6548,7.6483],[-72.6568,7.6483]]],[[[-72.652,7.6476],[-72.6541,7.6503],[-72.65,7.651],[-72.65,7.6483],[-72.652,7.6476]]],[[[-73.0521,7.6307],[-73.0514,7.632],[-73.0487,7.6314],[-73.0521,7.6307]]],[[[-73.0637,7.6178],[-73.0549,7.6239],[-73.0535,7.626],[-73.0542,7.6273],[-73.0521,7.6287],[-73.0555,7.6266],[-73.0589,7.6266],[-73.0569,7.6232],[-73.061,7.6205],[-73.0624,7.6205],[-73.0624,7.6219],[-73.0651,7.6185],[-73.0665,7.6212],[-73.0699,7.6226],[-73.0699,7.6253],[-73.0719,7.6273],[-73.0665,7.626],[-73.0665,7.628],[-73.0624,7.6327],[-73.0651,7.6327],[-73.0658,7.6307],[-73.0692,7.632],[-73.0692,7.6293],[-73.0733,7.6287],[-73.0747,7.6307],[-73.0733,7.6307],[-73.0719,7.6354],[-73.0733,7.6375],[-73.0678,7.6388],[-73.0665,7.6368],[-73.0671,7.6408],[-73.0651,7.6395],[-73.0617,7.6408],[-73.0617,7.6483],[-73.063,7.6483],[-73.063,7.6496],[-73.0596,7.6483],[-73.0562,7.6503],[-73.0576,7.6476],[-73.0528,7.6429],[-73.0535,7.6422],[-73.0501,7.6402],[-73.0501,7.6375],[-73.0528,7.6375],[-73.0501,7.6354],[-73.0521,7.6327],[-73.0549,7.6334],[-73.0521,7.632],[-73.0589,7.63],[-73.0521,7.6307],[-73.0521,7.6293],[-73.048,7.6293],[-73.0467,7.6287],[-73.048,7.6266],[-73.046,7.6266],[-73.046,7.6253],[-73.0501,7.626],[-73.0514,7.6232],[-73.0494,7.6232],[-73.0562,7.6212],[-73.0569,7.6205],[-73.0549,7.6178],[-73.0583,7.6192],[-73.0637,7.6178]]],[[[-73.0951,7.5854],[-73.0965,7.5887],[-73.091,7.5928],[-73.0856,7.5935],[-73.0876,7.5921],[-73.0869,7.5908],[-73.089,7.5874],[-73.0945,7.5887],[-73.0938,7.586],[-73.0951,7.5854]]],[[[-72.6705,7.5759],[-72.6705,7.5786],[-72.6678,7.5799],[-72.6705,7.5759]]],[[[-73.1013,7.5759],[-73.1013,7.5806],[-73.104,7.5793],[-73.104,7.5779],[-73.1081,7.5806],[-73.0985,7.5847],[-73.0999,7.5759],[-73.1013,7.5759]]],[[[-73.1183,7.5759],[-73.1142,7.5799],[-73.1102,7.5799],[-73.1108,7.5813],[-73.1081,7.5826],[-73.1081,7.5806],[-73.1102,7.5786],[-73.1183,7.5759]]],[[[-72.65,7.5664],[-72.6514,7.5671],[-72.6514,7.5691],[-72.6534,7.5691],[-72.652,7.5698],[-72.6527,7.5711],[-72.6555,7.5705],[-72.6541,7.5718],[-72.6555,7.5738],[-72.6534,7.5732],[-72.6514,7.5779],[-72.65,7.5779],[-72.6507,7.5833],[-72.65,7.5664]]],[[[-72.6507,7.5596],[-72.652,7.563],[-72.65,7.563],[-72.6507,7.5596]]],[[[-72.678,7.5576],[-72.68,7.5603],[-72.68,7.563],[-72.6828,7.563],[-72.6835,7.5644],[-72.6875,7.561],[-72.6841,7.5664],[-72.6848,7.5678],[-72.6862,7.565],[-72.6889,7.5637],[-72.6869,7.5698],[-72.6835,7.5705],[-72.6835,7.5752],[-72.68,7.5772],[-72.68,7.5786],[-72.678,7.5786],[-72.6773,7.5759],[-72.6814,7.5732],[-72.6814,7.5711],[-72.6787,7.5705],[-72.6759,7.5718],[-72.6753,7.5705],[-72.6712,7.5705],[-72.6705,7.5759],[-72.6705,7.5725],[-72.6691,7.5732],[-72.6698,7.5684],[-72.6671,7.5644],[-72.6684,7.5637],[-72.6705,7.5664],[-72.6705,7.565],[-72.6718,7.565],[-72.6705,7.563],[-72.6725,7.5623],[-72.6732,7.5583],[-72.678,7.5576]]],[[[-72.6602,7.5542],[-72.6609,7.5596],[-72.6637,7.561],[-72.665,7.565],[-72.6671,7.5657],[-72.6678,7.5691],[-72.6691,7.5691],[-72.6678,7.5705],[-72.6616,7.5684],[-72.6596,7.5718],[-72.6575,7.5718],[-72.6589,7.5684],[-72.6623,7.5671],[-72.6637,7.563],[-72.6616,7.5623],[-72.6616,7.5657],[-72.6602,7.5657],[-72.6596,7.561],[-72.6561,7.5617],[-72.6534,7.5583],[-72.6568,7.5563],[-72.6568,7.5542],[-72.6602,7.5542]]],[[[-73.1504,7.5258],[-73.1498,7.5393],[-73.1525,7.5393],[-73.1552,7.5414],[-73.1552,7.5522],[-73.1566,7.5515],[-73.1559,7.5481],[-73.1668,7.5481],[-73.1702,7.5495],[-73.1695,7.5549],[-73.1743,7.5535],[-73.1825,7.5563],[-73.188,7.5563],[-73.1893,7.5454],[-73.188,7.5441],[-73.1825,7.5447],[-73.1859,7.5387],[-73.188,7.5407],[-73.1893,7.5393],[-73.1873,7.5373],[-73.188,7.5353],[-73.1921,7.5353],[-73.1921,7.538],[-73.19,7.5393],[-73.1921,7.5407],[-73.1907,7.542],[-73.1907,7.5454],[-73.1934,7.5481],[-73.1907,7.5522],[-73.1907,7.5556],[-73.1928,7.5556],[-73.1941,7.5522],[-73.2023,7.5529],[-73.2023,7.5542],[-73.2051,7.5549],[-73.2057,7.5515],[-73.2016,7.5508],[-73.201,7.5488],[-73.1969,7.5468],[-73.1962,7.5414],[-73.1989,7.5461],[-73.2023,7.5454],[-73.203,7.5468],[-73.2085,7.5468],[-73.2119,7.5447],[-73.2119,7.542],[-73.2051,7.5434],[-73.2023,7.5427],[-73.2023,7.5407],[-73.2139,7.5393],[-73.2167,7.5366],[-73.218,7.5319],[-73.2126,7.5319],[-73.2146,7.5305],[-73.2126,7.5299],[-73.2126,7.5285],[-73.2167,7.5299],[-73.2214,7.5292],[-73.2201,7.5346],[-73.2214,7.5353],[-73.2235,7.5339],[-73.2221,7.5387],[-73.2242,7.538],[-73.2242,7.5481],[-73.2283,7.5556],[-73.2248,7.5569],[-73.2242,7.5596],[-73.2139,7.5596],[-73.2119,7.563],[-73.2064,7.5617],[-73.2051,7.5623],[-73.2064,7.5644],[-73.2037,7.5678],[-73.1996,7.5684],[-73.1996,7.5698],[-73.2023,7.5698],[-73.2044,7.5718],[-73.2085,7.5711],[-73.2085,7.5684],[-73.2105,7.5698],[-73.2126,7.5684],[-73.2132,7.5732],[-73.2167,7.5738],[-73.216,7.5793],[-73.2194,7.5806],[-73.2132,7.5908],[-73.2126,7.5948],[-73.2105,7.5935],[-73.2105,7.5914],[-73.2085,7.5914],[-73.2098,7.5881],[-73.2132,7.5874],[-73.2119,7.586],[-73.2078,7.5874],[-73.2071,7.5894],[-73.2071,7.5881],[-73.2057,7.5887],[-73.2044,7.5914],[-73.2085,7.5914],[-73.2091,7.5955],[-73.2071,7.5962],[-73.2071,7.5975],[-73.2119,7.5975],[-73.2112,7.5996],[-73.2126,7.6009],[-73.2105,7.6023],[-73.2098,7.6009],[-73.2051,7.6016],[-73.2071,7.6036],[-73.2071,7.6063],[-73.2105,7.6063],[-73.2105,7.6084],[-73.2064,7.6104],[-73.2078,7.6131],[-73.2044,7.6151],[-73.2051,7.6219],[-73.203,7.6172],[-73.201,7.6199],[-73.2003,7.6165],[-73.1982,7.6158],[-73.1955,7.6172],[-73.1934,7.6158],[-73.1934,7.6138],[-73.2016,7.6084],[-73.2003,7.609],[-73.1989,7.607],[-73.1989,7.6029],[-73.1941,7.6029],[-73.1934,7.6063],[-73.1948,7.6043],[-73.1969,7.605],[-73.1928,7.6138],[-73.1887,7.6124],[-73.1859,7.6178],[-73.1784,7.6185],[-73.1777,7.6199],[-73.173,7.6212],[-73.1709,7.6178],[-73.1655,7.6178],[-73.1661,7.6192],[-73.1682,7.6192],[-73.1668,7.6232],[-73.1716,7.6219],[-73.1661,7.6246],[-73.162,7.6287],[-73.1607,7.6253],[-73.1566,7.6253],[-73.1586,7.6232],[-73.1525,7.6205],[-73.1511,7.6178],[-73.1484,7.6165],[-73.1477,7.6192],[-73.1457,7.6192],[-73.1429,7.6239],[-73.1306,7.6293],[-73.1245,7.6375],[-73.1197,7.6408],[-73.1183,7.6408],[-73.1183,7.6388],[-73.1197,7.6381],[-73.1183,7.6368],[-73.119,7.632],[-73.1204,7.6307],[-73.1224,7.632],[-73.1238,7.6253],[-73.1204,7.6246],[-73.1183,7.6253],[-73.1177,7.6273],[-73.1156,7.6232],[-73.1142,7.6232],[-73.117,7.628],[-73.1156,7.6287],[-73.1156,7.6273],[-73.1142,7.6273],[-73.1149,7.63],[-73.1122,7.6287],[-73.1108,7.6253],[-73.1102,7.626],[-73.1115,7.6273],[-73.1108,7.6293],[-73.1136,7.63],[-73.1136,7.6314],[-73.1115,7.6307],[-73.1095,7.6334],[-73.1047,7.6314],[-73.1026,7.632],[-73.1033,7.6334],[-73.1074,7.6334],[-73.1067,7.6354],[-73.1026,7.6361],[-73.1026,7.6375],[-73.1067,7.6361],[-73.1054,7.6408],[-73.1088,7.6402],[-73.1067,7.6463],[-73.104,7.6463],[-73.1026,7.649],[-73.0965,7.6523],[-73.0958,7.6463],[-73.0972,7.6435],[-73.0951,7.6415],[-73.0972,7.6422],[-73.0958,7.6361],[-73.0972,7.6361],[-73.0979,7.6341],[-73.0965,7.6327],[-73.0958,7.6361],[-73.0931,7.6368],[-73.0938,7.6341],[-73.0951,7.6341],[-73.0931,7.6327],[-73.0958,7.63],[-73.0951,7.6287],[-73.0979,7.6273],[-73.0985,7.6246],[-73.0972,7.6232],[-73.0992,7.6219],[-73.0958,7.6219],[-73.0979,7.6192],[-73.0972,7.6185],[-73.0951,7.6219],[-73.0958,7.6158],[-73.0999,7.6158],[-73.1006,7.6117],[-73.0979,7.6111],[-73.0985,7.609],[-73.0972,7.6077],[-73.0958,7.6084],[-73.0931,7.6111],[-73.0951,7.6151],[-73.0931,7.6158],[-73.0924,7.6131],[-73.0924,7.6165],[-73.089,7.6178],[-73.0856,7.6219],[-73.0863,7.6165],[-73.0842,7.6145],[-73.0849,7.6192],[-73.0835,7.6205],[-73.0822,7.6199],[-73.0822,7.6178],[-73.0801,7.6172],[-73.0794,7.6145],[-73.0815,7.6117],[-73.0828,7.6145],[-73.0856,7.6124],[-73.0869,7.6158],[-73.0883,7.6138],[-73.0876,7.607],[-73.0904,7.6057],[-73.0931,7.6077],[-73.0938,7.6043],[-73.0917,7.6029],[-73.0951,7.6029],[-73.0965,7.6002],[-73.0979,7.6009],[-73.0965,7.5989],[-73.0999,7.5996],[-73.102,7.5962],[-73.1061,7.5948],[-73.1142,7.584],[-73.119,7.582],[-73.1245,7.5745],[-73.1197,7.5738],[-73.1183,7.5759],[-73.1183,7.5738],[-73.1252,7.5738],[-73.1265,7.5718],[-73.1361,7.5705],[-73.1368,7.5684],[-73.1429,7.5644],[-73.145,7.5583],[-73.1504,7.5583],[-73.1498,7.5563],[-73.1484,7.5563],[-73.1477,7.5502],[-73.1504,7.5522],[-73.1504,7.5495],[-73.1532,7.5481],[-73.1498,7.5468],[-73.1491,7.5441],[-73.147,7.5475],[-73.1443,7.5468],[-73.1463,7.5427],[-73.1484,7.5427],[-73.1484,7.5407],[-73.1463,7.54],[-73.1443,7.5441],[-73.1402,7.5475],[-73.1416,7.5495],[-73.1388,7.5502],[-73.1416,7.5549],[-73.1368,7.5549],[-73.1334,7.5617],[-73.1286,7.563],[-73.1259,7.5678],[-73.1245,7.5671],[-73.1245,7.565],[-73.1218,7.5637],[-73.1211,7.5684],[-73.1231,7.5678],[-73.1231,7.5691],[-73.1197,7.5705],[-73.117,7.5738],[-73.1142,7.5725],[-73.117,7.5705],[-73.1142,7.5678],[-73.1129,7.5711],[-73.1156,7.5759],[-73.1142,7.5766],[-73.1129,7.5766],[-73.1136,7.5752],[-73.1115,7.5725],[-73.1122,7.5759],[-73.1102,7.5779],[-73.1095,7.5732],[-73.1095,7.5766],[-73.1054,7.5772],[-73.104,7.5759],[-73.1033,7.5779],[-73.104,7.5718],[-73.102,7.5684],[-73.0999,7.5711],[-73.0992,7.5698],[-73.0958,7.5725],[-73.0958,7.5711],[-73.1033,7.5664],[-73.1047,7.5637],[-73.1054,7.5684],[-73.1081,7.5657],[-73.1108,7.5671],[-73.1115,7.5657],[-73.1102,7.5644],[-73.1142,7.5617],[-73.1136,7.5603],[-73.1149,7.5596],[-73.1129,7.5576],[-73.1156,7.5563],[-73.1163,7.559],[-73.119,7.5576],[-73.117,7.5495],[-73.119,7.5502],[-73.1197,7.5576],[-73.1218,7.5563],[-73.1245,7.5447],[-73.1265,7.5542],[-73.1293,7.5549],[-73.1286,7.5535],[-73.1306,7.5522],[-73.1306,7.5481],[-73.1293,7.5475],[-73.1361,7.5427],[-73.1361,7.5407],[-73.1388,7.5427],[-73.1402,7.542],[-73.1395,7.54],[-73.1375,7.54],[-73.1409,7.538],[-73.1402,7.5359],[-73.1429,7.5366],[-73.1416,7.5339],[-73.1436,7.5332],[-73.1422,7.5312],[-73.1504,7.5258]]],[[[-73.1306,7.5772],[-73.1293,7.5779],[-73.1286,7.5826],[-73.1313,7.5826],[-73.1347,7.5887],[-73.134,7.5901],[-73.1306,7.5874],[-73.1306,7.5914],[-73.1361,7.5914],[-73.1375,7.5948],[-73.1388,7.5948],[-73.1395,7.5928],[-73.1381,7.5935],[-73.1361,7.5901],[-73.1395,7.5881],[-73.1334,7.582],[-73.1334,7.5786],[-73.1313,7.5799],[-73.1306,7.5772]]],[[[-73.1115,7.5962],[-73.1074,7.5975],[-73.1054,7.6009],[-73.1061,7.6043],[-73.1088,7.6029],[-73.1115,7.5975],[-73.1129,7.5982],[-73.1115,7.5962]]],[[[-72.65,7.5393],[-72.65,7.5346],[-72.6527,7.5346],[-72.6507,7.5319],[-72.6534,7.5312],[-72.6534,7.5251],[-72.6568,7.5238],[-72.6575,7.5285],[-72.6555,7.5299],[-72.6555,7.5326],[-72.6589,7.5312],[-72.6589,7.5332],[-72.6555,7.5346],[-72.6555,7.5373],[-72.6507,7.5373],[-72.6507,7.5414],[-72.6555,7.5414],[-72.6561,7.5427],[-72.6548,7.5441],[-72.6514,7.5441],[-72.65,7.5427],[-72.65,7.5921],[-72.652,7.5941],[-72.6541,7.5928],[-72.6534,7.6002],[-72.652,7.6009],[-72.6527,7.5969],[-72.65,7.5982],[-72.65,7.6138],[-72.6582,7.6165],[-72.6602,7.6151],[-72.6609,7.6104],[-72.6637,7.6117],[-72.6637,7.6097],[-72.6596,7.607],[-72.6602,7.6057],[-72.6664,7.607],[-72.6794,7.6036],[-72.68,7.6023],[-72.6787,7.6016],[-72.6807,7.6009],[-72.6794,7.5989],[-72.6807,7.5955],[-72.6848,7.5941],[-72.6848,7.5969],[-72.6821,7.5982],[-72.6821,7.6002],[-72.6862,7.5996],[-72.6875,7.5975],[-72.6923,7.5975],[-72.6944,7.6029],[-72.6869,7.609],[-72.6821,7.6097],[-72.6814,7.6111],[-72.6773,7.6097],[-72.6746,7.6104],[-72.6759,7.6124],[-72.6746,7.6158],[-72.6787,7.6124],[-72.6787,7.6151],[-72.6746,7.6212],[-72.6732,7.6212],[-72.6746,7.6172],[-72.6712,7.6178],[-72.6705,7.6192],[-72.6691,7.6192],[-72.6691,7.6172],[-72.6657,7.6205],[-72.6698,7.6199],[-72.6718,7.6219],[-72.6807,7.6212],[-72.6821,7.6199],[-72.6807,7.6178],[-72.6835,7.6151],[-72.6985,7.6145],[-72.6985,7.6172],[-72.6855,7.6246],[-72.6807,7.6253],[-72.6794,7.6239],[-72.6746,7.6239],[-72.6746,7.626],[-72.6773,7.6273],[-72.6794,7.6327],[-72.6794,7.6354],[-72.6773,7.6354],[-72.6753,7.6402],[-72.6718,7.6395],[-72.6718,7.6354],[-72.6691,7.6334],[-72.6712,7.6273],[-72.6643,7.626],[-72.6609,7.6273],[-72.6602,7.6253],[-72.6582,7.6253],[-72.6582,7.6226],[-72.6514,7.6192],[-72.6527,7.6253],[-72.65,7.6253],[-72.65,7.6314],[-72.652,7.6314],[-72.6548,7.6341],[-72.6568,7.6341],[-72.6575,7.6314],[-72.6637,7.6314],[-72.6657,7.6341],[-72.6637,7.6348],[-72.663,7.6375],[-72.6671,7.6388],[-72.6684,7.6429],[-72.6664,7.6449],[-72.6637,7.6442],[-72.6623,7.6456],[-72.6616,7.6408],[-72.6555,7.6381],[-72.6548,7.6408],[-72.6568,7.6415],[-72.6561,7.6449],[-72.65,7.6435],[-72.65,7.6618],[-72.6596,7.6598],[-72.6609,7.6625],[-72.6623,7.6625],[-72.6643,7.6584],[-72.665,7.6598],[-72.6684,7.6605],[-72.6678,7.6625],[-72.665,7.6618],[-72.6637,7.6645],[-72.6616,7.6645],[-72.6575,7.6713],[-72.6534,7.6733],[-72.65,7.6787],[-72.65,7.7234],[-72.652,7.7241],[-72.6548,7.7302],[-72.65,7.7288],[-72.65,7.5393]]],[[[-72.6712,7.494],[-72.6718,7.4987],[-72.6746,7.4994],[-72.6746,7.5008],[-72.6718,7.5028],[-72.6691,7.5028],[-72.6678,7.4947],[-72.6712,7.494]]],[[[-72.6787,7.4879],[-72.6821,7.4899],[-72.6759,7.4913],[-72.68,7.4947],[-72.6794,7.4967],[-72.6773,7.4974],[-72.6753,7.4974],[-72.6746,7.492],[-72.6684,7.4913],[-72.6691,7.4886],[-72.6705,7.4886],[-72.6712,7.4906],[-72.6718,7.4886],[-72.6746,7.4892],[-72.6739,7.4879],[-72.6759,7.4879],[-72.6773,7.4892],[-72.6787,7.4879]]],[[[-72.65,7.4771],[-72.65,7.4798],[-72.6527,7.4777],[-72.6555,7.4777],[-72.6555,7.4825],[-72.6541,7.4818],[-72.6541,7.4791],[-72.6527,7.4791],[-72.6507,7.4818],[-72.6534,7.4818],[-72.6534,7.4832],[-72.65,7.4832],[-72.65,7.4872],[-72.6541,7.4886],[-72.6548,7.4906],[-72.65,7.4899],[-72.65,7.4771]]],[[[-72.6623,7.4676],[-72.6623,7.4703],[-72.6643,7.471],[-72.6616,7.471],[-72.6609,7.473],[-72.663,7.4737],[-72.6637,7.4716],[-72.665,7.4716],[-72.665,7.473],[-72.6678,7.4723],[-72.6671,7.4737],[-72.6684,7.4744],[-72.6568,7.4744],[-72.6514,7.4716],[-72.6575,7.471],[-72.6582,7.4696],[-72.6582,7.4716],[-72.6561,7.4723],[-72.6589,7.473],[-72.6623,7.4676]]],[[[-73.0897,7.4615],[-73.0876,7.4676],[-73.0869,7.4662],[-73.0835,7.4669],[-73.0794,7.4656],[-73.0794,7.4642],[-73.0815,7.4635],[-73.0869,7.4642],[-73.0897,7.4615]]],[[[-72.6718,7.4581],[-72.6732,7.4588],[-72.6739,7.4622],[-72.6739,7.4635],[-72.6718,7.4642],[-72.6739,7.4642],[-72.6732,7.471],[-72.6746,7.4757],[-72.6712,7.4818],[-72.6678,7.4825],[-72.6684,7.4791],[-72.6698,7.4784],[-72.6691,7.4764],[-72.6671,7.4764],[-72.6698,7.4723],[-72.6691,7.4656],[-72.6671,7.4656],[-72.6678,7.4696],[-72.6657,7.4703],[-72.665,7.4649],[-72.6671,7.4628],[-72.6691,7.4628],[-72.6684,7.4595],[-72.6712,7.4601],[-72.6718,7.4581]]],[[[-73.0883,7.4574],[-73.0897,7.4581],[-73.0897,7.4608],[-73.0863,7.4608],[-73.0856,7.4581],[-73.0883,7.4574]]],[[[-72.6534,7.4527],[-72.6541,7.454],[-72.652,7.4574],[-72.6534,7.4561],[-72.6548,7.4568],[-72.6555,7.454],[-72.6575,7.4547],[-72.6568,7.4568],[-72.6589,7.4561],[-72.6589,7.4574],[-72.6541,7.4581],[-72.6575,7.4595],[-72.6575,7.4608],[-72.6548,7.4595],[-72.6514,7.4601],[-72.6555,7.4622],[-72.6555,7.4642],[-72.652,7.4622],[-72.6527,7.4642],[-72.65,7.4615],[-72.65,7.4669],[-72.6575,7.4656],[-72.6582,7.4676],[-72.6534,7.4669],[-72.65,7.4689],[-72.65,7.4703],[-72.6514,7.4703],[-72.65,7.471],[-72.65,7.4757],[-72.65,7.454],[-72.6527,7.454],[-72.6534,7.4527]]],[[[-72.6848,7.4351],[-72.6841,7.4364],[-72.6828,7.4358],[-72.6848,7.4351]]],[[[-72.68,7.4337],[-72.6787,7.4398],[-72.6828,7.4364],[-72.6835,7.4385],[-72.6794,7.4412],[-72.6828,7.4419],[-72.6773,7.4439],[-72.6773,7.4473],[-72.6841,7.4466],[-72.6862,7.448],[-72.6889,7.4459],[-72.6862,7.4486],[-72.6882,7.45],[-72.6903,7.4473],[-72.6937,7.4473],[-72.6937,7.4452],[-72.6951,7.4446],[-72.6951,7.4473],[-72.693,7.4486],[-72.6937,7.45],[-72.6916,7.4493],[-72.6869,7.4507],[-72.6828,7.4473],[-72.678,7.448],[-72.68,7.4507],[-72.6828,7.4507],[-72.6848,7.4554],[-72.6862,7.4547],[-72.6862,7.4568],[-72.6828,7.4561],[-72.6835,7.454],[-72.6821,7.4534],[-72.6814,7.4547],[-72.6814,7.452],[-72.6807,7.4534],[-72.6794,7.4507],[-72.678,7.452],[-72.6773,7.4486],[-72.6753,7.4486],[-72.6732,7.4459],[-72.6725,7.4473],[-72.6705,7.4466],[-72.6705,7.4446],[-72.6753,7.4452],[-72.6746,7.4425],[-72.6773,7.4398],[-72.6766,7.4358],[-72.6787,7.4358],[-72.68,7.4337]]],[[[-73.2037,7.429],[-73.203,7.4317],[-73.1996,7.4351],[-73.2023,7.4351],[-73.201,7.4419],[-73.2023,7.4425],[-73.2023,7.4446],[-73.2071,7.4432],[-73.2098,7.4446],[-73.2023,7.4459],[-73.2023,7.4486],[-73.1989,7.4486],[-73.1989,7.4513],[-73.2057,7.452],[-73.2119,7.45],[-73.2126,7.452],[-73.2105,7.452],[-73.2098,7.454],[-73.2064,7.4527],[-73.2071,7.4554],[-73.2037,7.4568],[-73.2016,7.4561],[-73.201,7.4581],[-73.1982,7.4574],[-73.1969,7.4595],[-73.1996,7.4595],[-73.1996,7.4608],[-73.1989,7.4622],[-73.1955,7.4628],[-73.1934,7.4595],[-73.1962,7.4561],[-73.1982,7.4561],[-73.1982,7.4547],[-73.1996,7.4554],[-73.2003,7.454],[-73.1962,7.4486],[-73.1982,7.4446],[-73.2003,7.4439],[-73.1975,7.4358],[-73.2037,7.429]]],[[[-72.6609,7.4276],[-72.6609,7.429],[-72.665,7.429],[-72.665,7.4303],[-72.6637,7.431],[-72.663,7.4351],[-72.6602,7.4371],[-72.6596,7.4432],[-72.6616,7.4466],[-72.6602,7.4513],[-72.665,7.4547],[-72.6691,7.4554],[-72.6691,7.454],[-72.6712,7.454],[-72.6725,7.4554],[-72.6712,7.4574],[-72.665,7.4554],[-72.6664,7.4615],[-72.665,7.4615],[-72.6643,7.4554],[-72.6623,7.4554],[-72.663,7.4656],[-72.6616,7.4662],[-72.6602,7.4662],[-72.6616,7.4649],[-72.6616,7.4588],[-72.6602,7.4581],[-72.6609,7.4547],[-72.6589,7.454],[-72.6596,7.4439],[-72.6555,7.4493],[-72.6561,7.4446],[-72.6582,7.4439],[-72.6582,7.4419],[-72.6596,7.4412],[-72.6589,7.4378],[-72.6568,7.4378],[-72.6596,7.4331],[-72.6596,7.4317],[-72.6575,7.431],[-72.6589,7.431],[-72.6589,7.4283],[-72.6609,7.4276]]],[[[-73.2112,7.408],[-73.2112,7.4094],[-73.2132,7.41],[-73.2112,7.4127],[-73.2112,7.4155],[-73.2126,7.4161],[-73.2119,7.4202],[-73.2146,7.4209],[-73.2146,7.4249],[-73.218,7.4249],[-73.2187,7.427],[-73.2201,7.427],[-73.2208,7.4303],[-73.2208,7.4358],[-73.2187,7.4371],[-73.2194,7.4392],[-73.2126,7.4446],[-73.2098,7.4439],[-73.2098,7.4425],[-73.2132,7.4432],[-73.2132,7.4371],[-73.2153,7.4351],[-73.2153,7.4331],[-73.2146,7.4344],[-73.2119,7.4344],[-73.2112,7.4324],[-73.2126,7.4303],[-73.218,7.4303],[-73.2187,7.4324],[-73.2167,7.4324],[-73.2167,7.4337],[-73.2194,7.4331],[-73.2194,7.4283],[-73.2132,7.4283],[-73.2105,7.4303],[-73.2112,7.4324],[-73.2098,7.4324],[-73.2071,7.4283],[-73.2105,7.4276],[-73.2105,7.4256],[-73.2132,7.4263],[-73.2139,7.4236],[-73.2044,7.4236],[-73.2057,7.4168],[-73.203,7.4121],[-73.2037,7.4107],[-73.2071,7.4121],[-73.2085,7.4094],[-73.2112,7.408]]],[[[-72.9586,7.3193],[-72.9606,7.32],[-72.9593,7.3234],[-72.9627,7.3274],[-72.9613,7.3295],[-72.96,7.3281],[-72.9606,7.3254],[-72.9579,7.3261],[-72.9565,7.3288],[-72.9545,7.3288],[-72.9572,7.3247],[-72.9552,7.3227],[-72.9559,7.3213],[-72.9538,7.3207],[-72.9586,7.3207],[-72.9586,7.3193]]],[[[-73.1293,7.2868],[-73.1293,7.2909],[-73.132,7.2915],[-73.13,7.2936],[-73.1306,7.2949],[-73.1368,7.2915],[-73.1402,7.2922],[-73.1381,7.2949],[-73.1334,7.2963],[-73.1327,7.299],[-73.1279,7.301],[-73.1279,7.3024],[-73.1313,7.3024],[-73.1347,7.2983],[-73.1409,7.2949],[-73.1388,7.3092],[-73.1361,7.3146],[-73.132,7.3146],[-73.1279,7.32],[-73.1279,7.322],[-73.1245,7.3227],[-73.1197,7.3295],[-73.1163,7.3301],[-73.1163,7.3349],[-73.1136,7.341],[-73.1081,7.3457],[-73.1074,7.3505],[-73.1054,7.3498],[-73.1054,7.3545],[-73.1067,7.3559],[-73.1081,7.3552],[-73.1081,7.3532],[-73.1115,7.3538],[-73.1122,7.3525],[-73.1129,7.3572],[-73.1102,7.3566],[-73.1115,7.3579],[-73.1149,7.3566],[-73.1149,7.3599],[-73.1129,7.3586],[-73.1129,7.3606],[-73.1108,7.3613],[-73.1122,7.364],[-73.1142,7.364],[-73.1142,7.3613],[-73.1183,7.3613],[-73.1156,7.364],[-73.117,7.3654],[-73.1163,7.3701],[-73.1177,7.3701],[-73.1156,7.3714],[-73.1156,7.3687],[-73.1136,7.3667],[-73.1115,7.3667],[-73.1115,7.3687],[-73.1074,7.3681],[-73.1074,7.3667],[-73.1102,7.3654],[-73.1067,7.3633],[-73.102,7.3633],[-73.102,7.3599],[-73.1006,7.362],[-73.0985,7.362],[-73.0985,7.3579],[-73.0972,7.3572],[-73.0958,7.3586],[-73.0958,7.3599],[-73.0979,7.3599],[-73.0979,7.3674],[-73.1013,7.3674],[-73.102,7.366],[-73.1013,7.3694],[-73.0965,7.3687],[-73.0985,7.3714],[-73.0999,7.3721],[-73.1067,7.3681],[-73.1074,7.3701],[-73.1102,7.3701],[-73.1074,7.3714],[-73.1095,7.3714],[-73.1115,7.3735],[-73.1095,7.3748],[-73.1102,7.3796],[-73.1074,7.3775],[-73.1081,7.3816],[-73.1095,7.3816],[-73.1081,7.3843],[-73.104,7.3796],[-73.0999,7.3802],[-73.102,7.3816],[-73.102,7.383],[-73.0999,7.3836],[-73.1013,7.3857],[-73.1006,7.3918],[-73.0938,7.3931],[-73.0951,7.3951],[-73.0979,7.3951],[-73.0985,7.3972],[-73.0945,7.3972],[-73.0924,7.3992],[-73.0945,7.4006],[-73.0945,7.406],[-73.091,7.408],[-73.0917,7.4107],[-73.0815,7.408],[-73.0808,7.406],[-73.0822,7.4053],[-73.0815,7.4039],[-73.0842,7.4039],[-73.0842,7.4019],[-73.0856,7.4019],[-73.0917,7.3938],[-73.0917,7.3904],[-73.089,7.3904],[-73.0876,7.3884],[-73.0917,7.3823],[-73.0917,7.3789],[-73.0945,7.3775],[-73.0945,7.3762],[-73.091,7.3762],[-73.089,7.3782],[-73.0904,7.3823],[-73.0876,7.3809],[-73.0863,7.383],[-73.074,7.3877],[-73.0712,7.3911],[-73.0671,7.3924],[-73.0644,7.3911],[-73.063,7.3931],[-73.0644,7.3958],[-73.0637,7.3985],[-73.0617,7.3992],[-73.0617,7.3958],[-73.0596,7.3945],[-73.0583,7.3958],[-73.061,7.3979],[-73.061,7.4006],[-73.0562,7.3985],[-73.0542,7.4019],[-73.0535,7.4006],[-73.0549,7.3985],[-73.0521,7.3992],[-73.0535,7.3958],[-73.0508,7.3938],[-73.0528,7.3877],[-73.0576,7.385],[-73.0589,7.3891],[-73.0624,7.3891],[-73.063,7.3863],[-73.0617,7.3843],[-73.0651,7.3802],[-73.0719,7.3802],[-73.0712,7.3789],[-73.0733,7.3775],[-73.0726,7.3728],[-73.0822,7.3708],[-73.0904,7.3593],[-73.0992,7.3545],[-73.1006,7.3471],[-73.1067,7.3396],[-73.1054,7.3389],[-73.0985,7.3423],[-73.0917,7.3532],[-73.0856,7.3566],[-73.0781,7.364],[-73.0753,7.3593],[-73.076,7.3579],[-73.0787,7.3579],[-73.0801,7.3552],[-73.076,7.3552],[-73.0747,7.3572],[-73.0719,7.3552],[-73.0726,7.3532],[-73.0712,7.3538],[-73.0712,7.3525],[-73.0692,7.3525],[-73.0699,7.3545],[-73.0671,7.3552],[-73.0678,7.3532],[-73.0651,7.3525],[-73.0658,7.3498],[-73.0706,7.3511],[-73.0699,7.3484],[-73.0726,7.3491],[-73.0726,7.3477],[-73.0678,7.3464],[-73.0685,7.3444],[-73.0658,7.3437],[-73.0658,7.3423],[-73.0699,7.343],[-73.0706,7.3396],[-73.074,7.3383],[-73.074,7.3457],[-73.076,7.3457],[-73.0787,7.3403],[-73.0815,7.341],[-73.0842,7.3369],[-73.0863,7.3362],[-73.0856,7.3335],[-73.0883,7.3322],[-73.0883,7.3301],[-73.0945,7.3288],[-73.0951,7.3274],[-73.0972,7.3301],[-73.0999,7.3308],[-73.1006,7.3288],[-73.1026,7.3288],[-73.1013,7.3268],[-73.1026,7.3247],[-73.1081,7.322],[-73.1129,7.322],[-73.1129,7.3186],[-73.1149,7.318],[-73.1129,7.3146],[-73.1156,7.3132],[-73.1142,7.3092],[-73.117,7.3071],[-73.1204,7.3003],[-73.1252,7.2963],[-73.1265,7.2888],[-73.1293,7.2868]]],[[[-73.1934,7.2719],[-73.1962,7.2733],[-73.1962,7.2746],[-73.1989,7.2726],[-73.2064,7.2726],[-73.2051,7.276],[-73.2071,7.276],[-73.2064,7.2787],[-73.2078,7.2787],[-73.2064,7.2807],[-73.2105,7.28],[-73.2091,7.2746],[-73.2091,7.2733],[-73.2105,7.2733],[-73.2126,7.2746],[-73.2126,7.276],[-73.2112,7.276],[-73.2112,7.2794],[-73.2153,7.2807],[-73.2119,7.2827],[-73.2098,7.2882],[-73.2091,7.2855],[-73.2078,7.2861],[-73.2078,7.2882],[-73.2098,7.2895],[-73.2091,7.2915],[-73.201,7.2915],[-73.2003,7.2888],[-73.1969,7.2915],[-73.1969,7.2895],[-73.1948,7.2895],[-73.1955,7.2909],[-73.1941,7.2909],[-73.1934,7.2888],[-73.1914,7.2888],[-73.1887,7.2922],[-73.1846,7.2943],[-73.1846,7.297],[-73.1825,7.297],[-73.1839,7.2943],[-73.1798,7.297],[-73.1784,7.2929],[-73.1812,7.2902],[-73.1764,7.2902],[-73.1771,7.2875],[-73.1736,7.2888],[-73.173,7.2841],[-73.1695,7.2814],[-73.1689,7.278],[-73.1709,7.276],[-73.1709,7.2739],[-73.1736,7.2733],[-73.175,7.2766],[-73.175,7.2794],[-73.173,7.28],[-73.1736,7.2821],[-73.1757,7.2814],[-73.1784,7.2753],[-73.1832,7.276],[-73.1798,7.2766],[-73.1791,7.2794],[-73.1771,7.2794],[-73.1771,7.2807],[-73.1812,7.2821],[-73.1805,7.2861],[-73.1832,7.2861],[-73.1846,7.2827],[-73.1873,7.2834],[-73.1873,7.2868],[-73.1853,7.2895],[-73.1921,7.2868],[-73.1955,7.2875],[-73.1962,7.2827],[-73.1975,7.2834],[-73.1975,7.2868],[-73.2003,7.2882],[-73.201,7.2855],[-73.203,7.2841],[-73.201,7.2841],[-73.2016,7.2807],[-73.2003,7.2794],[-73.203,7.278],[-73.203,7.2766],[-73.2003,7.2773],[-73.1982,7.2753],[-73.1982,7.2807],[-73.1955,7.2814],[-73.1948,7.2787],[-73.1962,7.2753],[-73.1914,7.2773],[-73.1934,7.2719]]],[[[-73.3109,7.2617],[-73.3143,7.2631],[-73.3157,7.2739],[-73.3109,7.2746],[-73.3102,7.2726],[-73.3116,7.2733],[-73.3129,7.2719],[-73.3095,7.2706],[-73.3088,7.2685],[-73.3075,7.2692],[-73.3075,7.2773],[-73.3061,7.2787],[-73.3061,7.2827],[-73.3047,7.2827],[-73.3047,7.2861],[-73.3061,7.2861],[-73.3061,7.2875],[-73.304,7.2888],[-73.304,7.2963],[-73.3054,7.2956],[-73.3054,7.3044],[-73.3081,7.3193],[-73.3102,7.322],[-73.3122,7.322],[-73.3122,7.3247],[-73.3136,7.3247],[-73.3129,7.3186],[-73.3143,7.3193],[-73.3163,7.324],[-73.3157,7.3301],[-73.3191,7.3322],[-73.3204,7.3349],[-73.3204,7.3437],[-73.3184,7.3437],[-73.3184,7.3471],[-73.3163,7.3491],[-73.3081,7.3518],[-73.3075,7.3572],[-73.304,7.3593],[-73.304,7.3532],[-73.3061,7.3518],[-73.3068,7.3477],[-73.3054,7.3396],[-73.3034,7.3389],[-73.3027,7.3491],[-73.2999,7.3464],[-73.2993,7.3477],[-73.2979,7.3471],[-73.2986,7.3376],[-73.2972,7.3376],[-73.2972,7.3396],[-73.2959,7.3396],[-73.2959,7.3417],[-73.2972,7.3423],[-73.2959,7.3457],[-73.2972,7.3491],[-73.2993,7.3491],[-73.2972,7.3518],[-73.2945,7.3484],[-73.2931,7.341],[-73.2931,7.3356],[-73.2965,7.3322],[-73.2952,7.3301],[-73.2959,7.3274],[-73.2918,7.3288],[-73.2918,7.3234],[-73.289,7.3227],[-73.2822,7.3234],[-73.2808,7.3281],[-73.2788,7.3281],[-73.2788,7.322],[-73.2802,7.32],[-73.2774,7.318],[-73.2767,7.3092],[-73.2781,7.3071],[-73.2754,7.3058],[-73.2754,7.3024],[-73.2788,7.3017],[-73.2795,7.2983],[-73.2774,7.3003],[-73.2774,7.299],[-73.2761,7.2997],[-73.2733,7.2983],[-73.2726,7.2956],[-73.2747,7.2976],[-73.2767,7.297],[-73.274,7.2929],[-73.2754,7.2909],[-73.2754,7.2895],[-73.274,7.2902],[-73.2747,7.2861],[-73.2761,7.2855],[-73.2781,7.2882],[-73.2829,7.2882],[-73.2829,7.2956],[-73.2863,7.2936],[-73.2849,7.2888],[-73.287,7.2861],[-73.2856,7.2848],[-73.287,7.2821],[-73.2897,7.2814],[-73.2945,7.2868],[-73.2965,7.2915],[-73.2959,7.2949],[-73.2938,7.2936],[-73.2904,7.2943],[-73.2931,7.2956],[-73.2931,7.297],[-73.289,7.297],[-73.2904,7.299],[-73.2897,7.3003],[-73.2904,7.301],[-73.2945,7.2983],[-73.2993,7.3017],[-73.2999,7.3037],[-73.2972,7.3031],[-73.2897,7.3058],[-73.2836,7.3058],[-73.2829,7.3085],[-73.2795,7.3071],[-73.2795,7.3092],[-73.2822,7.3112],[-73.2842,7.3085],[-73.2863,7.3092],[-73.2877,7.3071],[-73.2897,7.3085],[-73.2897,7.3064],[-73.2918,7.3064],[-73.2918,7.3105],[-73.2999,7.3071],[-73.2999,7.3037],[-73.3027,7.3031],[-73.3013,7.3078],[-73.3027,7.3112],[-73.3047,7.3105],[-73.3054,7.3085],[-73.3047,7.3044],[-73.3027,7.3024],[-73.304,7.3017],[-73.3027,7.2956],[-73.2993,7.2956],[-73.2999,7.2936],[-73.3027,7.2922],[-73.3027,7.2827],[-73.3013,7.2827],[-73.3013,7.2868],[-73.2979,7.2855],[-73.2986,7.2814],[-73.3027,7.2821],[-73.304,7.28],[-73.2999,7.2807],[-73.2931,7.2794],[-73.2877,7.2807],[-73.2863,7.2794],[-73.2829,7.2841],[-73.2788,7.2834],[-73.2774,7.28],[-73.2795,7.2787],[-73.2788,7.276],[-73.2808,7.2766],[-73.2815,7.2746],[-73.2795,7.2746],[-73.2774,7.2706],[-73.2781,7.2678],[-73.2815,7.2678],[-73.2836,7.2733],[-73.2856,7.2692],[-73.2897,7.2692],[-73.2863,7.2739],[-73.2877,7.278],[-73.2904,7.276],[-73.289,7.2753],[-73.289,7.2726],[-73.2904,7.2719],[-73.2911,7.2733],[-73.2945,7.2712],[-73.2959,7.2685],[-73.2986,7.2685],[-73.3027,7.2746],[-73.304,7.2746],[-73.3061,7.2726],[-73.3047,7.2692],[-73.3061,7.2645],[-73.3081,7.2672],[-73.3122,7.2665],[-73.3109,7.2617]]],[[[-73.2993,7.32],[-73.2959,7.32],[-73.2959,7.322],[-73.2979,7.3227],[-73.2965,7.3247],[-73.2972,7.3301],[-73.2979,7.3288],[-73.2999,7.3295],[-73.2993,7.3261],[-73.302,7.3234],[-73.302,7.3213],[-73.2999,7.3227],[-73.2993,7.32]]],[[[-73.188,7.2455],[-73.1893,7.2489],[-73.1914,7.2475],[-73.1921,7.2489],[-73.1887,7.2502],[-73.1887,7.2529],[-73.1859,7.2523],[-73.1839,7.2536],[-73.1825,7.2496],[-73.1853,7.2496],[-73.1866,7.2475],[-73.1825,7.2489],[-73.1805,7.2489],[-73.1805,7.2475],[-73.188,7.2455]]],[[[-72.9429,7.2441],[-72.9436,7.2462],[-72.947,7.2462],[-72.9483,7.2482],[-72.9545,7.2496],[-72.9518,7.2502],[-72.9456,7.2482],[-72.9429,7.2502],[-72.9429,7.2462],[-72.9415,7.2455],[-72.9415,7.2441],[-72.9429,7.2441]]],[[[-73.0036,7.2441],[-73.0043,7.2462],[-73.0023,7.2475],[-73.0009,7.2441],[-73.0036,7.2441]]],[[[-72.9483,7.2401],[-72.9531,7.2441],[-72.9572,7.2428],[-72.9606,7.2536],[-72.9579,7.2516],[-72.9572,7.2482],[-72.9524,7.2448],[-72.9504,7.2441],[-72.9497,7.2462],[-72.9531,7.2475],[-72.947,7.2462],[-72.947,7.2448],[-72.949,7.2441],[-72.949,7.2428],[-72.947,7.2435],[-72.947,7.2401],[-72.9483,7.2401]]],[[[-73.175,7.2265],[-73.175,7.2299],[-73.1723,7.2319],[-73.1709,7.2313],[-73.1709,7.234],[-73.1757,7.2326],[-73.1798,7.2333],[-73.1771,7.234],[-73.1771,7.2353],[-73.1784,7.2353],[-73.1777,7.2374],[-73.1812,7.2367],[-73.1812,7.238],[-73.1777,7.238],[-73.1771,7.2394],[-73.1798,7.2394],[-73.1798,7.2408],[-73.1764,7.2408],[-73.173,7.2435],[-73.1736,7.2455],[-73.175,7.2455],[-73.1757,7.2435],[-73.1777,7.2448],[-73.1777,7.2421],[-73.1839,7.2414],[-73.1873,7.238],[-73.19,7.238],[-73.1928,7.2421],[-73.1873,7.2448],[-73.1859,7.2435],[-73.1832,7.2448],[-73.1791,7.2441],[-73.1777,7.2489],[-73.1736,7.2475],[-73.1723,7.2502],[-73.1689,7.2496],[-73.1709,7.2448],[-73.1689,7.2441],[-73.1682,7.2462],[-73.1661,7.2468],[-73.1661,7.2509],[-73.1641,7.2516],[-73.1648,7.2462],[-73.1661,7.2455],[-73.1655,7.2435],[-73.1743,7.2401],[-73.1736,7.2367],[-73.175,7.236],[-73.1736,7.2353],[-73.1702,7.2374],[-73.1702,7.2408],[-73.1682,7.2394],[-73.1682,7.2408],[-73.1655,7.2421],[-73.1702,7.2367],[-73.1702,7.2353],[-73.1675,7.236],[-73.1682,7.2326],[-73.1668,7.2319],[-73.1668,7.2279],[-73.175,7.2265]]],[[[-73.162,7.2211],[-73.1661,7.2259],[-73.162,7.2252],[-73.162,7.2272],[-73.1634,7.2279],[-73.162,7.2306],[-73.1634,7.2319],[-73.1627,7.2333],[-73.1586,7.2333],[-73.1579,7.2313],[-73.1593,7.2299],[-73.1579,7.2225],[-73.1586,7.2211],[-73.162,7.2211]]],[[[-72.9695,7.213],[-72.9695,7.2157],[-72.9675,7.215],[-72.9695,7.213]]],[[[-72.9688,7.2123],[-72.9675,7.2137],[-72.9675,7.2123],[-72.9688,7.2123]]],[[[-72.9818,7.2103],[-72.9832,7.2137],[-72.9791,7.217],[-72.9791,7.2198],[-72.9709,7.2279],[-72.9688,7.2272],[-72.9668,7.2292],[-72.9668,7.2272],[-72.9654,7.2265],[-72.9668,7.2265],[-72.9661,7.2245],[-72.9675,7.2245],[-72.9661,7.2211],[-72.9681,7.2218],[-72.9681,7.2164],[-72.9695,7.2157],[-72.9716,7.2177],[-72.9716,7.2198],[-72.9743,7.2211],[-72.975,7.2191],[-72.9736,7.2191],[-72.9722,7.2137],[-72.9743,7.213],[-72.9743,7.2164],[-72.9763,7.2177],[-72.977,7.215],[-72.975,7.2123],[-72.9798,7.2123],[-72.9818,7.2103]]],[[[-73.1388,7.2001],[-73.1436,7.2042],[-73.1525,7.2042],[-73.1532,7.2021],[-73.1545,7.2049],[-73.1538,7.2082],[-73.1559,7.2089],[-73.1559,7.211],[-73.1579,7.2123],[-73.1559,7.2137],[-73.1566,7.217],[-73.1538,7.2231],[-73.1545,7.2259],[-73.1573,7.2286],[-73.1573,7.2313],[-73.1518,7.234],[-73.1518,7.2353],[-73.1552,7.2367],[-73.1573,7.234],[-73.1593,7.2347],[-73.1593,7.236],[-73.1648,7.2347],[-73.1661,7.2374],[-73.1648,7.2414],[-73.1627,7.2414],[-73.1627,7.2401],[-73.1579,7.2414],[-73.1593,7.2448],[-73.1566,7.2448],[-73.1559,7.2482],[-73.1545,7.2482],[-73.1545,7.2516],[-73.1593,7.2502],[-73.1614,7.2523],[-73.1614,7.2557],[-73.1586,7.2557],[-73.1579,7.257],[-73.16,7.2577],[-73.16,7.2597],[-73.1614,7.2577],[-73.1634,7.259],[-73.1682,7.259],[-73.1695,7.2638],[-73.1757,7.2638],[-73.175,7.2617],[-73.1798,7.2577],[-73.1791,7.2557],[-73.1757,7.2543],[-73.1757,7.2523],[-73.1777,7.2523],[-73.1791,7.2502],[-73.1798,7.2516],[-73.1818,7.2516],[-73.1812,7.255],[-73.1866,7.2557],[-73.1853,7.257],[-73.1866,7.2617],[-73.1818,7.2617],[-73.1832,7.2638],[-73.1859,7.2638],[-73.1866,7.2651],[-73.1846,7.2692],[-73.1812,7.2685],[-73.1812,7.2706],[-73.1798,7.2706],[-73.1784,7.2665],[-73.1805,7.2665],[-73.1805,7.2645],[-73.1791,7.2631],[-73.1771,7.2638],[-73.1777,7.2658],[-73.173,7.2651],[-73.1689,7.2685],[-73.1661,7.2678],[-73.1634,7.2645],[-73.16,7.2645],[-73.1607,7.2665],[-73.1627,7.2672],[-73.162,7.2699],[-73.1648,7.2692],[-73.1655,7.2706],[-73.1614,7.2733],[-73.1655,7.2739],[-73.1655,7.2753],[-73.1607,7.2766],[-73.16,7.2787],[-73.1586,7.2787],[-73.1593,7.2739],[-73.1566,7.2685],[-73.1552,7.2712],[-73.1573,7.2719],[-73.1573,7.2787],[-73.1559,7.2773],[-73.1545,7.2773],[-73.1559,7.2794],[-73.1518,7.2787],[-73.1484,7.2834],[-73.1484,7.2855],[-73.1463,7.2861],[-73.145,7.2888],[-73.1436,7.2895],[-73.1422,7.2841],[-73.1402,7.2827],[-73.1395,7.2882],[-73.132,7.2868],[-73.1286,7.2841],[-73.1265,7.2841],[-73.119,7.2895],[-73.1156,7.2902],[-73.1136,7.2888],[-73.1163,7.278],[-73.1156,7.2712],[-73.1129,7.2685],[-73.1095,7.2685],[-73.1088,7.2726],[-73.1054,7.2733],[-73.1054,7.2706],[-73.1081,7.2672],[-73.1081,7.2631],[-73.1095,7.2631],[-73.1102,7.2611],[-73.1033,7.2604],[-73.0999,7.2624],[-73.0999,7.2597],[-73.0972,7.2604],[-73.0972,7.2584],[-73.0938,7.2577],[-73.0951,7.257],[-73.0951,7.2529],[-73.1013,7.2516],[-73.1054,7.2475],[-73.1061,7.2448],[-73.1088,7.2441],[-73.1074,7.2435],[-73.1102,7.2333],[-73.1122,7.2326],[-73.1129,7.2306],[-73.1122,7.2292],[-73.1177,7.2299],[-73.1224,7.2252],[-73.1265,7.2252],[-73.1272,7.2238],[-73.1313,7.2238],[-73.134,7.2259],[-73.1368,7.2198],[-73.1347,7.2218],[-73.1306,7.2204],[-73.1231,7.2211],[-73.1224,7.2191],[-73.132,7.2137],[-73.1306,7.2089],[-73.1293,7.2116],[-73.1293,7.2069],[-73.1306,7.2069],[-73.1313,7.2042],[-73.1334,7.2042],[-73.1327,7.2021],[-73.1354,7.2008],[-73.1361,7.2035],[-73.1347,7.2042],[-73.1347,7.2076],[-73.1368,7.2076],[-73.1388,7.2049],[-73.1375,7.2028],[-73.1388,7.2001]]],[[[-73.119,7.2536],[-73.1136,7.2577],[-73.1129,7.2604],[-73.1197,7.255],[-73.119,7.2536]]],[[[-73.1272,7.2557],[-73.1238,7.2557],[-73.1204,7.2597],[-73.1245,7.2597],[-73.1252,7.2617],[-73.1272,7.2557]]],[[[-73.1504,7.2617],[-73.1484,7.2624],[-73.1484,7.2638],[-73.1463,7.2631],[-73.1463,7.2645],[-73.147,7.2665],[-73.1498,7.2678],[-73.1498,7.2719],[-73.1518,7.2726],[-73.1518,7.2672],[-73.1566,7.2638],[-73.1545,7.2638],[-73.1504,7.2672],[-73.1504,7.2617]]],[[[-73.1149,7.2617],[-73.1136,7.2617],[-73.1177,7.2651],[-73.1149,7.2617]]],[[[-73.1388,7.2638],[-73.1252,7.2658],[-73.1272,7.2665],[-73.1259,7.2672],[-73.1265,7.2685],[-73.13,7.2706],[-73.1381,7.2658],[-73.1388,7.2638]]],[[[-73.1627,7.1961],[-73.1634,7.2089],[-73.1661,7.2082],[-73.1682,7.2055],[-73.175,7.2062],[-73.1771,7.2035],[-73.1798,7.2035],[-73.1832,7.2069],[-73.1893,7.2069],[-73.1893,7.2116],[-73.1962,7.2157],[-73.1969,7.2137],[-73.1907,7.2082],[-73.1914,7.2055],[-73.1934,7.2055],[-73.1928,7.2089],[-73.1975,7.2089],[-73.1996,7.213],[-73.1989,7.215],[-73.2051,7.2137],[-73.2071,7.2157],[-73.2091,7.215],[-73.2098,7.2164],[-73.2119,7.2164],[-73.2139,7.213],[-73.2194,7.213],[-73.2221,7.2184],[-73.2194,7.2198],[-73.2194,7.2184],[-73.218,7.2184],[-73.2173,7.2218],[-73.2139,7.2245],[-73.203,7.2265],[-73.2044,7.2252],[-73.2016,7.2259],[-73.1996,7.2238],[-73.1955,7.2238],[-73.1921,7.2211],[-73.1853,7.2204],[-73.188,7.2157],[-73.1839,7.2157],[-73.1832,7.2123],[-73.1784,7.2116],[-73.1771,7.2082],[-73.175,7.211],[-73.1716,7.2116],[-73.1709,7.2137],[-73.1723,7.217],[-73.1695,7.215],[-73.1689,7.2218],[-73.1648,7.2231],[-73.1648,7.2164],[-73.1661,7.2143],[-73.1641,7.2116],[-73.1607,7.2116],[-73.1614,7.2096],[-73.1593,7.2082],[-73.1586,7.2049],[-73.16,7.1974],[-73.1627,7.1961]]],[[[-73.1532,7.192],[-73.1525,7.1988],[-73.1416,7.2001],[-73.1416,7.1967],[-73.1436,7.1988],[-73.145,7.1981],[-73.1443,7.1961],[-73.1484,7.1974],[-73.1491,7.1933],[-73.1532,7.192]]],[[[-72.947,7.1683],[-72.9477,7.1723],[-72.949,7.1717],[-72.949,7.1696],[-72.9504,7.1717],[-72.9538,7.173],[-72.9497,7.1696],[-72.9524,7.169],[-72.9579,7.173],[-72.9579,7.1744],[-72.9538,7.1737],[-72.9538,7.1757],[-72.9552,7.1764],[-72.9559,7.1805],[-72.96,7.1805],[-72.96,7.1859],[-72.9641,7.1852],[-72.9641,7.1866],[-72.9688,7.1872],[-72.9681,7.1859],[-72.9702,7.1852],[-72.9722,7.1879],[-72.9729,7.1866],[-72.9743,7.1872],[-72.975,7.19],[-72.9743,7.1927],[-72.9722,7.1933],[-72.9736,7.19],[-72.9681,7.1886],[-72.9675,7.19],[-72.9661,7.19],[-72.9661,7.1886],[-72.9634,7.19],[-72.962,7.1879],[-72.962,7.1913],[-72.9675,7.1906],[-72.9668,7.192],[-72.9709,7.1913],[-72.9716,7.1927],[-72.9681,7.194],[-72.9695,7.1954],[-72.9654,7.1947],[-72.9675,7.194],[-72.9668,7.1927],[-72.9641,7.1947],[-72.9579,7.1947],[-72.96,7.1981],[-72.9675,7.1961],[-72.9681,7.1994],[-72.9647,7.2015],[-72.9641,7.2062],[-72.9552,7.2116],[-72.9511,7.211],[-72.9511,7.2062],[-72.9504,7.2042],[-72.949,7.2042],[-72.9497,7.2015],[-72.9483,7.2001],[-72.9504,7.2001],[-72.9504,7.2015],[-72.9518,7.2008],[-72.9511,7.1961],[-72.947,7.1954],[-72.9463,7.1994],[-72.9443,7.1994],[-72.9449,7.1974],[-72.9436,7.1974],[-72.9436,7.1954],[-72.9449,7.1954],[-72.9449,7.1933],[-72.9477,7.194],[-72.947,7.1913],[-72.9443,7.1906],[-72.9443,7.1893],[-72.9422,7.19],[-72.9415,7.1879],[-72.9395,7.1872],[-72.9402,7.19],[-72.9422,7.1913],[-72.9415,7.1927],[-72.9388,7.1886],[-72.9361,7.1893],[-72.9347,7.1879],[-72.9347,7.1866],[-72.9381,7.1872],[-72.9388,7.1852],[-72.9402,7.1852],[-72.9402,7.1866],[-72.9456,7.1886],[-72.9443,7.1879],[-72.9456,7.1872],[-72.9449,7.1852],[-72.9422,7.1866],[-72.9422,7.1845],[-72.9408,7.1839],[-72.9443,7.1839],[-72.9436,7.1805],[-72.9463,7.1805],[-72.9436,7.1771],[-72.947,7.1784],[-72.947,7.1751],[-72.949,7.1757],[-72.949,7.1744],[-72.9511,7.1744],[-72.9449,7.1723],[-72.9463,7.1717],[-72.9456,7.1683],[-72.947,7.1683]]],[[[-72.9743,7.1608],[-72.9763,7.1642],[-72.9784,7.1649],[-72.9777,7.1669],[-72.9743,7.1669],[-72.977,7.1744],[-72.9763,7.1771],[-72.9777,7.1771],[-72.9811,7.1825],[-72.977,7.1825],[-72.9736,7.1778],[-72.9709,7.1778],[-72.9716,7.1805],[-72.9702,7.1825],[-72.9716,7.1832],[-72.9681,7.1839],[-72.9695,7.1805],[-72.9654,7.1757],[-72.9681,7.1751],[-72.9695,7.171],[-72.9722,7.171],[-72.9681,7.1622],[-72.9743,7.1608]]],[[[-73.1648,7.1419],[-73.1655,7.1432],[-73.1627,7.1425],[-73.1648,7.1419]]],[[[-73.1586,7.1392],[-73.1593,7.1412],[-73.1627,7.1412],[-73.1614,7.1432],[-73.1655,7.1452],[-73.1655,7.1466],[-73.1627,7.1466],[-73.1648,7.1493],[-73.1627,7.1507],[-73.1614,7.1541],[-73.1586,7.1554],[-73.1614,7.1581],[-73.1573,7.1581],[-73.1566,7.1595],[-73.1566,7.1608],[-73.1586,7.1608],[-73.1593,7.1622],[-73.1579,7.1656],[-73.1559,7.1656],[-73.1559,7.1642],[-73.1518,7.1622],[-73.1525,7.1669],[-73.1484,7.1683],[-73.147,7.1662],[-73.1498,7.1642],[-73.1491,7.1615],[-73.1545,7.1615],[-73.1552,7.1595],[-73.1538,7.1574],[-73.1566,7.1568],[-73.1532,7.1547],[-73.1566,7.1541],[-73.1552,7.1513],[-73.1586,7.1466],[-73.1607,7.1459],[-73.1607,7.1439],[-73.1593,7.1439],[-73.1566,7.1398],[-73.1586,7.1392]]],[[[-73.3696,7.1364],[-73.3703,7.1412],[-73.3669,7.1473],[-73.3669,7.1513],[-73.3607,7.1466],[-73.3587,7.1466],[-73.3539,7.1473],[-73.3539,7.15],[-73.3498,7.15],[-73.3491,7.1527],[-73.3471,7.1527],[-73.3471,7.1547],[-73.3518,7.1547],[-73.3477,7.1554],[-73.3464,7.1581],[-73.3471,7.1629],[-73.3525,7.1629],[-73.3436,7.1635],[-73.3443,7.1662],[-73.3471,7.1662],[-73.3471,7.1683],[-73.343,7.1696],[-73.3436,7.173],[-73.3416,7.173],[-73.343,7.1737],[-73.343,7.1771],[-73.3409,7.1771],[-73.3409,7.1751],[-73.3382,7.173],[-73.3368,7.1744],[-73.3334,7.1737],[-73.332,7.1757],[-73.3293,7.1757],[-73.33,7.1717],[-73.3279,7.1717],[-73.3279,7.1683],[-73.3245,7.1649],[-73.3252,7.1615],[-73.3279,7.1629],[-73.3259,7.1656],[-73.3266,7.1669],[-73.3327,7.1649],[-73.3334,7.1622],[-73.3382,7.1635],[-73.3382,7.1615],[-73.3361,7.1615],[-73.3361,7.1601],[-73.3395,7.1595],[-73.3395,7.1574],[-73.3416,7.1554],[-73.3402,7.1547],[-73.3409,7.1534],[-73.343,7.1547],[-73.345,7.1541],[-73.345,7.1507],[-73.3423,7.1493],[-73.3443,7.148],[-73.345,7.1439],[-73.3471,7.1412],[-73.3532,7.1412],[-73.3539,7.1398],[-73.3552,7.1452],[-73.3587,7.1432],[-73.36,7.1385],[-73.3634,7.1412],[-73.3662,7.1405],[-73.3675,7.1364],[-73.3696,7.1364]]],[[[-73.1784,7.1121],[-73.1771,7.1161],[-73.1736,7.1154],[-73.173,7.1175],[-73.1777,7.1181],[-73.1812,7.1161],[-73.1866,7.1276],[-73.1887,7.1358],[-73.1853,7.1364],[-73.1866,7.1331],[-73.1825,7.1297],[-73.1818,7.1317],[-73.1743,7.1324],[-73.1736,7.1337],[-73.1689,7.1317],[-73.1655,7.1324],[-73.1648,7.1303],[-73.1586,7.131],[-73.1627,7.1242],[-73.162,7.1202],[-73.1661,7.1175],[-73.1648,7.1161],[-73.1655,7.1134],[-73.1695,7.1148],[-73.1723,7.1127],[-73.1757,7.1134],[-73.1784,7.1121]]],[[[-73.1736,7.1215],[-73.1723,7.1229],[-73.173,7.1249],[-73.1791,7.1242],[-73.1805,7.1263],[-73.1832,7.1256],[-73.1825,7.1236],[-73.1825,7.1256],[-73.1812,7.1256],[-73.1812,7.1242],[-73.1798,7.1249],[-73.1798,7.1229],[-73.1757,7.1236],[-73.1736,7.1215]]],[[[-73.3307,7.0897],[-73.3314,7.0924],[-73.33,7.0958],[-73.3334,7.0971],[-73.3327,7.1012],[-73.3355,7.1019],[-73.3382,7.1005],[-73.3389,7.108],[-73.3416,7.11],[-73.3436,7.1141],[-73.3471,7.1141],[-73.3471,7.1168],[-73.3491,7.1175],[-73.3484,7.1195],[-73.3525,7.1209],[-73.3505,7.1236],[-73.3552,7.1276],[-73.3546,7.1324],[-73.3573,7.1337],[-73.358,7.1364],[-73.3559,7.1378],[-73.3559,7.1398],[-73.3539,7.1398],[-73.3546,7.1344],[-73.3512,7.1324],[-73.3512,7.1303],[-73.3498,7.1303],[-73.3498,7.1324],[-73.3477,7.1344],[-73.3416,7.1263],[-73.3355,7.1256],[-73.3375,7.1297],[-73.3355,7.1303],[-73.3348,7.1337],[-73.3368,7.1358],[-73.3395,7.1358],[-73.3409,7.1337],[-73.3382,7.1317],[-73.3402,7.1324],[-73.343,7.131],[-73.345,7.1344],[-73.3423,7.1351],[-73.3443,7.1378],[-73.3464,7.1378],[-73.343,7.1446],[-73.3395,7.1446],[-73.3327,7.1405],[-73.3279,7.1337],[-73.3259,7.1337],[-73.3218,7.1263],[-73.3191,7.1276],[-73.3204,7.1317],[-73.3184,7.1324],[-73.3184,7.1344],[-73.3225,7.1358],[-73.3266,7.1412],[-73.3211,7.1392],[-73.3177,7.1412],[-73.317,7.1432],[-73.3143,7.1419],[-73.3136,7.1439],[-73.3109,7.1432],[-73.3116,7.1459],[-73.3136,7.1459],[-73.3136,7.1493],[-73.3088,7.1507],[-73.3088,7.152],[-73.3116,7.152],[-73.3068,7.1561],[-73.3088,7.1601],[-73.3068,7.1608],[-73.3068,7.1595],[-73.3054,7.1595],[-73.304,7.1629],[-73.3013,7.1642],[-73.302,7.1669],[-73.2986,7.1669],[-73.2993,7.1696],[-73.2959,7.1757],[-73.2959,7.1791],[-73.2938,7.1791],[-73.2918,7.1818],[-73.2931,7.1893],[-73.2904,7.1927],[-73.2904,7.1954],[-73.2952,7.1947],[-73.2965,7.192],[-73.2999,7.19],[-73.2979,7.1927],[-73.3006,7.1933],[-73.3006,7.1947],[-73.2965,7.1954],[-73.2972,7.1967],[-73.2952,7.1981],[-73.2952,7.2001],[-73.2999,7.2015],[-73.2993,7.2049],[-73.2938,7.2042],[-73.2897,7.1988],[-73.287,7.1988],[-73.2856,7.2028],[-73.287,7.2042],[-73.2856,7.2049],[-73.2842,7.2103],[-73.2842,7.217],[-73.2815,7.2204],[-73.2815,7.2231],[-73.2808,7.2198],[-73.2836,7.215],[-73.2781,7.2177],[-73.2795,7.2204],[-73.2767,7.2218],[-73.2747,7.2191],[-73.2747,7.2164],[-73.2726,7.2157],[-73.2726,7.2143],[-73.2726,7.2164],[-73.2713,7.2157],[-73.272,7.213],[-73.2706,7.2082],[-73.2692,7.2096],[-73.2699,7.215],[-73.2644,7.2177],[-73.2651,7.2198],[-73.2692,7.2204],[-73.2692,7.2225],[-73.2672,7.2238],[-73.2692,7.2286],[-73.2685,7.2319],[-73.2658,7.2333],[-73.2665,7.2353],[-73.2651,7.2353],[-73.2644,7.2326],[-73.2617,7.2313],[-73.2638,7.2306],[-73.2638,7.2286],[-73.261,7.2265],[-73.2604,7.234],[-73.2563,7.2408],[-73.2563,7.2421],[-73.2597,7.2414],[-73.2583,7.2441],[-73.2597,7.2489],[-73.2549,7.2563],[-73.2569,7.2665],[-73.2542,7.2685],[-73.2569,7.2685],[-73.2569,7.2712],[-73.2522,7.2706],[-73.2528,7.2672],[-73.2501,7.259],[-73.2487,7.2577],[-73.246,7.2584],[-73.2433,7.2631],[-73.2446,7.2665],[-73.2426,7.2685],[-73.244,7.2692],[-73.244,7.2712],[-73.2371,7.2733],[-73.2371,7.2746],[-73.2426,7.2746],[-73.2433,7.2787],[-73.2406,7.2787],[-73.2385,7.2807],[-73.2351,7.28],[-73.2358,7.2773],[-73.231,7.2719],[-73.233,7.2658],[-73.2317,7.2638],[-73.2324,7.2516],[-73.2358,7.2482],[-73.2351,7.2455],[-73.2317,7.2448],[-73.2324,7.2421],[-73.2303,7.2428],[-73.2303,7.2462],[-73.2289,7.2455],[-73.2269,7.2482],[-73.2248,7.2482],[-73.2228,7.2502],[-73.2194,7.2475],[-73.2187,7.2496],[-73.2064,7.2523],[-73.2057,7.2489],[-73.2044,7.2489],[-73.203,7.2502],[-73.2044,7.2563],[-73.2119,7.2523],[-73.2153,7.2536],[-73.2153,7.2563],[-73.2126,7.2563],[-73.2126,7.2597],[-73.2085,7.2597],[-73.2078,7.2577],[-73.2016,7.2577],[-73.2003,7.2617],[-73.2051,7.2624],[-73.2051,7.2651],[-73.1996,7.2645],[-73.1996,7.2624],[-73.1941,7.2624],[-73.1934,7.2604],[-73.1955,7.2604],[-73.1941,7.257],[-73.1982,7.257],[-73.1989,7.2516],[-73.2003,7.2516],[-73.1996,7.2577],[-73.2023,7.255],[-73.2023,7.2516],[-73.1989,7.2482],[-73.2051,7.2475],[-73.2064,7.2496],[-73.2085,7.2482],[-73.2085,7.2448],[-73.2044,7.2435],[-73.2044,7.2408],[-73.2098,7.2414],[-73.2091,7.2394],[-73.2126,7.2367],[-73.2037,7.2374],[-73.2051,7.236],[-73.2037,7.234],[-73.2071,7.2347],[-73.2071,7.2306],[-73.2112,7.2326],[-73.2112,7.2306],[-73.2132,7.2299],[-73.2126,7.2319],[-73.2139,7.2319],[-73.2146,7.2259],[-73.2167,7.2252],[-73.2208,7.2272],[-73.2228,7.2252],[-73.2269,7.2259],[-73.2262,7.2238],[-73.2276,7.2231],[-73.2303,7.2245],[-73.2303,7.2265],[-73.2324,7.2252],[-73.2296,7.2211],[-73.2283,7.2211],[-73.2276,7.2184],[-73.2228,7.2177],[-73.2255,7.2123],[-73.2201,7.2123],[-73.2187,7.211],[-73.2187,7.2076],[-73.2228,7.2055],[-73.2228,7.2035],[-73.2201,7.2035],[-73.2208,7.1994],[-73.2187,7.1974],[-73.2201,7.1961],[-73.2167,7.1954],[-73.2173,7.1933],[-73.2208,7.1913],[-73.2194,7.1906],[-73.2194,7.1886],[-73.2173,7.1886],[-73.2167,7.1906],[-73.2132,7.19],[-73.2112,7.1818],[-73.2153,7.1805],[-73.2173,7.1852],[-73.2201,7.1744],[-73.2221,7.173],[-73.2296,7.1744],[-73.231,7.1703],[-73.2303,7.1649],[-73.233,7.1615],[-73.2358,7.1601],[-73.2378,7.1608],[-73.2378,7.1642],[-73.2337,7.1649],[-73.2337,7.1669],[-73.2365,7.1683],[-73.2351,7.1703],[-73.2351,7.173],[-73.2365,7.1737],[-73.2344,7.1771],[-73.2324,7.1764],[-73.2317,7.1784],[-73.2262,7.1805],[-73.2248,7.1839],[-73.2221,7.1832],[-73.2214,7.1859],[-73.2248,7.1879],[-73.2262,7.1852],[-73.2283,7.1845],[-73.2296,7.1859],[-73.2296,7.1906],[-73.2324,7.1879],[-73.2358,7.1886],[-73.2412,7.1852],[-73.2412,7.1872],[-73.2378,7.1879],[-73.2365,7.1913],[-73.233,7.19],[-73.2296,7.1927],[-73.231,7.1967],[-73.2344,7.1994],[-73.2344,7.2015],[-73.233,7.2015],[-73.2337,7.2055],[-73.2303,7.2076],[-73.2344,7.2096],[-73.2344,7.211],[-73.2317,7.211],[-73.233,7.2137],[-73.2303,7.2143],[-73.2296,7.2164],[-73.2324,7.2164],[-73.2365,7.2137],[-73.231,7.2204],[-73.2392,7.2211],[-73.233,7.2292],[-73.2378,7.2272],[-73.2399,7.2306],[-73.2467,7.2319],[-73.2474,7.2306],[-73.2433,7.2306],[-73.2433,7.2292],[-73.2419,7.2292],[-73.2399,7.2238],[-73.2426,7.2184],[-73.2494,7.2191],[-73.2494,7.2231],[-73.2508,7.2245],[-73.2542,7.2231],[-73.2549,7.2204],[-73.2535,7.2198],[-73.2535,7.2177],[-73.2569,7.215],[-73.2563,7.211],[-73.2576,7.2096],[-73.259,7.1906],[-73.2604,7.1886],[-73.2638,7.1866],[-73.2651,7.1839],[-73.2658,7.1845],[-73.2665,7.1893],[-73.2617,7.1974],[-73.2617,7.2008],[-73.2631,7.1961],[-73.2658,7.1961],[-73.2699,7.19],[-73.2713,7.1913],[-73.2699,7.1967],[-73.272,7.1961],[-73.2733,7.1974],[-73.2747,7.1954],[-73.2788,7.1818],[-73.2781,7.1832],[-73.2747,7.1818],[-73.272,7.1839],[-73.2726,7.1798],[-73.2713,7.1784],[-73.274,7.1751],[-73.2761,7.1757],[-73.2761,7.1771],[-73.2802,7.1778],[-73.2822,7.1703],[-73.2849,7.1676],[-73.2822,7.1615],[-73.2836,7.1595],[-73.2822,7.1547],[-73.2856,7.1513],[-73.2877,7.1534],[-73.289,7.1493],[-73.2883,7.1459],[-73.2931,7.1412],[-73.2945,7.1364],[-73.2959,7.1364],[-73.3013,7.1297],[-73.3006,7.1276],[-73.2972,7.129],[-73.2945,7.1276],[-73.2959,7.1256],[-73.2938,7.1263],[-73.2904,7.1242],[-73.2931,7.1181],[-73.2965,7.1161],[-73.2993,7.1107],[-73.2999,7.106],[-73.3034,7.1066],[-73.3068,7.1026],[-73.3102,7.1032],[-73.3129,7.1012],[-73.3163,7.1012],[-73.3177,7.1046],[-73.3197,7.1046],[-73.3191,7.1032],[-73.3211,7.0992],[-73.3232,7.0985],[-73.3266,7.0938],[-73.3286,7.0944],[-73.3286,7.0911],[-73.3307,7.0897]]],[[[-73.2706,7.1981],[-73.2685,7.1994],[-73.2679,7.2055],[-73.2658,7.2089],[-73.2706,7.2035],[-73.2706,7.1981]]],[[[-73.2651,7.2096],[-73.2631,7.2096],[-73.2624,7.2116],[-73.2651,7.2096]]],[[[-73.2481,7.236],[-73.2474,7.2367],[-73.2494,7.2387],[-73.2481,7.236]]],[[[-73.2501,7.2489],[-73.2501,7.2523],[-73.2481,7.2529],[-73.2487,7.2563],[-73.2501,7.2563],[-73.2494,7.2543],[-73.2508,7.2529],[-73.2501,7.2489]]],[[[-73.1702,7.0836],[-73.1675,7.0911],[-73.1661,7.0911],[-73.1661,7.1005],[-73.1634,7.1032],[-73.1614,7.1107],[-73.16,7.1107],[-73.16,7.1127],[-73.1579,7.1134],[-73.1573,7.1154],[-73.16,7.1168],[-73.1566,7.1229],[-73.1579,7.1256],[-73.1573,7.1297],[-73.1545,7.1324],[-73.1538,7.1371],[-73.1504,7.1371],[-73.1525,7.1392],[-73.1511,7.1513],[-73.145,7.1547],[-73.1436,7.1588],[-73.1416,7.1574],[-73.1395,7.1601],[-73.1381,7.1588],[-73.1388,7.1547],[-73.1368,7.1541],[-73.1368,7.1507],[-73.1375,7.1493],[-73.1409,7.1507],[-73.1422,7.1486],[-73.1402,7.1486],[-73.1416,7.1473],[-73.1361,7.148],[-73.1334,7.1466],[-73.134,7.1452],[-73.1375,7.1452],[-73.1354,7.1385],[-73.132,7.1371],[-73.1313,7.1337],[-73.1354,7.1337],[-73.1368,7.1324],[-73.1354,7.1317],[-73.1354,7.1297],[-73.1327,7.1297],[-73.1313,7.127],[-73.134,7.1256],[-73.1354,7.127],[-73.1395,7.127],[-73.1388,7.1256],[-73.1361,7.1263],[-73.1347,7.1242],[-73.1409,7.1229],[-73.1416,7.1202],[-73.147,7.1168],[-73.1375,7.1209],[-73.1361,7.1188],[-73.1388,7.1175],[-73.1388,7.1161],[-73.1422,7.1161],[-73.1422,7.1134],[-73.1416,7.1154],[-73.1388,7.1141],[-73.1388,7.1154],[-73.1327,7.1202],[-73.1313,7.1202],[-73.1313,7.1188],[-73.1347,7.1148],[-73.1375,7.1141],[-73.1375,7.1127],[-73.1443,7.1087],[-73.1436,7.1066],[-73.1436,7.108],[-73.1402,7.1093],[-73.1388,7.1114],[-73.1327,7.1127],[-73.134,7.11],[-73.1368,7.11],[-73.1388,7.1066],[-73.1416,7.106],[-73.1422,7.1026],[-73.145,7.0992],[-73.1409,7.1019],[-73.1388,7.1012],[-73.1354,7.1073],[-73.13,7.1121],[-73.1231,7.1121],[-73.1259,7.1093],[-73.1286,7.1087],[-73.1286,7.1073],[-73.1265,7.1073],[-73.1245,7.1093],[-73.1204,7.1087],[-73.1259,7.1053],[-73.1293,7.106],[-73.1327,7.1046],[-73.1313,7.1032],[-73.1334,7.1019],[-73.1334,7.0971],[-73.1347,7.0958],[-73.1388,7.0965],[-73.1463,7.0897],[-73.1463,7.0883],[-73.145,7.0883],[-73.1422,7.0911],[-73.1416,7.0938],[-73.1388,7.0951],[-73.1354,7.0938],[-73.1327,7.0965],[-73.1313,7.0958],[-73.1313,7.0985],[-73.13,7.0985],[-73.1293,7.0971],[-73.134,7.0938],[-73.134,7.0924],[-73.1381,7.0924],[-73.1388,7.089],[-73.1334,7.0917],[-73.1347,7.089],[-73.1381,7.087],[-73.1552,7.0843],[-73.1586,7.0863],[-73.1641,7.0856],[-73.1668,7.0877],[-73.1689,7.0836],[-73.1702,7.0836]]],[[[-73.1853,7.0789],[-73.1914,7.0829],[-73.1914,7.0843],[-73.1873,7.0843],[-73.1873,7.087],[-73.1893,7.087],[-73.188,7.089],[-73.1887,7.0958],[-73.1873,7.0978],[-73.1853,7.0971],[-73.1846,7.1019],[-73.1825,7.1026],[-73.1825,7.1046],[-73.1777,7.1039],[-73.1791,7.11],[-73.1771,7.1093],[-73.1771,7.1114],[-73.1757,7.1114],[-73.1743,7.1093],[-73.1757,7.1087],[-73.1771,7.0999],[-73.1784,7.0999],[-73.1791,7.0971],[-73.1818,7.0985],[-73.1798,7.0958],[-73.1777,7.0958],[-73.1764,7.0931],[-73.1825,7.0917],[-73.1825,7.0897],[-73.1805,7.0917],[-73.1798,7.0897],[-73.1777,7.0897],[-73.1784,7.0883],[-73.1757,7.089],[-73.1743,7.087],[-73.1764,7.0863],[-73.1812,7.089],[-73.1818,7.085],[-73.1853,7.0856],[-73.1853,7.0843],[-73.1832,7.0843],[-73.1846,7.0836],[-73.1832,7.0829],[-73.1846,7.0809],[-73.1839,7.0795],[-73.1853,7.0789]]],[[[-73.2044,7.0484],[-73.2085,7.0524],[-73.2037,7.0518],[-73.2044,7.0545],[-73.2064,7.0538],[-73.2064,7.0565],[-73.2098,7.0558],[-73.2091,7.0572],[-73.2057,7.0572],[-73.2044,7.0599],[-73.2071,7.0619],[-73.2085,7.0592],[-73.2105,7.0592],[-73.2112,7.0619],[-73.2105,7.0633],[-73.2064,7.0626],[-73.2057,7.066],[-73.2023,7.0646],[-73.1996,7.0653],[-73.1996,7.0667],[-73.2023,7.0673],[-73.201,7.0687],[-73.2016,7.07],[-73.2044,7.0673],[-73.2071,7.0687],[-73.2071,7.07],[-73.2044,7.0694],[-73.1989,7.0728],[-73.201,7.0741],[-73.201,7.0768],[-73.203,7.0768],[-73.1996,7.0795],[-73.2016,7.0795],[-73.2044,7.0761],[-73.2057,7.0761],[-73.2044,7.0795],[-73.2078,7.0789],[-73.2085,7.0782],[-73.2071,7.0775],[-73.2085,7.0768],[-73.2112,7.0775],[-73.2126,7.0789],[-73.2119,7.0802],[-73.2071,7.0829],[-73.203,7.0829],[-73.203,7.085],[-73.2132,7.0856],[-73.2153,7.089],[-73.2132,7.089],[-73.2132,7.0904],[-73.2112,7.0911],[-73.2139,7.0944],[-73.2112,7.0944],[-73.2105,7.0924],[-73.2091,7.0924],[-73.2098,7.0951],[-73.2064,7.0924],[-73.2044,7.0931],[-73.2051,7.0965],[-73.2037,7.0992],[-73.2051,7.0985],[-73.2051,7.0999],[-73.203,7.1019],[-73.203,7.1032],[-73.2044,7.1032],[-73.2037,7.1053],[-73.2003,7.1032],[-73.1921,7.1032],[-73.1893,7.1012],[-73.1893,7.0999],[-73.1907,7.0999],[-73.19,7.0944],[-73.1928,7.0944],[-73.1975,7.0999],[-73.1996,7.0985],[-73.1975,7.0978],[-73.1921,7.0911],[-73.1941,7.0904],[-73.1975,7.0917],[-73.1996,7.0965],[-73.2003,7.0944],[-73.1982,7.0897],[-73.1948,7.0897],[-73.1969,7.089],[-73.1955,7.0863],[-73.1989,7.0863],[-73.2003,7.0843],[-73.1948,7.0795],[-73.1948,7.0734],[-73.1866,7.0721],[-73.19,7.0707],[-73.1948,7.0714],[-73.1955,7.066],[-73.1975,7.0646],[-73.1975,7.0545],[-73.1989,7.0545],[-73.1969,7.0531],[-73.201,7.0511],[-73.201,7.0484],[-73.2044,7.0484]]],[[[-73.0876,7.0443],[-73.0869,7.0463],[-73.0856,7.0457],[-73.0876,7.0443]]],[[[-73.0828,7.0396],[-73.0842,7.0416],[-73.0835,7.0457],[-73.0856,7.049],[-73.0876,7.049],[-73.089,7.0463],[-73.0904,7.047],[-73.0931,7.0436],[-73.0979,7.0457],[-73.0965,7.0463],[-73.0972,7.049],[-73.0951,7.0524],[-73.0979,7.0558],[-73.0979,7.0579],[-73.0972,7.0592],[-73.0945,7.0592],[-73.0945,7.0633],[-73.0897,7.0612],[-73.089,7.0585],[-73.0924,7.0579],[-73.091,7.0565],[-73.0883,7.0572],[-73.0883,7.0545],[-73.0863,7.0558],[-73.0869,7.0585],[-73.0842,7.0579],[-73.0835,7.0531],[-73.0856,7.0538],[-73.0856,7.0504],[-73.0842,7.0504],[-73.0835,7.0484],[-73.0808,7.0504],[-73.0794,7.0484],[-73.0794,7.0436],[-73.0808,7.0429],[-73.0808,7.0402],[-73.0828,7.0396]]],[[[-73.0521,7.0219],[-73.0555,7.028],[-73.0589,7.0267],[-73.0603,7.0287],[-73.0589,7.0321],[-73.061,7.0314],[-73.061,7.0341],[-73.063,7.0335],[-73.0617,7.0348],[-73.0617,7.0362],[-73.063,7.0362],[-73.0624,7.0396],[-73.0678,7.0416],[-73.0665,7.0443],[-73.0767,7.0477],[-73.0753,7.0531],[-73.0815,7.0531],[-73.0808,7.0565],[-73.0781,7.0551],[-73.076,7.0579],[-73.0774,7.0599],[-73.0815,7.0585],[-73.0801,7.0606],[-73.0767,7.0612],[-73.076,7.0687],[-73.0774,7.0667],[-73.0815,7.066],[-73.0815,7.0646],[-73.0869,7.0667],[-73.0904,7.0646],[-73.0904,7.0687],[-73.0958,7.07],[-73.0917,7.07],[-73.0904,7.0728],[-73.0876,7.0714],[-73.0849,7.0775],[-73.0828,7.0782],[-73.0828,7.0802],[-73.0808,7.0795],[-73.0801,7.0741],[-73.0815,7.0714],[-73.0883,7.0687],[-73.0822,7.066],[-73.0794,7.068],[-73.0808,7.0687],[-73.0787,7.0714],[-73.0767,7.0714],[-73.0787,7.0741],[-73.0787,7.0843],[-73.0808,7.0856],[-73.0808,7.089],[-73.0822,7.0863],[-73.0842,7.0883],[-73.0822,7.089],[-73.0815,7.0924],[-73.0842,7.0931],[-73.0842,7.0971],[-73.0856,7.0978],[-73.0815,7.1012],[-73.0815,7.1026],[-73.0801,7.1019],[-73.0794,7.1039],[-73.0835,7.1053],[-73.0849,7.1012],[-73.0869,7.1012],[-73.0863,7.0978],[-73.089,7.0971],[-73.089,7.1019],[-73.0863,7.1032],[-73.0863,7.1053],[-73.0897,7.1053],[-73.0904,7.1087],[-73.0938,7.1093],[-73.0945,7.1127],[-73.0917,7.1141],[-73.091,7.1161],[-73.0951,7.1202],[-73.0938,7.127],[-73.0897,7.1256],[-73.0869,7.1256],[-73.0869,7.127],[-73.0979,7.1303],[-73.0979,7.1317],[-73.0958,7.1317],[-73.0938,7.1337],[-73.0965,7.1337],[-73.0965,7.1358],[-73.0985,7.1344],[-73.1006,7.1358],[-73.1081,7.1324],[-73.1081,7.1364],[-73.1102,7.1385],[-73.1136,7.1392],[-73.1163,7.1419],[-73.1224,7.1425],[-73.1224,7.1493],[-73.1149,7.1473],[-73.1136,7.1534],[-73.1156,7.1547],[-73.1156,7.1507],[-73.1177,7.1507],[-73.1177,7.1534],[-73.1197,7.1561],[-73.1252,7.1574],[-73.1252,7.171],[-73.1231,7.171],[-73.1238,7.1744],[-73.1218,7.1771],[-73.1224,7.1798],[-73.1245,7.1811],[-73.119,7.1825],[-73.1204,7.1839],[-73.1238,7.1832],[-73.1245,7.1845],[-73.1238,7.1866],[-73.119,7.1866],[-73.1183,7.1886],[-73.1211,7.1906],[-73.1252,7.1879],[-73.1279,7.1879],[-73.1286,7.192],[-73.1224,7.1961],[-73.1272,7.194],[-73.1293,7.1947],[-73.1231,7.1994],[-73.1252,7.2049],[-73.1224,7.2069],[-73.1231,7.2096],[-73.1218,7.213],[-73.119,7.2143],[-73.1183,7.217],[-73.1129,7.2191],[-73.1122,7.2177],[-73.1102,7.2177],[-73.1081,7.2204],[-73.1013,7.2204],[-73.0972,7.2225],[-73.0938,7.2225],[-73.0951,7.2238],[-73.0951,7.2279],[-73.091,7.2265],[-73.091,7.2245],[-73.089,7.2245],[-73.0876,7.2265],[-73.0876,7.2279],[-73.091,7.2279],[-73.0917,7.2292],[-73.0876,7.2313],[-73.0869,7.2421],[-73.0897,7.2353],[-73.0951,7.2306],[-73.0972,7.2259],[-73.1047,7.2265],[-73.1013,7.2279],[-73.0985,7.2319],[-73.0992,7.2333],[-73.1013,7.2333],[-73.1033,7.2279],[-73.1047,7.2279],[-73.1061,7.2333],[-73.1081,7.2333],[-73.1067,7.2435],[-73.104,7.2448],[-73.1033,7.2482],[-73.102,7.2482],[-73.1013,7.2462],[-73.0999,7.2489],[-73.0985,7.2482],[-73.0999,7.2502],[-73.0992,7.2516],[-73.0958,7.2516],[-73.0965,7.2496],[-73.0945,7.2496],[-73.0924,7.2536],[-73.0931,7.2557],[-73.0828,7.2611],[-73.0828,7.2557],[-73.0815,7.2543],[-73.0828,7.2516],[-73.0794,7.2496],[-73.0808,7.2441],[-73.0787,7.2421],[-73.0828,7.2401],[-73.0842,7.2374],[-73.0835,7.2347],[-73.0801,7.2353],[-73.0801,7.2394],[-73.0767,7.2374],[-73.0733,7.238],[-73.0726,7.2408],[-73.0781,7.2428],[-73.0753,7.2462],[-73.0726,7.2441],[-73.063,7.2448],[-73.063,7.2414],[-73.0658,7.2421],[-73.0685,7.2401],[-73.0665,7.2374],[-73.0712,7.2374],[-73.0719,7.2347],[-73.0692,7.2333],[-73.0671,7.2286],[-73.0644,7.2292],[-73.0644,7.2306],[-73.0624,7.2299],[-73.0617,7.2252],[-73.063,7.2245],[-73.063,7.2218],[-73.0617,7.2164],[-73.0678,7.2157],[-73.0685,7.2137],[-73.0726,7.2143],[-73.0699,7.2116],[-73.0699,7.2076],[-73.0842,7.2103],[-73.0849,7.2021],[-73.0808,7.2015],[-73.0794,7.1988],[-73.0897,7.1994],[-73.0945,7.2028],[-73.0924,7.1974],[-73.0883,7.1967],[-73.0876,7.1933],[-73.089,7.1933],[-73.089,7.192],[-73.0863,7.1906],[-73.0869,7.1879],[-73.0904,7.1879],[-73.0951,7.1933],[-73.0985,7.194],[-73.0992,7.1872],[-73.0958,7.1886],[-73.0924,7.1859],[-73.0917,7.1825],[-73.091,7.1845],[-73.0897,7.1839],[-73.0917,7.1805],[-73.0897,7.1798],[-73.0897,7.1778],[-73.0931,7.1717],[-73.0945,7.1635],[-73.0972,7.1615],[-73.0979,7.1581],[-73.0938,7.1588],[-73.0917,7.1608],[-73.0917,7.1642],[-73.0883,7.1662],[-73.0917,7.1683],[-73.0883,7.1683],[-73.0897,7.171],[-73.091,7.1703],[-73.091,7.1737],[-73.0863,7.1723],[-73.0849,7.1751],[-73.089,7.1751],[-73.0835,7.1764],[-73.0835,7.1784],[-73.0869,7.1784],[-73.0835,7.1811],[-73.0869,7.1839],[-73.0842,7.1839],[-73.0828,7.1818],[-73.0794,7.1825],[-73.0835,7.1872],[-73.0815,7.1872],[-73.0787,7.1845],[-73.0781,7.1886],[-73.0747,7.1927],[-73.0747,7.1981],[-73.0726,7.1981],[-73.0726,7.2001],[-73.0671,7.2008],[-73.0685,7.2049],[-73.0658,7.2049],[-73.0658,7.2076],[-73.0637,7.2096],[-73.0637,7.2143],[-73.0589,7.215],[-73.0569,7.217],[-73.0562,7.2313],[-73.0528,7.2394],[-73.0535,7.2408],[-73.0549,7.2408],[-73.0549,7.2394],[-73.0562,7.2401],[-73.0562,7.2435],[-73.0589,7.2435],[-73.0596,7.2475],[-73.0624,7.2468],[-73.0617,7.2509],[-73.0589,7.2543],[-73.0596,7.2617],[-73.0576,7.2706],[-73.0549,7.2719],[-73.0508,7.2773],[-73.0473,7.2787],[-73.0473,7.2766],[-73.0514,7.2753],[-73.0528,7.2699],[-73.0501,7.2699],[-73.0487,7.2685],[-73.0494,7.2672],[-73.0473,7.2665],[-73.046,7.2692],[-73.0446,7.2692],[-73.0432,7.2672],[-73.0398,7.2685],[-73.0392,7.2665],[-73.0405,7.2651],[-73.0385,7.2651],[-73.0364,7.2672],[-73.0337,7.2651],[-73.0337,7.2678],[-73.0392,7.2685],[-73.0385,7.2712],[-73.0405,7.2733],[-73.0378,7.2753],[-73.0405,7.276],[-73.031,7.278],[-73.031,7.2766],[-73.0282,7.276],[-73.0282,7.2712],[-73.0262,7.2706],[-73.0282,7.2658],[-73.0241,7.2651],[-73.0241,7.2699],[-73.0228,7.2719],[-73.0282,7.2807],[-73.0194,7.2807],[-73.0125,7.278],[-73.0071,7.278],[-73.0016,7.2794],[-72.9982,7.2834],[-72.992,7.2868],[-72.9811,7.2888],[-72.9757,7.2787],[-72.9777,7.2787],[-72.9818,7.2746],[-72.9825,7.278],[-72.9804,7.2868],[-72.9838,7.2841],[-72.9886,7.2848],[-72.9886,7.2827],[-72.992,7.2794],[-72.9838,7.278],[-72.9859,7.2766],[-72.9845,7.2753],[-72.9873,7.2733],[-72.9811,7.2706],[-72.9825,7.2685],[-72.9866,7.2678],[-72.9825,7.2706],[-72.9866,7.2706],[-72.9886,7.2685],[-72.9879,7.2665],[-72.9907,7.2645],[-72.9893,7.2611],[-72.9914,7.2604],[-72.9934,7.2617],[-72.9927,7.2645],[-72.9955,7.2651],[-72.9955,7.2678],[-72.9982,7.2658],[-72.9989,7.2678],[-72.9961,7.2699],[-72.9982,7.2699],[-72.9989,7.2678],[-73.003,7.2665],[-73.0043,7.2631],[-73.0057,7.2631],[-73.0057,7.2604],[-73.0016,7.2611],[-72.9975,7.2577],[-72.9975,7.2563],[-72.9907,7.2563],[-72.9886,7.2577],[-72.9879,7.2604],[-72.9845,7.2624],[-72.9838,7.2611],[-72.9873,7.259],[-72.9886,7.2563],[-72.9852,7.255],[-72.9873,7.2536],[-72.9866,7.2523],[-72.9879,7.2523],[-72.9879,7.2489],[-72.9941,7.2516],[-72.9941,7.2475],[-72.9961,7.2482],[-72.9989,7.2462],[-72.9996,7.2475],[-72.9975,7.2475],[-72.9968,7.2496],[-73.0009,7.2475],[-73.0023,7.2475],[-73.0009,7.2496],[-73.0043,7.2496],[-73.005,7.2475],[-73.0077,7.2462],[-73.0064,7.2455],[-73.0064,7.2421],[-73.0084,7.2408],[-73.0132,7.2462],[-73.0112,7.2482],[-73.0112,7.2557],[-73.0153,7.2563],[-73.0153,7.255],[-73.0173,7.2543],[-73.0166,7.2516],[-73.018,7.2516],[-73.018,7.2496],[-73.0153,7.2496],[-73.0139,7.2421],[-73.0248,7.2435],[-73.0269,7.2414],[-73.0289,7.2414],[-73.0316,7.2428],[-73.0323,7.2455],[-73.0282,7.2475],[-73.0282,7.2502],[-73.0289,7.2516],[-73.0316,7.2516],[-73.0323,7.2536],[-73.0344,7.2509],[-73.0337,7.2482],[-73.0378,7.2455],[-73.0405,7.2462],[-73.0446,7.2448],[-73.0412,7.2509],[-73.0467,7.2475],[-73.0521,7.2462],[-73.048,7.2543],[-73.0446,7.2563],[-73.0453,7.2584],[-73.0494,7.2584],[-73.0508,7.2529],[-73.0549,7.2475],[-73.0576,7.2468],[-73.0576,7.2455],[-73.0549,7.2448],[-73.0528,7.2421],[-73.0508,7.2428],[-73.0514,7.2401],[-73.046,7.2421],[-73.0378,7.2408],[-73.033,7.2421],[-73.0323,7.2408],[-73.0282,7.2401],[-73.0282,7.2374],[-73.02,7.238],[-73.0194,7.2353],[-73.0214,7.2353],[-73.0269,7.2313],[-73.0282,7.2292],[-73.0269,7.2272],[-73.0289,7.2259],[-73.0282,7.2231],[-73.0303,7.2198],[-73.0412,7.2191],[-73.0426,7.2204],[-73.0426,7.2218],[-73.0405,7.2225],[-73.0426,7.2272],[-73.0412,7.2326],[-73.0467,7.236],[-73.0473,7.238],[-73.0501,7.2374],[-73.0508,7.2353],[-73.0439,7.2333],[-73.0432,7.2313],[-73.0453,7.2313],[-73.0473,7.2333],[-73.0508,7.2326],[-73.0508,7.234],[-73.0535,7.2333],[-73.0535,7.2313],[-73.0508,7.2319],[-73.0446,7.2279],[-73.0446,7.2265],[-73.0467,7.2259],[-73.0487,7.2292],[-73.0535,7.2286],[-73.0501,7.2238],[-73.0446,7.2225],[-73.046,7.2204],[-73.046,7.2191],[-73.0446,7.2191],[-73.0453,7.215],[-73.0521,7.217],[-73.0521,7.2137],[-73.0467,7.2116],[-73.0446,7.2116],[-73.0446,7.2137],[-73.0426,7.2137],[-73.0419,7.2116],[-73.0351,7.2116],[-73.0289,7.2143],[-73.0241,7.2211],[-73.02,7.2225],[-73.0194,7.2198],[-73.0228,7.217],[-73.0228,7.215],[-73.0262,7.2157],[-73.0269,7.2143],[-73.0262,7.213],[-73.0234,7.213],[-73.0248,7.211],[-73.0234,7.2089],[-73.0303,7.2096],[-73.0337,7.2076],[-73.0337,7.2062],[-73.0316,7.2062],[-73.0296,7.2042],[-73.0316,7.2035],[-73.031,7.1988],[-73.0351,7.1974],[-73.0371,7.1974],[-73.0371,7.1988],[-73.0398,7.2001],[-73.0398,7.2042],[-73.0439,7.2021],[-73.046,7.2028],[-73.0467,7.2015],[-73.0446,7.1988],[-73.0419,7.2001],[-73.0419,7.1988],[-73.0398,7.1981],[-73.0419,7.1967],[-73.0398,7.1933],[-73.0432,7.194],[-73.0426,7.1913],[-73.0467,7.1893],[-73.0508,7.192],[-73.0535,7.1913],[-73.0535,7.1879],[-73.0562,7.1872],[-73.0589,7.1839],[-73.0617,7.1757],[-73.0651,7.1723],[-73.0651,7.1676],[-73.0706,7.1635],[-73.0822,7.1649],[-73.0822,7.1635],[-73.0808,7.1635],[-73.0822,7.1601],[-73.0842,7.1622],[-73.0869,7.1622],[-73.0897,7.1588],[-73.0924,7.1581],[-73.0917,7.1561],[-73.089,7.1561],[-73.0883,7.1547],[-73.0951,7.1493],[-73.0972,7.1432],[-73.1026,7.1405],[-73.1026,7.1385],[-73.0992,7.1378],[-73.0979,7.1405],[-73.0965,7.1405],[-73.0965,7.1425],[-73.0951,7.1425],[-73.0951,7.148],[-73.0924,7.1466],[-73.0924,7.1446],[-73.091,7.1439],[-73.089,7.1493],[-73.0869,7.1493],[-73.0876,7.1439],[-73.0856,7.1439],[-73.0849,7.148],[-73.0835,7.148],[-73.0815,7.1446],[-73.0801,7.1493],[-73.0787,7.15],[-73.0665,7.1473],[-73.0624,7.152],[-73.061,7.1581],[-73.0549,7.1581],[-73.0535,7.1608],[-73.0521,7.1601],[-73.0514,7.1629],[-73.0508,7.1588],[-73.0555,7.1534],[-73.0446,7.1554],[-73.0426,7.1554],[-73.0426,7.1541],[-73.0392,7.1547],[-73.0371,7.1581],[-73.0344,7.1568],[-73.0316,7.1581],[-73.0296,7.1547],[-73.031,7.152],[-73.0296,7.1507],[-73.0303,7.1466],[-73.0282,7.1452],[-73.0296,7.1419],[-73.0289,7.1398],[-73.0228,7.1412],[-73.0228,7.1385],[-73.0262,7.1364],[-73.0275,7.1378],[-73.0323,7.1371],[-73.0316,7.1337],[-73.0351,7.1344],[-73.0364,7.1331],[-73.0364,7.1317],[-73.0344,7.131],[-73.0344,7.1297],[-73.0364,7.1303],[-73.0351,7.129],[-73.0357,7.1256],[-73.0371,7.1242],[-73.0432,7.1249],[-73.0439,7.1222],[-73.0364,7.1215],[-73.0357,7.1168],[-73.0344,7.1168],[-73.0337,7.1148],[-73.0316,7.1209],[-73.0282,7.1209],[-73.0275,7.1134],[-73.0296,7.1114],[-73.0289,7.1073],[-73.0323,7.106],[-73.033,7.1026],[-73.0357,7.1012],[-73.0357,7.0931],[-73.0323,7.0911],[-73.0323,7.0883],[-73.0351,7.0856],[-73.0344,7.0829],[-73.0371,7.0795],[-73.0446,7.0761],[-73.0432,7.0734],[-73.0446,7.07],[-73.0432,7.07],[-73.0426,7.066],[-73.046,7.0639],[-73.0467,7.0619],[-73.0426,7.0626],[-73.0419,7.0606],[-73.0446,7.0606],[-73.0446,7.0592],[-73.0412,7.0579],[-73.0392,7.0592],[-73.0392,7.0653],[-73.0378,7.066],[-73.0371,7.0646],[-73.0378,7.0592],[-73.0405,7.0538],[-73.0419,7.0551],[-73.0432,7.0518],[-73.0453,7.0518],[-73.0446,7.0497],[-73.0412,7.0497],[-73.0419,7.047],[-73.0378,7.047],[-73.0378,7.0457],[-73.0398,7.0457],[-73.0378,7.0423],[-73.0385,7.0362],[-73.0392,7.0348],[-73.0446,7.0355],[-73.0467,7.0341],[-73.0453,7.0335],[-73.0446,7.0287],[-73.0473,7.0247],[-73.0521,7.0219]]],[[[-73.0897,7.2435],[-73.0869,7.2441],[-73.0883,7.2475],[-73.0897,7.2468],[-73.0897,7.2482],[-73.0931,7.2489],[-73.0958,7.2468],[-73.0931,7.2441],[-73.0897,7.2435]]],[[[-73.0555,7.2001],[-73.0501,7.2028],[-73.0501,7.2049],[-73.0521,7.2055],[-73.0528,7.2082],[-73.0549,7.2089],[-73.0555,7.2062],[-73.0583,7.2082],[-73.0617,7.2082],[-73.0624,7.2062],[-73.0644,7.2055],[-73.0624,7.2015],[-73.0589,7.2021],[-73.0589,7.2049],[-73.0542,7.2049],[-73.0542,7.2021],[-73.0569,7.2028],[-73.0569,7.2008],[-73.0555,7.2001]]],[[[-73.1682,7.0016],[-73.1695,7.0023],[-73.1695,7.005],[-73.1655,7.0057],[-73.1648,7.0077],[-73.1627,7.007],[-73.162,7.0104],[-73.1586,7.0091],[-73.1573,7.0158],[-73.1498,7.0213],[-73.1498,7.0233],[-73.1566,7.0206],[-73.16,7.0213],[-73.1586,7.0226],[-73.1559,7.0219],[-73.1429,7.0294],[-73.1402,7.0294],[-73.1368,7.0348],[-73.1293,7.0355],[-73.1334,7.0402],[-73.1354,7.0402],[-73.1354,7.0382],[-73.1368,7.0375],[-73.1368,7.0423],[-73.132,7.0423],[-73.132,7.0457],[-73.1293,7.045],[-73.1293,7.047],[-73.1272,7.0477],[-73.1272,7.0443],[-73.1259,7.045],[-73.1252,7.0477],[-73.1265,7.049],[-73.1286,7.0484],[-73.1293,7.0504],[-73.1245,7.0497],[-73.1238,7.0511],[-73.1156,7.049],[-73.1142,7.0504],[-73.1163,7.0511],[-73.1163,7.0531],[-73.1142,7.0531],[-73.1149,7.0558],[-73.1129,7.0558],[-73.1108,7.0545],[-73.1102,7.0497],[-73.1081,7.0497],[-73.1061,7.0504],[-73.1061,7.0551],[-73.1047,7.0524],[-73.1026,7.0545],[-73.0992,7.0545],[-73.0992,7.0511],[-73.1013,7.0531],[-73.1026,7.0484],[-73.104,7.0484],[-73.1054,7.0457],[-73.1122,7.0457],[-73.1122,7.0436],[-73.1047,7.045],[-73.102,7.0484],[-73.1006,7.0477],[-73.1006,7.049],[-73.0985,7.049],[-73.0985,7.047],[-73.1013,7.0457],[-73.0992,7.0463],[-73.0979,7.0443],[-73.1026,7.045],[-73.102,7.0429],[-73.0992,7.0416],[-73.0985,7.0429],[-73.0972,7.0416],[-73.091,7.0416],[-73.0876,7.0443],[-73.0904,7.0409],[-73.0904,7.0382],[-73.0876,7.0382],[-73.0869,7.0396],[-73.0842,7.0389],[-73.0842,7.0362],[-73.0815,7.0348],[-73.0869,7.0321],[-73.0904,7.0274],[-73.0931,7.0301],[-73.0958,7.0287],[-73.0972,7.0307],[-73.0992,7.0301],[-73.0999,7.0314],[-73.1026,7.0287],[-73.1061,7.0301],[-73.1088,7.0294],[-73.1081,7.0274],[-73.1108,7.0274],[-73.1108,7.0294],[-73.1136,7.0294],[-73.1136,7.0219],[-73.1177,7.0213],[-73.1183,7.0192],[-73.1197,7.0192],[-73.1211,7.0213],[-73.117,7.0247],[-73.1183,7.026],[-73.117,7.0267],[-73.1183,7.0307],[-73.1163,7.0321],[-73.1095,7.0321],[-73.1102,7.0335],[-73.1122,7.0328],[-73.1115,7.0355],[-73.1136,7.0355],[-73.1142,7.0368],[-73.1156,7.0335],[-73.119,7.0321],[-73.1218,7.0287],[-73.1245,7.0301],[-73.1238,7.0321],[-73.1197,7.0335],[-73.1177,7.0375],[-73.1136,7.0382],[-73.1136,7.0396],[-73.1177,7.0382],[-73.1204,7.0389],[-73.119,7.0429],[-73.1163,7.0443],[-73.1218,7.0477],[-73.1224,7.045],[-73.1211,7.0457],[-73.1211,7.0423],[-73.1231,7.0416],[-73.1231,7.0402],[-73.1245,7.0402],[-73.1252,7.0436],[-73.1279,7.0423],[-73.1279,7.0396],[-73.1245,7.0389],[-73.1259,7.0375],[-73.1238,7.0368],[-73.1245,7.0341],[-73.1334,7.0328],[-73.134,7.0314],[-73.132,7.0307],[-73.1327,7.028],[-73.1409,7.0274],[-73.1484,7.0233],[-73.147,7.0199],[-73.1436,7.0199],[-73.145,7.024],[-73.1409,7.0247],[-73.1381,7.0226],[-73.1381,7.0206],[-73.1402,7.0192],[-73.1361,7.0172],[-73.1347,7.0179],[-73.1334,7.0226],[-73.1313,7.024],[-73.1313,7.0206],[-73.13,7.0199],[-73.1313,7.0165],[-73.1354,7.0152],[-73.1416,7.0179],[-73.1402,7.0158],[-73.1429,7.0158],[-73.1443,7.0179],[-73.1477,7.0186],[-73.1484,7.0158],[-73.1498,7.0165],[-73.1511,7.0152],[-73.1504,7.0138],[-73.1436,7.0145],[-73.1429,7.0118],[-73.1491,7.0118],[-73.1484,7.007],[-73.1545,7.0097],[-73.1573,7.0084],[-73.1586,7.005],[-73.162,7.005],[-73.1634,7.003],[-73.1682,7.0016]]],[[[-73.0958,7.0307],[-73.0945,7.0307],[-73.0945,7.0328],[-73.0904,7.0314],[-73.0897,7.0328],[-73.0876,7.0328],[-73.0876,7.0341],[-73.0897,7.0355],[-73.091,7.0355],[-73.091,7.0335],[-73.0931,7.0348],[-73.0951,7.0341],[-73.0979,7.0368],[-73.0999,7.0368],[-73.1013,7.0402],[-73.1033,7.0402],[-73.1013,7.0382],[-73.1013,7.0355],[-73.1026,7.0348],[-73.0979,7.0348],[-73.0972,7.0314],[-73.0958,7.0307]]],[[[-73.0071,6.883],[-73.0016,6.8844],[-73.0023,6.8857],[-73.0057,6.8857],[-73.0023,6.8864],[-73.0023,6.8905],[-73.0091,6.8864],[-73.0112,6.8884],[-73.0159,6.8864],[-73.0166,6.8878],[-73.0146,6.8911],[-73.003,6.8911],[-73.0036,6.8932],[-73.0064,6.8932],[-73.0084,6.8966],[-73.0105,6.8966],[-73.0105,6.8945],[-73.0139,6.8925],[-73.018,6.8932],[-73.0214,6.8918],[-73.0194,6.8945],[-73.0118,6.8959],[-73.0112,6.8986],[-73.0084,6.8993],[-73.0146,6.9013],[-73.0146,6.9047],[-73.0194,6.9061],[-73.0207,6.9094],[-73.0234,6.9088],[-73.0234,6.9108],[-73.0262,6.9115],[-73.02,6.9115],[-73.0194,6.9088],[-73.0159,6.9081],[-73.0132,6.904],[-73.0118,6.904],[-73.0132,6.9074],[-73.0098,6.9074],[-73.0098,6.904],[-73.0077,6.9027],[-73.0077,6.9006],[-72.9996,6.8932],[-73.0016,6.8871],[-72.9996,6.8864],[-73.0002,6.8844],[-72.9982,6.883],[-73.0071,6.883]]],[[[-72.9968,6.881],[-72.9968,6.8837],[-72.9982,6.8837],[-72.9989,6.8857],[-72.9975,6.8878],[-72.9989,6.8952],[-72.9968,6.8932],[-72.9975,6.8905],[-72.9961,6.8905],[-72.9975,6.8871],[-72.9948,6.8878],[-72.9934,6.8905],[-72.992,6.8898],[-72.9941,6.8871],[-72.9907,6.8871],[-72.9968,6.8864],[-72.9948,6.8864],[-72.9968,6.881]]],[[[-72.9927,6.8667],[-72.9927,6.8688],[-72.9914,6.8688],[-72.9914,6.8667],[-72.9927,6.8667]]],[[[-72.9996,6.8667],[-73.0002,6.8681],[-72.9982,6.8701],[-73.0016,6.8674],[-73.0036,6.8681],[-73.0036,6.8695],[-72.9996,6.8695],[-72.9955,6.8715],[-72.9955,6.8728],[-73.0002,6.8728],[-73.005,6.8695],[-73.005,6.8681],[-73.0077,6.8681],[-73.0084,6.8695],[-73.0084,6.8681],[-73.0098,6.8681],[-73.0105,6.8695],[-73.0098,6.8715],[-73.005,6.8708],[-73.0016,6.8715],[-73.0009,6.8735],[-72.9968,6.8735],[-72.9961,6.8769],[-72.9975,6.8756],[-73.0023,6.8783],[-73.0036,6.8749],[-73.0057,6.8735],[-73.0064,6.8749],[-73.0036,6.8783],[-73.0057,6.8769],[-73.0057,6.8783],[-73.0098,6.8783],[-73.0105,6.8803],[-73.0139,6.8803],[-73.0153,6.8817],[-73.0091,6.8803],[-73.0064,6.8803],[-73.0064,6.8817],[-73.005,6.8796],[-73.003,6.8803],[-72.9982,6.8776],[-72.9961,6.8776],[-72.9961,6.881],[-72.9941,6.8762],[-72.9955,6.8735],[-72.9948,6.8695],[-72.9927,6.8688],[-72.9975,6.8701],[-72.9975,6.8681],[-72.9996,6.8667]]],[[[-73.2078,6.862],[-73.2016,6.8667],[-73.201,6.8688],[-73.2037,6.8695],[-73.2037,6.8708],[-73.201,6.8701],[-73.1989,6.8722],[-73.1969,6.8722],[-73.1962,6.8749],[-73.1934,6.8762],[-73.1934,6.8817],[-73.1962,6.8789],[-73.2044,6.8776],[-73.2051,6.8762],[-73.2057,6.8789],[-73.2044,6.8789],[-73.2044,6.881],[-73.2003,6.8796],[-73.1962,6.8817],[-73.1928,6.8925],[-73.1941,6.8939],[-73.1962,6.8925],[-73.1982,6.8932],[-73.1982,6.9013],[-73.201,6.9013],[-73.203,6.9054],[-73.1982,6.9047],[-73.1934,6.902],[-73.1839,6.9033],[-73.1805,6.9094],[-73.1777,6.9101],[-73.1784,6.9081],[-73.1764,6.9081],[-73.1757,6.9108],[-73.1723,6.9122],[-73.1736,6.9094],[-73.1723,6.9088],[-73.1723,6.9067],[-73.1798,6.9047],[-73.1798,6.9027],[-73.1716,6.9047],[-73.1695,6.9074],[-73.1695,6.9094],[-73.1723,6.9094],[-73.1716,6.9128],[-73.175,6.9115],[-73.1771,6.9115],[-73.1771,6.9128],[-73.1716,6.9149],[-73.1702,6.9176],[-73.1736,6.9176],[-73.1736,6.9162],[-73.1771,6.9155],[-73.1784,6.9135],[-73.1805,6.9135],[-73.1805,6.9176],[-73.1866,6.9135],[-73.1866,6.9149],[-73.1818,6.9189],[-73.1832,6.9189],[-73.1832,6.9203],[-73.1798,6.923],[-73.1723,6.9196],[-73.1675,6.9203],[-73.1675,6.9189],[-73.1525,6.9196],[-73.1593,6.9155],[-73.1586,6.9135],[-73.1552,6.9142],[-73.1552,6.9128],[-73.1607,6.9108],[-73.1634,6.9074],[-73.1627,6.9047],[-73.16,6.9033],[-73.1627,6.9013],[-73.1607,6.9006],[-73.162,6.8986],[-73.1586,6.8986],[-73.1614,6.8952],[-73.1627,6.8952],[-73.1641,6.9],[-73.1661,6.9013],[-73.1648,6.904],[-73.1655,6.9061],[-73.1675,6.9054],[-73.1675,6.9094],[-73.1682,6.9054],[-73.173,6.9013],[-73.1736,6.8972],[-73.1784,6.8993],[-73.1791,6.8972],[-73.1757,6.8972],[-73.1764,6.8959],[-73.1818,6.8966],[-73.1812,6.8945],[-73.1839,6.8972],[-73.1846,6.9013],[-73.1866,6.9013],[-73.1866,6.8972],[-73.1887,6.8966],[-73.1893,6.8932],[-73.1928,6.8918],[-73.1928,6.8796],[-73.1914,6.8769],[-73.1941,6.8728],[-73.1989,6.8695],[-73.2016,6.8647],[-73.203,6.8647],[-73.2037,6.862],[-73.2078,6.862]]],[[[-72.9893,6.8593],[-72.9907,6.8606],[-72.99,6.864],[-72.9914,6.8661],[-72.9893,6.8674],[-72.9893,6.8593]]],[[[-72.9941,6.8539],[-72.992,6.8559],[-72.992,6.8579],[-72.9961,6.8566],[-72.9968,6.8586],[-72.9914,6.8586],[-72.9927,6.86],[-72.9914,6.8606],[-72.9879,6.8559],[-72.9879,6.8539],[-72.9907,6.8573],[-72.9914,6.8545],[-72.9941,6.8539]]],[[[-73.0077,6.8491],[-73.0098,6.8505],[-73.0057,6.8505],[-73.0057,6.8518],[-73.0084,6.8539],[-73.0091,6.8573],[-73.005,6.8518],[-72.9989,6.8518],[-72.9968,6.8505],[-73.0077,6.8491]]],[[[-73.1791,6.8261],[-73.1812,6.8308],[-73.1859,6.8356],[-73.188,6.8349],[-73.1914,6.8362],[-73.1962,6.841],[-73.2051,6.8423],[-73.2105,6.8464],[-73.2132,6.8457],[-73.2132,6.843],[-73.2173,6.8423],[-73.2173,6.8457],[-73.2228,6.8505],[-73.2214,6.8539],[-73.2201,6.8518],[-73.2167,6.8512],[-73.2126,6.8545],[-73.2126,6.8518],[-73.2098,6.8471],[-73.2023,6.8464],[-73.1996,6.843],[-73.1914,6.8396],[-73.1893,6.8362],[-73.1866,6.8369],[-73.1825,6.8342],[-73.1784,6.8288],[-73.1764,6.8301],[-73.1764,6.8274],[-73.1791,6.8261]]],[[[-73.2426,6.7535],[-73.2406,6.7556],[-73.2378,6.7556],[-73.2426,6.7535]]],[[[-73.2453,6.7515],[-73.2474,6.7535],[-73.2426,6.7535],[-73.2433,6.7515],[-73.2453,6.7515]]],[[[-73.2685,6.6233],[-73.2699,6.6261],[-73.2706,6.6247],[-73.2726,6.6247],[-73.2726,6.6274],[-73.2713,6.6281],[-73.2733,6.6288],[-73.2733,6.6308],[-73.2754,6.6308],[-73.2754,6.6335],[-73.274,6.6342],[-73.272,6.6328],[-73.272,6.6301],[-73.2699,6.6301],[-73.2699,6.6322],[-73.2733,6.6342],[-73.2733,6.6362],[-73.2761,6.6369],[-73.2761,6.6383],[-73.274,6.6376],[-73.2747,6.6403],[-73.272,6.643],[-73.2726,6.6457],[-73.2761,6.6471],[-73.2733,6.6511],[-73.272,6.6511],[-73.2726,6.6525],[-73.2699,6.6511],[-73.2706,6.6532],[-73.2692,6.6559],[-73.2713,6.6532],[-73.2761,6.6532],[-73.2754,6.6566],[-73.2767,6.6573],[-73.2754,6.66],[-73.2781,6.6613],[-73.2747,6.6627],[-73.2747,6.6674],[-73.2767,6.6674],[-73.2767,6.6661],[-73.2795,6.6667],[-73.2788,6.6722],[-73.2822,6.6735],[-73.2924,6.6695],[-73.2767,6.683],[-73.2781,6.6864],[-73.2808,6.6851],[-73.2795,6.6878],[-73.2761,6.6891],[-73.2767,6.6871],[-73.274,6.6864],[-73.274,6.6912],[-73.2788,6.6952],[-73.2767,6.6959],[-73.2767,6.6979],[-73.2815,6.7006],[-73.2808,6.6973],[-73.2842,6.702],[-73.2877,6.7027],[-73.2904,6.6959],[-73.2952,6.6932],[-73.2931,6.6932],[-73.2931,6.6918],[-73.2938,6.6905],[-73.2959,6.6912],[-73.2972,6.6884],[-73.2959,6.6871],[-73.2945,6.6878],[-73.2945,6.6857],[-73.2959,6.6851],[-73.2993,6.6871],[-73.2972,6.6925],[-73.2999,6.6898],[-73.3006,6.6939],[-73.3027,6.6925],[-73.3034,6.6952],[-73.3054,6.6945],[-73.3061,6.6959],[-73.304,6.6973],[-73.2938,6.6952],[-73.2911,6.6973],[-73.2904,6.7],[-73.2938,6.6979],[-73.2945,6.6959],[-73.2959,6.6973],[-73.2938,6.7006],[-73.2972,6.6986],[-73.2999,6.6993],[-73.2965,6.7006],[-73.2959,6.7027],[-73.289,6.7013],[-73.2883,6.7054],[-73.287,6.7054],[-73.287,6.7074],[-73.2897,6.7095],[-73.2897,6.7108],[-73.2883,6.7108],[-73.289,6.7129],[-73.2918,6.7135],[-73.2924,6.7162],[-73.2952,6.719],[-73.2959,6.7251],[-73.2931,6.7271],[-73.2938,6.7223],[-73.2911,6.7217],[-73.2924,6.7183],[-73.2863,6.7196],[-73.289,6.723],[-73.2829,6.723],[-73.2842,6.7325],[-73.2883,6.7332],[-73.287,6.7352],[-73.2877,6.7366],[-73.2829,6.7407],[-73.2836,6.7495],[-73.2795,6.7474],[-73.2795,6.7447],[-73.2781,6.7447],[-73.2774,6.7427],[-73.2754,6.7427],[-73.274,6.7461],[-73.274,6.744],[-73.2713,6.7447],[-73.274,6.7468],[-73.274,6.7495],[-73.2706,6.7495],[-73.2685,6.7474],[-73.2644,6.7481],[-73.2631,6.7434],[-73.259,6.7447],[-73.2631,6.7474],[-73.2644,6.7508],[-73.2617,6.7495],[-73.259,6.7454],[-73.2556,6.7468],[-73.2644,6.7542],[-73.2631,6.7569],[-73.2638,6.7596],[-73.2617,6.7583],[-73.261,6.7542],[-73.259,6.7535],[-73.2583,6.7508],[-73.2563,6.7495],[-73.2549,6.7515],[-73.2556,6.7495],[-73.2542,6.7508],[-73.2528,6.7501],[-73.2549,6.7474],[-73.2481,6.7461],[-73.2426,6.7495],[-73.2378,6.7501],[-73.2378,6.7562],[-73.2344,6.7583],[-73.2351,6.7603],[-73.2337,6.7637],[-73.2324,6.7644],[-73.233,6.7603],[-73.2303,6.763],[-73.2317,6.7657],[-73.2385,6.7671],[-73.2406,6.7617],[-73.2433,6.761],[-73.2399,6.7678],[-73.233,6.7664],[-73.2317,6.7678],[-73.2303,6.7651],[-73.2235,6.7637],[-73.2194,6.7657],[-73.2153,6.7651],[-73.2119,6.7671],[-73.2146,6.7576],[-73.216,6.7644],[-73.2262,6.763],[-73.2262,6.761],[-73.2296,6.761],[-73.2296,6.759],[-73.2255,6.7603],[-73.2242,6.7583],[-73.2269,6.7576],[-73.2262,6.7549],[-73.2289,6.7556],[-73.2289,6.7576],[-73.2303,6.7569],[-73.2303,6.7549],[-73.2276,6.7542],[-73.2289,6.7522],[-73.231,6.7529],[-73.2317,6.7515],[-73.2344,6.7549],[-73.2365,6.7549],[-73.2344,6.7535],[-73.2358,6.7508],[-73.2337,6.7495],[-73.2344,6.7474],[-73.2426,6.7474],[-73.2467,6.7447],[-73.2494,6.7447],[-73.2501,6.7427],[-73.2481,6.74],[-73.2433,6.74],[-73.2344,6.7427],[-73.2337,6.7379],[-73.2317,6.7352],[-73.2337,6.7339],[-73.2337,6.7318],[-73.231,6.7284],[-73.2392,6.7271],[-73.2433,6.721],[-73.2467,6.719],[-73.2501,6.719],[-73.2522,6.7169],[-73.2501,6.7135],[-73.2542,6.7156],[-73.2542,6.7142],[-73.259,6.7101],[-73.2597,6.7068],[-73.2563,6.7068],[-73.2556,6.7054],[-73.2563,6.7027],[-73.2583,6.7027],[-73.259,6.7013],[-73.2583,6.6945],[-73.2624,6.6925],[-73.2604,6.6844],[-73.2624,6.6871],[-73.2631,6.6864],[-73.2604,6.6796],[-73.259,6.6803],[-73.2583,6.6776],[-73.2556,6.6769],[-73.2556,6.6749],[-73.2583,6.6735],[-73.2638,6.6762],[-73.2692,6.6762],[-73.2699,6.6742],[-73.2733,6.6742],[-73.2747,6.6708],[-73.2679,6.6701],[-73.2726,6.6674],[-73.2692,6.6647],[-73.2733,6.6654],[-73.2706,6.664],[-73.2733,6.664],[-73.2733,6.6627],[-73.2679,6.6613],[-73.2679,6.6667],[-73.2665,6.6674],[-73.2672,6.6579],[-73.2651,6.6545],[-73.2617,6.6532],[-73.2631,6.6464],[-73.261,6.6423],[-73.2644,6.6369],[-73.2638,6.6308],[-73.2679,6.6267],[-73.2685,6.6233]]],[[[-73.2624,6.6776],[-73.261,6.6783],[-73.2644,6.679],[-73.2624,6.6776]]],[[[-73.2829,6.7061],[-73.2802,6.7061],[-73.2802,6.7081],[-73.2829,6.7081],[-73.2829,6.7061]]],[[[-73.2542,6.742],[-73.2528,6.742],[-73.2515,6.7447],[-73.2542,6.7434],[-73.2542,6.742]]]]}}]}