{"type":"FeatureCollection","name":"hidrografia_ideam_cdmb","features":[{"type":"Feature","properties":{"nombre":"","tipo":"ciénaga","fuente":"IDEAM"},"geometry":{"type":"Polygon","coordinates":[[[-73.6755,7.7531],[-73.6762,7.7538],[-73.6767,7.7534],[-73.6754,7.7514],[-73.6741,7.7507],[-73.673,7.7487],[-73.6715,7.7486],[-73.6734,7.7532],[-73.6755,7.7531]]]}},{"type":"Feature","properties":{"nombre":"","tipo":"ciénaga","fuente":"IDEAM"},"geometry":{"type":"Polygon","coordinates":[[[-73.6768,7.7487],[-73.6793,7.7507],[-73.6799,7.7502],[-73.6801,7.749],[-73.6787,7.7476],[-73.6773,7.7477],[-73.6768,7.7487]]]}},{"type":"Feature","properties":{"nombre":"","tipo":"ciénaga","fuente":"IDEAM"},"geometry":{"type":"Polygon","coordinates":[[[-73.6809,7.747],[-73.6807,7.7486],[-73.6818,7.7486],[-73.682,7.7475],[-73.6809,7.747]]]}},{"type":"Feature","properties":{"nombre":"","tipo":"ciénaga","fuente":"IDEAM"},"geometry":{"type":"Polygon","coordinates":[[[-73.6787,7.7437],[-73.6779,7.7457],[-73.6801,7.7457],[-73.6814,7.745],[-73.6809,7.744],[-73.6787,7.7437]]]}},{"type":"Feature","properties":{"nombre":"","tipo":"ciénaga","fuente":"IDEAM"},"geometry":{"type":"Polygon","coordinates":[[[-73.672,7.7454],[-73.6728,7.7458],[-73.6745,7.7451],[-73.6744,7.7438],[-73.6757,7.7444],[-73.6761,7.7439],[-73.6745,7.7435],[-73.6745,7.7419],[-73.6741,7.742],[-73.6734,7.7427],[-73.6739,7.7432],[-73.6735,7.7437],[-73.6731,7.7427],[-73.6717,7.7431],[-73.6737,7.7446],[-73.6722,7.7447],[-73.672,7.7454]]]}},{"type":"Feature","properties":{"nombre":"Ciénaga El Paraiso","tipo":"ciénaga","fuente":"IDEAM"},"geometry":{"type":"Polygon","coordinates":[[[-73.6288,7.6648],[-73.6305,7.6665],[-73.6334,7.6666],[-73.6359,7.6645],[-73.6359,7.6634],[-73.635,7.6632],[-73.6328,7.6642],[-73.6311,7.661],[-73.6284,7.6593],[-73.6278,7.6622],[-73.6288,7.6648]]]}},{"type":"Feature","properties":{"nombre":"Ciénaga El Taguí","tipo":"ciénaga","fuente":"IDEAM"},"geometry":{"type":"Polygon","coordinates":[[[-73.644,7.6354],[-73.6446,7.6425],[-73.6467,7.6433],[-73.6486,7.6431],[-73.6498,7.642],[-73.6497,7.6412],[-73.6463,7.6397],[-73.645,7.6357],[-73.644,7.6354]]]}},{"type":"Feature","properties":{"nombre":"Ciénaga La Esperanza","tipo":"ciénaga","fuente":"IDEAM"},"geometry":{"type":"Polygon","coordinates":[[[-73.6291,7.6428],[-73.6318,7.6438],[-73.6332,7.6424],[-73.6381,7.6426],[-73.6384,7.642],[-73.6374,7.6402],[-73.6364,7.6402],[-73.6349,7.6415],[-73.6329,7.6415],[-73.6309,7.6425],[-73.6296,7.642],[-73.6291,7.6428]]]}},{"type":"Feature","properties":{"nombre":"","tipo":"laguna","fuente":"IDEAM"},"geometry":{"type":"Polygon","coordinates":[[[-72.91974,7.17583],[-72.91927,7.17635],[-72.92019,7.17654],[-72.92033,7.17606],[-72.91974,7.17583]]]}},{"type":"Feature","properties":{"nombre":"","tipo":"laguna","fuente":"IDEAM"},"geometry":{"type":"Polygon","coordinates":[[[-72.86886,7.28539],[-72.86819,7.28673],[-72.86833,7.28749],[-72.86911,7.28608],[-72.86886,7.28539]]]}},{"type":"Feature","properties":{"nombre":"","tipo":"laguna","fuente":"IDEAM"},"geometry":{"type":"Polygon","coordinates":[[[-72.89452,7.27886],[-72.8933,7.2803],[-72.89348,7.28086],[-72.8954,7.28054],[-72.89598,7.27895],[-72.89452,7.27886]]]}},{"type":"Feature","properties":{"nombre":"","tipo":"laguna","fuente":"IDEAM"},"geometry":{"type":"Polygon","coordinates":[[[-72.84439,7.35737],[-72.84384,7.35774],[-72.84413,7.35903],[-72.84464,7.35876],[-72.84439,7.35737]]]}},{"type":"Feature","properties":{"nombre":"","tipo":"laguna","fuente":"IDEAM"},"geometry":{"type":"Polygon","coordinates":[[[-72.88335,7.2743],[-72.8834,7.27488],[-72.88395,7.27474],[-72.88335,7.2743]]]}},{"type":"Feature","properties":{"nombre":"","tipo":"laguna","fuente":"IDEAM"},"geometry":{"type":"Polygon","coordinates":[[[-72.85189,7.3322],[-72.85178,7.33306],[-72.85254,7.33349],[-72.85247,7.33255],[-72.85189,7.3322]]]}},{"type":"Feature","properties":{"nombre":"","tipo":"laguna","fuente":"IDEAM"},"geometry":{"type":"Polygon","coordinates":[[[-72.90376,7.426],[-72.90338,7.42666],[-72.90401,7.42685],[-72.90429,7.42643],[-72.90376,7.426]]]}},{"type":"Feature","properties":{"nombre":"","tipo":"laguna","fuente":"IDEAM"},"geometry":{"type":"Polygon","coordinates":[[[-72.87144,7.28858],[-72.87049,7.28948],[-72.87036,7.29034],[-72.87136,7.29034],[-72.87226,7.28952],[-72.87212,7.28872],[-72.87144,7.28858]]]}},{"type":"Feature","properties":{"nombre":"","tipo":"laguna","fuente":"IDEAM"},"geometry":{"type":"Polygon","coordinates":[[[-72.88473,7.27484],[-72.88465,7.27539],[-72.88515,7.27555],[-72.88517,7.2749],[-72.88473,7.27484]]]}},{"type":"Feature","properties":{"nombre":"","tipo":"laguna","fuente":"IDEAM"},"geometry":{"type":"Polygon","coordinates":[[[-72.86945,7.28309],[-72.86913,7.28361],[-72.86973,7.28402],[-72.86999,7.28352],[-72.86945,7.28309]]]}},{"type":"Feature","properties":{"nombre":"","tipo":"laguna","fuente":"IDEAM"},"geometry":{"type":"Polygon","coordinates":[[[-72.9226,7.17549],[-72.92227,7.17603],[-72.92317,7.17616],[-72.92321,7.17568],[-72.9226,7.17549]]]}},{"type":"Feature","properties":{"nombre":"","tipo":"laguna","fuente":"IDEAM"},"geometry":{"type":"Polygon","coordinates":[[[-72.89779,7.4653],[-72.89705,7.46573],[-72.89729,7.46615],[-72.89838,7.46567],[-72.89839,7.46533],[-72.89779,7.4653]]]}},{"type":"Feature","properties":{"nombre":"","tipo":"laguna","fuente":"IDEAM"},"geometry":{"type":"Polygon","coordinates":[[[-72.88228,7.27329],[-72.88193,7.27396],[-72.88253,7.27424],[-72.88277,7.27364],[-72.88228,7.27329]]]}},{"type":"Feature","properties":{"nombre":"","tipo":"laguna","fuente":"IDEAM"},"geometry":{"type":"Polygon","coordinates":[[[-72.86914,7.28733],[-72.86886,7.28835],[-72.86933,7.28778],[-72.86914,7.28733]]]}},{"type":"Feature","properties":{"nombre":"","tipo":"laguna","fuente":"IDEAM"},"geometry":{"type":"Polygon","coordinates":[[[-72.83818,7.04541],[-72.83794,7.04611],[-72.83847,7.04637],[-72.83874,7.04546],[-72.83818,7.04541]]]}},{"type":"Feature","properties":{"nombre":"","tipo":"laguna","fuente":"IDEAM"},"geometry":{"type":"Polygon","coordinates":[[[-72.82816,7.07774],[-72.82826,7.07714],[-72.82744,7.07678],[-72.8275,7.07744],[-72.82816,7.07774]]]}},{"type":"Feature","properties":{"nombre":"","tipo":"laguna","fuente":"IDEAM"},"geometry":{"type":"Polygon","coordinates":[[[-73.03867,6.85743],[-73.03912,6.85653],[-73.04039,6.8566],[-73.04019,6.85564],[-73.03837,6.85525],[-73.03671,6.8532],[-73.03202,6.84912],[-73.0306,6.84933],[-73.02976,6.85065],[-73.03041,6.85167],[-73.03153,6.85093],[-73.03197,6.85128],[-73.03203,6.85249],[-73.03336,6.85233],[-73.03345,6.85317],[-73.0344,6.85352],[-73.03484,6.85475],[-73.03626,6.85526],[-73.03749,6.8572],[-73.03867,6.85743]]]}},{"type":"Feature","properties":{"nombre":"","tipo":"laguna","fuente":"IDEAM"},"geometry":{"type":"Polygon","coordinates":[[[-73.46586,7.55947],[-73.46655,7.55881],[-73.46531,7.55655],[-73.46277,7.55633],[-73.46201,7.55671],[-73.46296,7.55735],[-73.46527,7.55769],[-73.46586,7.55947]]]}},{"type":"Feature","properties":{"nombre":"","tipo":"laguna","fuente":"IDEAM"},"geometry":{"type":"Polygon","coordinates":[[[-73.44159,7.54314],[-73.44225,7.54353],[-73.44319,7.54332],[-73.44395,7.54208],[-73.44053,7.53994],[-73.44131,7.54122],[-73.44328,7.5422],[-73.44321,7.54261],[-73.44159,7.54314]]]}},{"type":"Feature","properties":{"nombre":"","tipo":"laguna","fuente":"IDEAM"},"geometry":{"type":"Polygon","coordinates":[[[-73.22834,7.55532],[-73.22813,7.55425],[-73.22759,7.55392],[-73.22694,7.55526],[-73.22834,7.55532]]]}},{"type":"Feature","properties":{"nombre":"<Null>","tipo":"laguna","fuente":"IDEAM"},"geometry":{"type":"Polygon","coordinates":[[[-73.02849,6.8826],[-73.0287,6.88334],[-73.0299,6.88252],[-73.03094,6.88304],[-73.02962,6.87954],[-73.02827,6.87856],[-73.02638,6.87859],[-73.02847,6.88063],[-73.02849,6.8826]]]}},{"type":"Feature","properties":{"nombre":"Lago de Pantano Uribe","tipo":"laguna","fuente":"IDEAM"},"geometry":{"type":"Polygon","coordinates":[[[-73.22717,7.00418],[-73.22668,7.01164],[-73.22778,7.01083],[-73.22853,7.00427],[-73.2278,7.0039],[-73.22717,7.00418]]]}},{"type":"Feature","properties":{"nombre":"Laguna Barrosa","tipo":"laguna","fuente":"IDEAM"},"geometry":{"type":"Polygon","coordinates":[[[-72.85372,7.35742],[-72.85318,7.35772],[-72.85324,7.35844],[-72.85424,7.35898],[-72.85487,7.35878],[-72.8547,7.35778],[-72.85372,7.35742]]]}},{"type":"Feature","properties":{"nombre":"Laguna Cunta","tipo":"laguna","fuente":"IDEAM"},"geometry":{"type":"Polygon","coordinates":[[[-72.86333,7.29064],[-72.86291,7.29103],[-72.86299,7.29253],[-72.86377,7.29243],[-72.86409,7.29183],[-72.86333,7.29064]]]}},{"type":"Feature","properties":{"nombre":"Laguna La Pintada","tipo":"laguna","fuente":"IDEAM"},"geometry":{"type":"Polygon","coordinates":[[[-72.84155,7.3574],[-72.84036,7.35781],[-72.83986,7.35931],[-72.84072,7.35941],[-72.84131,7.35889],[-72.84194,7.35793],[-72.84155,7.3574]]]}},{"type":"Feature","properties":{"nombre":"Laguna La Vìrgen","tipo":"laguna","fuente":"IDEAM"},"geometry":{"type":"Polygon","coordinates":[[[-72.87411,7.35397],[-72.8754,7.35381],[-72.87599,7.35303],[-72.87461,7.35269],[-72.87388,7.35348],[-72.87411,7.35397]]]}},{"type":"Feature","properties":{"nombre":"Laguna Larga","tipo":"laguna","fuente":"IDEAM"},"geometry":{"type":"Polygon","coordinates":[[[-72.86128,7.34787],[-72.86033,7.34898],[-72.86018,7.35051],[-72.86068,7.35097],[-72.86165,7.3504],[-72.86195,7.34839],[-72.86128,7.34787]]]}},{"type":"Feature","properties":{"nombre":"Laguna Las Calles","tipo":"laguna","fuente":"IDEAM"},"geometry":{"type":"Polygon","coordinates":[[[-72.84594,7.33252],[-72.84494,7.33382],[-72.84632,7.33341],[-72.84639,7.33275],[-72.84594,7.33252]]]}},{"type":"Feature","properties":{"nombre":"Laguna Los Tutos","tipo":"laguna","fuente":"IDEAM"},"geometry":{"type":"Polygon","coordinates":[[[-72.87091,7.05759],[-72.87054,7.05854],[-72.87133,7.05893],[-72.87187,7.05727],[-72.87115,7.05695],[-72.87091,7.05759]]]}},{"type":"Feature","properties":{"nombre":"Laguna Negra","tipo":"laguna","fuente":"IDEAM"},"geometry":{"type":"Polygon","coordinates":[[[-72.84681,7.33918],[-72.84583,7.34058],[-72.84771,7.33999],[-72.84784,7.33945],[-72.84681,7.33918]]]}},{"type":"Feature","properties":{"nombre":"Laguna Negra","tipo":"laguna","fuente":"IDEAM"},"geometry":{"type":"Polygon","coordinates":[[[-72.87866,7.27386],[-72.87838,7.27467],[-72.87986,7.27486],[-72.87976,7.2742],[-72.87866,7.27386]]]}},{"type":"Feature","properties":{"nombre":"Laguna Pozo Negro","tipo":"laguna","fuente":"IDEAM"},"geometry":{"type":"Polygon","coordinates":[[[-72.90307,7.42803],[-72.90336,7.42831],[-72.90252,7.42876],[-72.90274,7.4291],[-72.90425,7.42895],[-72.90385,7.42751],[-72.90235,7.42763],[-72.90307,7.42803]]]}},{"type":"Feature","properties":{"nombre":"Laguna Pozo Negro","tipo":"laguna","fuente":"IDEAM"},"geometry":{"type":"Polygon","coordinates":[[[-72.91519,7.42505],[-72.91472,7.42566],[-72.91559,7.42616],[-72.91587,7.42547],[-72.91519,7.42505]]]}},{"type":"Feature","properties":{"nombre":"Laguna Páez","tipo":"laguna","fuente":"IDEAM"},"geometry":{"type":"Polygon","coordinates":[[[-72.86294,7.37572],[-72.86305,7.37656],[-72.86393,7.37668],[-72.86441,7.37575],[-72.86585,7.37641],[-72.86652,7.37554],[-72.86541,7.3748],[-72.86294,7.37572]]]}},{"type":"Feature","properties":{"nombre":"Laguna Seca","tipo":"laguna","fuente":"IDEAM"},"geometry":{"type":"Polygon","coordinates":[[[-72.8622,7.2929],[-72.86187,7.2938],[-72.86277,7.29409],[-72.86291,7.29345],[-72.8622,7.2929]]]}},{"type":"Feature","properties":{"nombre":"Laguna Tutal","tipo":"laguna","fuente":"IDEAM"},"geometry":{"type":"Polygon","coordinates":[[[-72.84747,7.35707],[-72.84687,7.35839],[-72.84713,7.35906],[-72.84778,7.35851],[-72.84783,7.35735],[-72.84747,7.35707]]]}},{"type":"Feature","properties":{"nombre":"Laguna de Galapagos","tipo":"laguna","fuente":"IDEAM"},"geometry":{"type":"Polygon","coordinates":[[[-73.23917,7.382],[-73.23872,7.38333],[-73.24021,7.38552],[-73.24,7.38334],[-73.24094,7.38357],[-73.241,7.38324],[-73.23982,7.38288],[-73.23981,7.38219],[-73.23917,7.382]]]}},{"type":"Feature","properties":{"nombre":"Laguna de Guillermo","tipo":"laguna","fuente":"IDEAM"},"geometry":{"type":"Polygon","coordinates":[[[-72.84604,7.3252],[-72.84564,7.32604],[-72.8467,7.32614],[-72.84668,7.32551],[-72.84604,7.3252]]]}},{"type":"Feature","properties":{"nombre":"Laguna del Alto","tipo":"laguna","fuente":"IDEAM"},"geometry":{"type":"Polygon","coordinates":[[[-72.96475,7.44202],[-72.9642,7.44254],[-72.96433,7.44305],[-72.96533,7.4427],[-72.96545,7.44217],[-72.96475,7.44202]]]}},{"type":"Feature","properties":{"nombre":"Lagunas Verdes","tipo":"laguna","fuente":"IDEAM"},"geometry":{"type":"Polygon","coordinates":[[[-72.83559,7.30374],[-72.83516,7.30482],[-72.8358,7.30531],[-72.83612,7.30428],[-72.83559,7.30374]]]}},{"type":"Feature","properties":{"nombre":"Quebrada Pujaman","tipo":"río","fuente":"IDEAM"},"geometry":{"type":"Polygon","coordinates":[[[-73.3432,7.0587],[-73.3388,7.0623],[-73.3368,7.0651],[-73.3364,7.0674],[-73.3336,7.0692],[-73.3327,7.0724],[-73.3313,7.0745],[-73.3273,7.0748],[-73.3251,7.0743],[-73.3242,7.0735],[-73.324,7.072],[-73.322,7.0714],[-73.3209,7.0697],[-73.3177,7.0693],[-73.3133,7.0654],[-73.3125,7.0654],[-73.3172,7.0696],[-73.3207,7.0699],[-73.3214,7.0721],[-73.3237,7.0722],[-73.324,7.074],[-73.3252,7.0749],[-73.3288,7.0748],[-73.3304,7.0759],[-73.3329,7.073],[-73.334,7.0737],[-73.3336,7.0696],[-73.3368,7.0678],[-73.3379,7.0643],[-73.3406,7.0634],[-73.3432,7.0596],[-73.3432,7.0587]],[[-73.342,7.0599],[-73.3407,7.0627],[-73.3389,7.0637],[-73.3394,7.062],[-73.342,7.0599]]]}},{"type":"Feature","properties":{"nombre":"Rio Betania","tipo":"río","fuente":"IDEAM"},"geometry":{"type":"LineString","coordinates":[[-73.1251,7.5716],[-73.1287,7.5719],[-73.1306,7.571],[-73.1326,7.5689],[-73.1344,7.5695],[-73.1359,7.5689],[-73.1425,7.5636],[-73.1429,7.5611],[-73.1451,7.5615],[-73.1473,7.5604],[-73.1492,7.562],[-73.1498,7.56],[-73.1507,7.5592],[-73.156,7.5593],[-73.1613,7.5566],[-73.1676,7.5569],[-73.171,7.5557],[-73.1713,7.5546],[-73.1725,7.5539],[-73.1758,7.5562],[-73.1826,7.5564],[-73.1867,7.5596],[-73.1872,7.5572],[-73.1889,7.5585],[-73.1925,7.5578],[-73.1937,7.559],[-73.1936,7.5627],[-73.1964,7.5658],[-73.1956,7.5666],[-73.201,7.57],[-73.2083,7.5723],[-73.2118,7.5746],[-73.2125,7.5762],[-73.2142,7.5764],[-73.2137,7.5786],[-73.2151,7.5799],[-73.2218,7.5807],[-73.2252,7.579],[-73.2275,7.5799],[-73.2279,7.5757],[-73.2321,7.5725],[-73.2342,7.5687]]}},{"type":"Feature","properties":{"nombre":"Rio Vetas","tipo":"río","fuente":"IDEAM"},"geometry":{"type":"LineString","coordinates":[[-72.8942,7.2723],[-72.8969,7.2723],[-72.9008,7.2742],[-72.9028,7.2763],[-72.9042,7.2801],[-72.9037,7.2823],[-72.9,7.287],[-72.9002,7.2922],[-72.8991,7.298],[-72.9009,7.3076],[-72.8995,7.3107],[-72.8998,7.3163],[-72.8992,7.3181],[-72.9068,7.3272],[-72.9102,7.3283],[-72.9148,7.3325],[-72.9158,7.3327],[-72.9177,7.3351],[-72.9225,7.3353],[-72.9296,7.3386],[-72.9341,7.3433],[-72.9346,7.3479],[-72.9393,7.3475],[-72.9437,7.3456],[-72.9498,7.3456],[-72.9517,7.3488],[-72.9548,7.3487],[-72.957,7.3494],[-72.9597,7.3487],[-72.9636,7.3496],[-72.9653,7.3509],[-72.9688,7.3507],[-72.9716,7.3527],[-72.9733,7.352],[-72.9784,7.3522],[-72.9816,7.3564],[-72.9824,7.3566],[-72.984,7.3562],[-72.9854,7.3549]]}},{"type":"Feature","properties":{"nombre":"Río Cachirí","tipo":"río","fuente":"IDEAM"},"geometry":{"type":"LineString","coordinates":[[-72.9389,7.4699],[-72.9445,7.4683],[-72.9468,7.4682],[-72.9499,7.4691],[-72.952,7.468],[-72.9544,7.469],[-72.9564,7.4676],[-72.9589,7.4675],[-72.9614,7.4656],[-72.9657,7.4652],[-72.9671,7.4645],[-72.9804,7.4653],[-72.9842,7.464],[-72.9918,7.4686],[-72.9925,7.47],[-72.9961,7.4728],[-72.9994,7.4721],[-73.001,7.4728],[-73.0031,7.4723],[-73.0081,7.4728],[-73.0126,7.4718],[-73.0169,7.4726],[-73.0209,7.4716],[-73.023,7.4719],[-73.0251,7.4744],[-73.0281,7.4753],[-73.0311,7.4783],[-73.0348,7.4779],[-73.0369,7.479],[-73.039,7.4788],[-73.04,7.48],[-73.0486,7.4846],[-73.0522,7.4842],[-73.0569,7.485],[-73.0618,7.4871],[-73.0634,7.4885],[-73.066,7.4884],[-73.0693,7.4868],[-73.0725,7.4866],[-73.0767,7.4884],[-73.0835,7.49],[-73.0876,7.4895],[-73.0921,7.4876],[-73.0942,7.4877],[-73.0964,7.4848],[-73.0984,7.4835],[-73.1009,7.483],[-73.1022,7.4805],[-73.1061,7.4808],[-73.1105,7.4794],[-73.1135,7.4745],[-73.1162,7.4729],[-73.1162,7.4709],[-73.1182,7.4665],[-73.1185,7.4637],[-73.121,7.463],[-73.1212,7.4609],[-73.1233,7.4615],[-73.1283,7.4614],[-73.1296,7.4603],[-73.1315,7.4599],[-73.1323,7.4571],[-73.1334,7.4561],[-73.1374,7.4561],[-73.1404,7.4537],[-73.1427,7.4536],[-73.1438,7.4529],[-73.1468,7.4536],[-73.1476,7.4503],[-73.1495,7.4503],[-73.1507,7.4493],[-73.1525,7.4499],[-73.158,7.448],[-73.1594,7.4453],[-73.1618,7.4447],[-73.1644,7.4422],[-73.1706,7.4408],[-73.1746,7.443],[-73.176,7.4417],[-73.1783,7.441],[-73.1794,7.4393],[-73.1813,7.439],[-73.1832,7.4394],[-73.1867,7.4418],[-73.1901,7.4425],[-73.1928,7.4445],[-73.1939,7.4467],[-73.1969,7.4473],[-73.1987,7.4455],[-73.2001,7.4475],[-73.2021,7.4482],[-73.2028,7.4492],[-73.2099,7.4499],[-73.2104,7.4495],[-73.2096,7.4479],[-73.2099,7.447],[-73.2126,7.4459],[-73.214,7.4429],[-73.2193,7.4395],[-73.2187,7.4367],[-73.2217,7.4346],[-73.2218,7.4334],[-73.2209,7.4321],[-73.2225,7.4313],[-73.2245,7.4256],[-73.2259,7.424],[-73.2266,7.4199],[-73.2303,7.4161],[-73.2302,7.4134],[-73.2318,7.4127],[-73.2324,7.4096],[-73.2333,7.4088],[-73.2354,7.4084],[-73.2363,7.4038],[-73.2398,7.4032],[-73.2403,7.4004],[-73.2434,7.399],[-73.2459,7.3939],[-73.2482,7.3922],[-73.2507,7.3915],[-73.2519,7.3923],[-73.2542,7.3901],[-73.2592,7.3917],[-73.2599,7.3912],[-73.2602,7.3897],[-73.2637,7.3878],[-73.2684,7.3856],[-73.2714,7.3854],[-73.2719,7.3832],[-73.2705,7.3811],[-73.2706,7.3793],[-73.2725,7.3778],[-73.2777,7.3782],[-73.2799,7.3772],[-73.2812,7.3727],[-73.2849,7.3687],[-73.2852,7.3639],[-73.2862,7.3603],[-73.2894,7.3606],[-73.2908,7.3597],[-73.2915,7.3588],[-73.2912,7.3545],[-73.2927,7.3524],[-73.294,7.3517]]}},{"type":"Feature","properties":{"nombre":"Río Charta","tipo":"río","fuente":"IDEAM"},"geometry":{"type":"LineString","coordinates":[[-72.9022,7.2495],[-72.9071,7.2533],[-72.9164,7.2583],[-72.9194,7.2586],[-72.9221,7.2605],[-72.9278,7.2616],[-72.9325,7.2633],[-72.938,7.2662],[-72.9434,7.2702],[-72.9541,7.2741],[-72.962,7.274],[-72.9643,7.2754],[-72.9665,7.278],[-72.9699,7.2796],[-72.9748,7.2791],[-72.9768,7.2803],[-72.9792,7.2862],[-72.982,7.289],[-72.987,7.2871],[-72.9928,7.2864],[-72.9981,7.2834],[-73.0018,7.2795],[-73.0091,7.2777],[-73.0113,7.2778],[-73.0197,7.2806],[-73.0246,7.2803],[-73.0287,7.2815]]}},{"type":"Feature","properties":{"nombre":"Río Chicamocha","tipo":"río","fuente":"IDEAM"},"geometry":{"type":"Polygon","coordinates":[[[-73.0027,6.8238],[-73.0051,6.8248],[-73.0082,6.8241],[-73.0093,6.8216],[-73.0095,6.8156],[-73.0143,6.8113],[-73.0165,6.8083],[-73.0187,6.8005],[-73.0221,6.7984],[-73.0236,6.7966],[-73.0248,6.7883],[-73.0265,6.7851],[-73.0261,6.783],[-73.0264,6.7802],[-73.0271,6.7792],[-73.0289,6.7777],[-73.0315,6.7769],[-73.033,6.7743],[-73.0366,6.7706],[-73.0386,6.7663],[-73.0443,6.7604],[-73.0496,6.7597],[-73.052,6.7586],[-73.0541,6.7563],[-73.0574,6.7543],[-73.058,6.7534],[-73.0576,6.75],[-73.0587,6.7501],[-73.0608,6.7526],[-73.0587,6.7491],[-73.0588,6.7481],[-73.0638,6.7459],[-73.0665,6.7393],[-73.0752,6.7331],[-73.0798,6.7339],[-73.085,6.7328],[-73.0897,6.734],[-73.0924,6.7335],[-73.0968,6.7342],[-73.0994,6.7337],[-73.1015,6.7318],[-73.1042,6.7264],[-73.1066,6.7254],[-73.1083,6.7257],[-73.1098,6.7286],[-73.1109,6.7293],[-73.1191,6.7309],[-73.1284,6.7292],[-73.1394,6.7313],[-73.1429,6.7303],[-73.1499,6.7311],[-73.1603,6.734],[-73.1639,6.7356],[-73.1704,6.7369],[-73.1752,6.7454],[-73.1765,6.7528],[-73.1786,6.756],[-73.1839,6.7567],[-73.1862,6.76],[-73.1894,6.7624],[-73.1949,6.7625],[-73.1961,6.763],[-73.1974,6.7647],[-73.1979,6.7677],[-73.1986,6.7674],[-73.198,6.7648],[-73.1954,6.762],[-73.1908,6.7622],[-73.1892,6.7616],[-73.1864,6.7594],[-73.1837,6.756],[-73.1787,6.7555],[-73.177,6.7526],[-73.1755,6.745],[-73.1706,6.7364],[-73.1645,6.7352],[-73.1539,6.7317],[-73.1468,6.7299],[-73.1424,6.7297],[-73.1408,6.7307],[-73.1395,6.7307],[-73.1369,6.7295],[-73.1288,6.7285],[-73.1217,6.7294],[-73.1129,6.7292],[-73.1098,6.7279],[-73.109,6.7257],[-73.1073,6.7246],[-73.1049,6.7251],[-73.1028,6.7265],[-73.1011,6.7312],[-73.0993,6.7333],[-73.0914,6.7326],[-73.0893,6.7336],[-73.085,6.7323],[-73.0811,6.7332],[-73.0754,6.7322],[-73.066,6.7387],[-73.0637,6.7446],[-73.0592,6.7471],[-73.0567,6.7505],[-73.0562,6.7534],[-73.0523,6.7574],[-73.0494,6.7589],[-73.0441,6.76],[-73.0376,6.7663],[-73.0359,6.77],[-73.0344,6.7717],[-73.0262,6.7778],[-73.0241,6.7834],[-73.0248,6.7869],[-73.0236,6.7897],[-73.023,6.794],[-73.0205,6.7977],[-73.0168,6.801],[-73.0154,6.8032],[-73.0164,6.8047],[-73.0163,6.8061],[-73.0076,6.8171],[-73.0083,6.8209],[-73.008,6.8224],[-73.0065,6.8235],[-73.0037,6.8234],[-73.0014,6.8213],[-72.9998,6.8172],[-72.9979,6.8159],[-72.9939,6.8157],[-72.9866,6.8109],[-72.9845,6.8058],[-72.9844,6.8033],[-72.9855,6.7986],[-72.9838,6.7972],[-72.9834,6.7955],[-72.9821,6.7938],[-72.9858,6.7897],[-72.9867,6.7878],[-72.9869,6.7835],[-72.9881,6.7816],[-72.985,6.7774],[-72.9796,6.7755],[-72.9747,6.7684],[-72.9755,6.767],[-72.9798,6.7651],[-72.9816,6.7632],[-72.9821,6.7532],[-72.9793,6.7513],[-72.976,6.7521],[-72.9733,6.7492],[-72.9702,6.7486],[-72.9686,6.7473],[-72.9691,6.745],[-72.9714,6.7418],[-72.972,6.7398],[-72.9715,6.7351],[-72.9741,6.731],[-72.9737,6.7272],[-72.9719,6.7241],[-72.966,6.7202],[-72.9635,6.7206],[-72.9617,6.7201],[-72.9569,6.7164],[-72.9552,6.716],[-72.9515,6.7167],[-72.9468,6.711],[-72.9448,6.7104],[-72.9436,6.708],[-72.9391,6.7074],[-72.9386,6.7068],[-72.9391,6.7013],[-72.9383,6.6955],[-72.9395,6.6931],[-72.9394,6.6909],[-72.937,6.6883],[-72.9324,6.6874],[-72.9308,6.6847],[-72.9236,6.6798],[-72.9196,6.6788],[-72.9157,6.6763],[-72.9132,6.6758],[-72.9121,6.6749],[-72.9073,6.6751],[-72.9039,6.6735],[-72.8993,6.6697],[-72.8967,6.6692],[-72.8952,6.6648],[-72.8938,6.6629],[-72.8856,6.6577],[-72.8837,6.655],[-72.885,6.6498],[-72.879,6.641],[-72.8783,6.6355],[-72.8774,6.6346],[-72.8754,6.6344],[-72.8734,6.6327],[-72.8732,6.6266],[-72.8714,6.6231],[-72.8684,6.6203],[-72.8695,6.6138],[-72.8671,6.6116],[-72.8669,6.6087],[-72.8627,6.608],[-72.8592,6.6035],[-72.855,6.6027],[-72.8525,6.6001],[-72.8463,6.6],[-72.8524,6.6006],[-72.8542,6.603],[-72.8581,6.6039],[-72.863,6.6096],[-72.8646,6.6087],[-72.8662,6.6091],[-72.8662,6.6122],[-72.8688,6.6144],[-72.8674,6.6191],[-72.8679,6.6218],[-72.8691,6.6233],[-72.8706,6.6233],[-72.8724,6.6266],[-72.8725,6.6348],[-72.8737,6.6367],[-72.8757,6.6375],[-72.8778,6.6395],[-72.8782,6.6446],[-72.8813,6.6455],[-72.8821,6.6462],[-72.8823,6.6479],[-72.8844,6.6498],[-72.8827,6.6533],[-72.8845,6.6571],[-72.8901,6.6614],[-72.8943,6.6669],[-72.8946,6.6691],[-72.9008,6.6742],[-72.9075,6.6763],[-72.9125,6.6761],[-72.9165,6.6795],[-72.9244,6.6827],[-72.9291,6.6888],[-72.938,6.6902],[-72.9388,6.691],[-72.9387,6.6929],[-72.9376,6.695],[-72.9384,6.7028],[-72.9366,6.7053],[-72.9384,6.7076],[-72.9417,6.7081],[-72.9477,6.7126],[-72.9514,6.7173],[-72.9556,6.7164],[-72.9619,6.7209],[-72.9661,6.7209],[-72.9686,6.7273],[-72.9721,6.7276],[-72.972,6.7304],[-72.9703,6.7317],[-72.9703,6.7408],[-72.9667,6.7452],[-72.9664,6.7486],[-72.9685,6.7508],[-72.9735,6.7505],[-72.9761,6.7529],[-72.9799,6.7519],[-72.9819,6.7538],[-72.9812,6.7612],[-72.9746,6.7672],[-72.9742,6.7691],[-72.9791,6.7762],[-72.984,6.7785],[-72.9843,6.7793],[-72.9842,6.7908],[-72.9816,6.7927],[-72.9815,6.7939],[-72.9832,6.7975],[-72.983,6.8004],[-72.9836,6.8018],[-72.984,6.8066],[-72.9856,6.8106],[-72.992,6.8148],[-72.993,6.8163],[-72.997,6.819],[-72.9983,6.8211],[-73.0005,6.8216],[-73.0027,6.8238]],[[-72.9981,6.8169],[-73.0003,6.8196],[-72.9995,6.821],[-72.9981,6.8199],[-72.9974,6.8175],[-72.996,6.8167],[-72.9981,6.8169]],[[-72.9859,6.784],[-72.9859,6.7877],[-72.9849,6.7888],[-72.9859,6.7822],[-72.9859,6.784]],[[-73.0248,6.7827],[-73.026,6.7838],[-73.0249,6.7855],[-73.0248,6.7827]],[[-72.9863,6.7828],[-72.986,6.78],[-72.9878,6.7818],[-72.9866,6.7833],[-72.9863,6.7828]],[[-73.0181,6.8013],[-73.0178,6.8032],[-73.017,6.8039],[-73.0171,6.8014],[-73.0182,6.8006],[-73.0181,6.8013]],[[-73.031,6.7755],[-73.0303,6.7768],[-73.0289,6.7769],[-73.0308,6.7748],[-73.031,6.7755]],[[-72.9845,6.7994],[-72.9851,6.8],[-72.9841,6.8014],[-72.984,6.799],[-72.9845,6.7994]],[[-73.0234,6.795],[-73.0231,6.7967],[-73.0217,6.7976],[-73.0234,6.795]],[[-73.1191,6.73],[-73.1212,6.7301],[-73.1197,6.7305],[-73.1191,6.73]]]}},{"type":"Feature","properties":{"nombre":"Río Cáchira del Espíritu Santo","tipo":"río","fuente":"IDEAM"},"geometry":{"type":"LineString","coordinates":[[-73.012,7.7647],[-73.0154,7.7637],[-73.0182,7.7618],[-73.0223,7.7572],[-73.0243,7.7526],[-73.0269,7.7504],[-73.0333,7.7485],[-73.0367,7.746],[-73.0421,7.744],[-73.0464,7.7435],[-73.0516,7.7394],[-73.0562,7.7332],[-73.0615,7.7326],[-73.067,7.7296],[-73.0708,7.7288],[-73.0713,7.7267],[-73.0737,7.723],[-73.0728,7.7183],[-73.0729,7.7139],[-73.0717,7.7103],[-73.0735,7.7027],[-73.0765,7.7004],[-73.0782,7.7006],[-73.0796,7.6999],[-73.0831,7.6968],[-73.0884,7.6892],[-73.0918,7.6865],[-73.0963,7.68],[-73.1061,7.6777],[-73.1091,7.6784],[-73.1122,7.6778],[-73.1152,7.6799],[-73.1165,7.6785],[-73.1166,7.6744],[-73.1187,7.6725],[-73.1205,7.6724],[-73.123,7.6744],[-73.1248,7.674],[-73.1255,7.6724],[-73.1255,7.6662],[-73.1252,7.6639],[-73.123,7.6608],[-73.1232,7.6572],[-73.1243,7.6561],[-73.127,7.6562],[-73.1298,7.655],[-73.1309,7.6521],[-73.1325,7.6526],[-73.1347,7.655],[-73.1358,7.6551],[-73.1395,7.6515],[-73.1403,7.6492],[-73.1438,7.6477],[-73.1475,7.6449],[-73.1526,7.6473],[-73.1554,7.6515],[-73.1569,7.6525],[-73.1625,7.6498],[-73.1658,7.6508],[-73.1684,7.6501],[-73.1726,7.6513],[-73.1772,7.6502],[-73.1822,7.6502],[-73.1864,7.6483],[-73.1902,7.648],[-73.1927,7.649],[-73.1958,7.6466],[-73.199,7.6485],[-73.2018,7.6475],[-73.2057,7.6492],[-73.2104,7.6492],[-73.2123,7.6483],[-73.2147,7.6487],[-73.219,7.6476],[-73.2216,7.6484],[-73.2279,7.6459],[-73.2364,7.6451],[-73.2386,7.6435],[-73.2436,7.643],[-73.2475,7.6435],[-73.2501,7.6413],[-73.2527,7.6413],[-73.2545,7.6405],[-73.2552,7.6392],[-73.2538,7.6365],[-73.2531,7.6284],[-73.2565,7.6294],[-73.262,7.6294],[-73.2621,7.6324],[-73.2629,7.6331],[-73.2686,7.6321],[-73.2696,7.6313],[-73.2737,7.6309],[-73.2808,7.634],[-73.2818,7.6336],[-73.283,7.6312],[-73.2855,7.6323],[-73.2866,7.6307],[-73.2891,7.6294],[-73.2921,7.6295],[-73.297,7.6245],[-73.3003,7.6262],[-73.3006,7.623],[-73.3023,7.6172],[-73.3033,7.6157],[-73.3054,7.6159],[-73.3065,7.6151],[-73.3064,7.6107],[-73.3092,7.6068],[-73.3101,7.604],[-73.3131,7.6039],[-73.3197,7.5997],[-73.3181,7.5924],[-73.3202,7.5868],[-73.3195,7.5825],[-73.3221,7.5791],[-73.3202,7.5744],[-73.3211,7.5732],[-73.3226,7.5726],[-73.3226,7.571],[-73.3211,7.5695],[-73.3222,7.5661],[-73.3262,7.5633],[-73.3312,7.5579],[-73.3368,7.5572],[-73.3423,7.5548],[-73.3458,7.5561],[-73.3483,7.5551],[-73.3498,7.5559],[-73.3509,7.5607],[-73.3533,7.5637],[-73.3597,7.5647],[-73.3611,7.5645],[-73.3625,7.5633],[-73.3677,7.5625],[-73.3746,7.567],[-73.3867,7.5823],[-73.392,7.5815],[-73.395,7.5797],[-73.3968,7.5766],[-73.3998,7.5751],[-73.3996,7.5744],[-73.3956,7.5725],[-73.3941,7.5702],[-73.3941,7.5685],[-73.3956,7.567],[-73.3998,7.5672],[-73.4023,7.5668],[-73.4058,7.5651],[-73.4095,7.565],[-73.411,7.5662],[-73.4139,7.5665],[-73.4199,7.5701],[-73.4237,7.5702],[-73.4269,7.5679],[-73.4277,7.569],[-73.4277,7.5708],[-73.4331,7.5716],[-73.4362,7.5713],[-73.4395,7.574],[-73.4519,7.5755],[-73.4569,7.5731],[-73.4598,7.5764],[-73.4616,7.5755],[-73.4659,7.5749],[-73.4708,7.5773],[-73.4717,7.5786],[-73.4735,7.5789],[-73.4756,7.5845],[-73.4771,7.5859],[-73.4789,7.5865],[-73.4823,7.5864],[-73.4855,7.5876],[-73.4872,7.5918],[-73.4889,7.5914],[-73.4893,7.5939],[-73.4906,7.5946],[-73.4924,7.5939],[-73.4932,7.5943],[-73.4936,7.5976],[-73.4946,7.5974],[-73.4952,7.5951],[-73.4961,7.5945],[-73.5014,7.5976],[-73.5021,7.5989],[-73.5032,7.5981],[-73.5036,7.5965],[-73.5053,7.5969],[-73.506,7.5997],[-73.509,7.6008],[-73.5088,7.6028],[-73.5095,7.6047],[-73.5079,7.6098],[-73.5062,7.6108],[-73.5064,7.6118],[-73.5105,7.6123],[-73.511,7.6143],[-73.5131,7.6157],[-73.5169,7.6213],[-73.5177,7.6213],[-73.519,7.6194],[-73.5203,7.6201],[-73.5208,7.6244],[-73.5181,7.6252],[-73.5187,7.6293],[-73.5164,7.6315],[-73.5175,7.6328],[-73.5162,7.6342],[-73.5164,7.637],[-73.519,7.6393],[-73.5177,7.6416],[-73.5196,7.6418],[-73.5219,7.6407],[-73.5208,7.6433],[-73.5211,7.6443],[-73.5235,7.6439],[-73.5267,7.6447],[-73.5268,7.6471],[-73.53,7.649],[-73.5311,7.6526],[-73.5343,7.6525],[-73.5353,7.6532],[-73.5356,7.6547],[-73.5342,7.6585],[-73.5362,7.6597],[-73.537,7.6632],[-73.543,7.6623],[-73.5456,7.6646],[-73.5479,7.6654],[-73.5476,7.6674],[-73.5484,7.6683],[-73.554,7.6694],[-73.5543,7.6712],[-73.5555,7.6726],[-73.5589,7.6724],[-73.5579,7.6762],[-73.5524,7.6772],[-73.5504,7.6801],[-73.5474,7.6792],[-73.5463,7.6796],[-73.5454,7.6811],[-73.5454,7.6857],[-73.549,7.6895],[-73.5507,7.6928],[-73.5509,7.6968],[-73.5522,7.6997],[-73.5525,7.7024],[-73.5571,7.7047],[-73.5592,7.709],[-73.5619,7.7113],[-73.5639,7.7118],[-73.5654,7.713],[-73.568,7.7133],[-73.5675,7.7187],[-73.5716,7.7222],[-73.5722,7.7259],[-73.5742,7.7275],[-73.5761,7.7278],[-73.5767,7.7273],[-73.5769,7.7254],[-73.5792,7.7229],[-73.5821,7.7221],[-73.5844,7.723],[-73.5865,7.723],[-73.5885,7.7226],[-73.5902,7.7208],[-73.5926,7.7224],[-73.5937,7.7223],[-73.5947,7.7241],[-73.5996,7.7277],[-73.6057,7.7284],[-73.6071,7.7301],[-73.6081,7.7298],[-73.6104,7.731],[-73.6124,7.7302],[-73.6138,7.7312],[-73.6136,7.7323],[-73.6151,7.7356],[-73.6195,7.7375],[-73.621,7.7401],[-73.624,7.7396],[-73.6252,7.7412],[-73.6266,7.7411],[-73.6272,7.7421],[-73.632,7.7419],[-73.6322,7.7442],[-73.6334,7.7453],[-73.634,7.7472],[-73.6335,7.7491],[-73.6341,7.7498],[-73.6364,7.7498],[-73.6393,7.7513],[-73.643,7.7513],[-73.6446,7.7519],[-73.6463,7.756],[-73.6504,7.7614],[-73.6522,7.7618],[-73.6535,7.7666],[-73.6535,7.7695],[-73.6558,7.7719],[-73.6577,7.78],[-73.6586,7.7807],[-73.661,7.7802],[-73.6613,7.7824],[-73.6592,7.7826],[-73.6589,7.7851],[-73.6598,7.7874],[-73.6595,7.7892],[-73.6614,7.7915],[-73.661,7.7933],[-73.6628,7.7941],[-73.6625,7.7958],[-73.6646,7.7959],[-73.6649,7.7974],[-73.6665,7.7978],[-73.669,7.8004],[-73.6693,7.8041],[-73.6681,7.8066],[-73.6681,7.8086],[-73.6688,7.8096],[-73.6685,7.8116],[-73.6661,7.8161],[-73.6664,7.8172],[-73.6649,7.8192],[-73.6631,7.8186],[-73.6625,7.8192],[-73.6638,7.8204],[-73.6659,7.8208],[-73.6658,7.8222],[-73.6649,7.8234],[-73.6668,7.8246],[-73.6662,7.8272],[-73.6691,7.831],[-73.6688,7.8322],[-73.6672,7.8332],[-73.6663,7.8361],[-73.6673,7.8368],[-73.6697,7.836],[-73.6705,7.8365],[-73.6715,7.8389],[-73.6698,7.8394],[-73.6696,7.8406],[-73.6737,7.843],[-73.6733,7.8438],[-73.671,7.8446],[-73.6711,7.8454],[-73.6723,7.8457],[-73.6753,7.8447],[-73.6766,7.8454],[-73.6741,7.8473],[-73.6739,7.8484],[-73.6722,7.8486],[-73.6719,7.8501],[-73.6709,7.8505],[-73.6701,7.8521],[-73.6716,7.8529],[-73.6725,7.8556],[-73.6707,7.8562],[-73.6701,7.8576],[-73.6682,7.8587],[-73.6682,7.8605]]}},{"type":"Feature","properties":{"nombre":"Río Cáraba","tipo":"río","fuente":"IDEAM"},"geometry":{"type":"LineString","coordinates":[[-72.8442,7.1315],[-72.8405,7.1287],[-72.8368,7.1307],[-72.8348,7.1331],[-72.8327,7.1337],[-72.8292,7.1331],[-72.8283,7.1335],[-72.8272,7.1357],[-72.8275,7.1395],[-72.8283,7.1411],[-72.8276,7.1443],[-72.8257,7.1465],[-72.8222,7.1469],[-72.8207,7.1491],[-72.8169,7.1487],[-72.8156,7.1495],[-72.8144,7.1535],[-72.8117,7.1555],[-72.8115,7.1571],[-72.8133,7.1623],[-72.8125,7.1647],[-72.8144,7.1659],[-72.8141,7.1677],[-72.8165,7.1685],[-72.8182,7.1703],[-72.8199,7.1741],[-72.82,7.1777],[-72.825,7.1801],[-72.829,7.1851],[-72.8312,7.1911],[-72.831,7.1929],[-72.8328,7.1963],[-72.8329,7.1983],[-72.832,7.2006],[-72.8329,7.2042],[-72.8326,7.2066],[-72.8304,7.2096],[-72.8262,7.2121],[-72.8232,7.216],[-72.8232,7.2173],[-72.8244,7.2184],[-72.8234,7.2201],[-72.8212,7.2217],[-72.8189,7.2219],[-72.8116,7.2247],[-72.806,7.2251],[-72.8061,7.2225],[-72.8053,7.2196],[-72.8022,7.2147],[-72.8008,7.2135],[-72.7974,7.2139],[-72.7955,7.2115],[-72.7925,7.2104],[-72.7907,7.2084],[-72.7884,7.2087],[-72.7869,7.2073],[-72.7851,7.2078],[-72.7831,7.207],[-72.7806,7.2048],[-72.7741,7.2033],[-72.7689,7.1989],[-72.7652,7.1974],[-72.7664,7.1892],[-72.765,7.1883],[-72.7626,7.1884],[-72.758,7.1854],[-72.755,7.1847],[-72.7522,7.1829],[-72.75,7.1831],[-72.7482,7.1817],[-72.7454,7.1808],[-72.7432,7.1743],[-72.743,7.1704],[-72.7388,7.1675],[-72.7348,7.1636],[-72.7318,7.1636],[-72.7248,7.166],[-72.7232,7.1683],[-72.7215,7.1691],[-72.7207,7.1707],[-72.7174,7.173],[-72.7142,7.1731],[-72.7126,7.1744],[-72.711,7.1736],[-72.7094,7.1759],[-72.7077,7.1767],[-72.7049,7.1759],[-72.7039,7.178],[-72.7026,7.1784],[-72.7002,7.1811],[-72.6944,7.1809],[-72.6929,7.1835],[-72.6901,7.1833],[-72.6879,7.1851],[-72.6851,7.1841],[-72.6842,7.1858],[-72.6806,7.186],[-72.6758,7.1896],[-72.6695,7.1893],[-72.6678,7.1873],[-72.6599,7.1881],[-72.6578,7.1859],[-72.6542,7.1853]]}},{"type":"Feature","properties":{"nombre":"Río El Hato","tipo":"río","fuente":"IDEAM"},"geometry":{"type":"LineString","coordinates":[[-73.0085,7.101],[-73.0118,7.1017],[-73.0138,7.1009],[-73.0193,7.0935],[-73.0206,7.088],[-73.0229,7.083],[-73.0204,7.0817],[-73.0209,7.0797],[-73.0195,7.0753],[-73.0202,7.0715],[-73.0214,7.0701],[-73.0203,7.067],[-73.0222,7.0636],[-73.0226,7.0615],[-73.022,7.0568],[-73.0248,7.0546],[-73.0258,7.0527],[-73.0269,7.0459],[-73.029,7.0428],[-73.0295,7.0407],[-73.0321,7.0399],[-73.0321,7.0361],[-73.0363,7.0301],[-73.0371,7.0268],[-73.0407,7.0232],[-73.0424,7.0235],[-73.0442,7.0226],[-73.0445,7.0206],[-73.0433,7.0183],[-73.0433,7.0166],[-73.047,7.0157],[-73.0498,7.0138],[-73.056,7.0117],[-73.0588,7.0079],[-73.0622,7.0062],[-73.064,7.0045],[-73.0661,7.0058],[-73.0675,7.0058],[-73.0687,7.0036],[-73.0712,7.003],[-73.0726,7.0036],[-73.0747,7.0033],[-73.0756,7.0015],[-73.078,6.9995],[-73.0781,6.9965],[-73.0823,6.9916],[-73.0846,6.9905],[-73.0857,6.9875],[-73.0858,6.9846],[-73.0875,6.9828],[-73.0875,6.9811],[-73.0885,6.9792],[-73.0885,6.976],[-73.0923,6.9714],[-73.0922,6.9699]]}},{"type":"Feature","properties":{"nombre":"Río Frío","tipo":"río","fuente":"IDEAM"},"geometry":{"type":"LineString","coordinates":[[-73.0194,7.1003],[-73.0188,7.1071],[-73.0194,7.1091],[-73.0196,7.1153],[-73.0188,7.1231],[-73.0204,7.1295],[-73.0203,7.1324],[-73.0216,7.1346],[-73.0236,7.136],[-73.0232,7.1383],[-73.0247,7.1407],[-73.0282,7.1399],[-73.0316,7.1372],[-73.0332,7.1368],[-73.0352,7.1342],[-73.0408,7.1318],[-73.0421,7.1304],[-73.0431,7.1279],[-73.0477,7.1237],[-73.0483,7.1221],[-73.0534,7.1196],[-73.0512,7.1165],[-73.0508,7.1149],[-73.0515,7.1135],[-73.0534,7.1126],[-73.0517,7.1082],[-73.0533,7.1048],[-73.0548,7.1035],[-73.0544,7.1006],[-73.056,7.0958],[-73.0548,7.0936],[-73.0565,7.0916],[-73.0554,7.0889],[-73.0566,7.0877],[-73.0598,7.0864],[-73.062,7.0844],[-73.0623,7.0827],[-73.0615,7.082],[-73.063,7.0805],[-73.0636,7.078],[-73.0672,7.0741],[-73.0684,7.0744],[-73.07,7.0736],[-73.0721,7.0688],[-73.0741,7.068],[-73.0758,7.0682],[-73.0787,7.0665],[-73.0809,7.0663],[-73.0851,7.067],[-73.0875,7.0688],[-73.0892,7.0691],[-73.093,7.0673],[-73.0957,7.0652],[-73.0991,7.0654],[-73.1033,7.063],[-73.1121,7.061],[-73.1132,7.0625],[-73.1182,7.065],[-73.1208,7.0653],[-73.1235,7.0667],[-73.1262,7.064],[-73.1296,7.0638],[-73.1303,7.0614],[-73.1335,7.0623],[-73.1351,7.0617],[-73.1372,7.063],[-73.142,7.0605],[-73.1441,7.0609],[-73.1482,7.0604],[-73.1493,7.0594],[-73.1518,7.0592],[-73.1533,7.0599],[-73.155,7.0582],[-73.156,7.0587],[-73.1568,7.0603],[-73.1586,7.0603],[-73.1605,7.0618],[-73.1637,7.0613],[-73.1653,7.0634],[-73.1651,7.0657],[-73.1664,7.0669]]}},{"type":"Feature","properties":{"nombre":"Río Jordán","tipo":"río","fuente":"IDEAM"},"geometry":{"type":"LineString","coordinates":[[-72.9219,7.1418],[-72.9195,7.138],[-72.9171,7.137],[-72.9153,7.1378],[-72.9141,7.1394],[-72.9129,7.1433],[-72.9059,7.1497],[-72.9009,7.1553],[-72.8996,7.1576],[-72.8919,7.1659],[-72.8872,7.17],[-72.8855,7.1729],[-72.8845,7.1809],[-72.8821,7.1822],[-72.8807,7.1841],[-72.8794,7.1849],[-72.877,7.185],[-72.876,7.1861],[-72.8757,7.185],[-72.8745,7.1849],[-72.8717,7.1868],[-72.8724,7.1876],[-72.8721,7.188],[-72.871,7.1876],[-72.8706,7.1853],[-72.8658,7.1839],[-72.8673,7.186],[-72.8671,7.1877],[-72.8662,7.1865],[-72.8657,7.1875],[-72.8649,7.1879],[-72.8637,7.1874],[-72.8629,7.1882],[-72.8611,7.1871],[-72.8607,7.189],[-72.8597,7.188],[-72.8578,7.188],[-72.8567,7.1887],[-72.8562,7.1869],[-72.8551,7.1884],[-72.8527,7.1888],[-72.8526,7.1904],[-72.8513,7.19],[-72.8493,7.1915],[-72.8483,7.1912],[-72.8443,7.1943],[-72.8433,7.1943],[-72.8431,7.1932],[-72.842,7.1928]]}},{"type":"Feature","properties":{"nombre":"Río Lebrija","tipo":"río","fuente":"IDEAM"},"geometry":{"type":"Polygon","coordinates":[[[-73.69625,7.95],[-73.6954,7.9497],[-73.68275,7.95],[-73.683,7.9489],[-73.6848,7.9482],[-73.6861,7.9464],[-73.6857,7.944],[-73.6842,7.942],[-73.6838,7.9395],[-73.6817,7.941],[-73.6756,7.9429],[-73.6748,7.9442],[-73.6745,7.9469],[-73.6733,7.9482],[-73.6698,7.9498],[-73.6656,7.9493],[-73.6644,7.9482],[-73.6635,7.9457],[-73.6614,7.9446],[-73.6614,7.9402],[-73.6562,7.9319],[-73.6555,7.9221],[-73.6565,7.92],[-73.6563,7.9189],[-73.6527,7.9184],[-73.6507,7.9141],[-73.6512,7.9101],[-73.6522,7.9081],[-73.6524,7.9045],[-73.6577,7.8981],[-73.658,7.8936],[-73.6597,7.8905],[-73.6601,7.8871],[-73.659,7.8842],[-73.661,7.8785],[-73.6589,7.8737],[-73.6596,7.8695],[-73.6636,7.8687],[-73.6669,7.8646],[-73.6676,7.8619],[-73.669,7.8604],[-73.6724,7.86],[-73.6748,7.858],[-73.6764,7.8588],[-73.6774,7.8585],[-73.6782,7.8555],[-73.6775,7.851],[-73.6779,7.8497],[-73.682,7.8464],[-73.6867,7.84],[-73.6901,7.8379],[-73.6915,7.8354],[-73.6904,7.8262],[-73.695,7.8246],[-73.6973,7.8254],[-73.6988,7.8273],[-73.7009,7.8278],[-73.7023,7.8263],[-73.7007,7.8214],[-73.7022,7.8195],[-73.7061,7.8172],[-73.7092,7.8188],[-73.7132,7.8189],[-73.7129,7.816],[-73.7136,7.8124],[-73.7128,7.8091],[-73.711,7.8072],[-73.7136,7.8049],[-73.7133,7.8002],[-73.7154,7.8],[-73.7188,7.7965],[-73.722,7.7949],[-73.7258,7.7946],[-73.7298,7.7988],[-73.7313,7.8015],[-73.7336,7.8029],[-73.7371,7.8021],[-73.7393,7.8007],[-73.742,7.7979],[-73.7419,7.7944],[-73.7432,7.79],[-73.743,7.7887],[-73.7416,7.7872],[-73.7378,7.7858],[-73.7378,7.7838],[-73.7403,7.7775],[-73.743,7.7789],[-73.7442,7.7788],[-73.7474,7.7775],[-73.7496,7.7735],[-73.7552,7.7755],[-73.7597,7.7741],[-73.762,7.7717],[-73.7622,7.7705],[-73.7589,7.7687],[-73.7632,7.7679],[-73.7638,7.7672],[-73.7633,7.7664],[-73.7589,7.7669],[-73.7569,7.7658],[-73.7563,7.7646],[-73.757,7.7623],[-73.7606,7.7626],[-73.762,7.7613],[-73.7618,7.7594],[-73.7609,7.7585],[-73.7582,7.7589],[-73.757,7.7577],[-73.7586,7.751],[-73.7575,7.7503],[-73.7528,7.7514],[-73.7566,7.7495],[-73.7581,7.747],[-73.7581,7.7456],[-73.7573,7.7447],[-73.7547,7.7438],[-73.7536,7.7427],[-73.7538,7.7413],[-73.7558,7.7379],[-73.7557,7.7365],[-73.7539,7.7343],[-73.7538,7.7326],[-73.7553,7.7301],[-73.7597,7.7283],[-73.7598,7.7259],[-73.7571,7.7243],[-73.7564,7.7227],[-73.7587,7.7204],[-73.7606,7.7171],[-73.7596,7.7136],[-73.7564,7.7126],[-73.7553,7.7097],[-73.7564,7.7076],[-73.7599,7.7053],[-73.7616,7.7028],[-73.7603,7.6985],[-73.7601,7.6927],[-73.7581,7.6891],[-73.7553,7.6865],[-73.755,7.6809],[-73.7519,7.6794],[-73.7493,7.6807],[-73.7473,7.6808],[-73.7451,7.6764],[-73.743,7.6749],[-73.7387,7.6752],[-73.7359,7.6767],[-73.7339,7.6766],[-73.731,7.6728],[-73.7268,7.6714],[-73.7282,7.6668],[-73.7283,7.6652],[-73.7275,7.6637],[-73.7257,7.6624],[-73.7191,7.66],[-73.7156,7.6611],[-73.7133,7.6644],[-73.7114,7.6641],[-73.7089,7.6652],[-73.7073,7.6689],[-73.706,7.67],[-73.703,7.6707],[-73.6991,7.6731],[-73.6975,7.6734],[-73.696,7.6724],[-73.6945,7.6694],[-73.6929,7.6636],[-73.6923,7.6575],[-73.69,7.6563],[-73.6865,7.6578],[-73.6847,7.6575],[-73.6842,7.6569],[-73.684,7.6554],[-73.6866,7.6523],[-73.6864,7.6502],[-73.6846,7.6497],[-73.6829,7.6502],[-73.6794,7.6523],[-73.6781,7.6523],[-73.6772,7.6515],[-73.6779,7.65],[-73.6808,7.6481],[-73.6817,7.6466],[-73.6818,7.6458],[-73.6805,7.644],[-73.6777,7.6433],[-73.6723,7.646],[-73.67,7.642],[-73.6685,7.6412],[-73.6659,7.643],[-73.6638,7.6478],[-73.6616,7.6482],[-73.6605,7.6476],[-73.6598,7.6467],[-73.66,7.6437],[-73.663,7.6377],[-73.6619,7.6339],[-73.661,7.6331],[-73.6595,7.6332],[-73.657,7.6352],[-73.6552,7.6358],[-73.6535,7.6353],[-73.6531,7.6342],[-73.6547,7.6306],[-73.6546,7.6279],[-73.653,7.6238],[-73.6535,7.6226],[-73.656,7.6224],[-73.658,7.6245],[-73.6593,7.6245],[-73.6597,7.6237],[-73.6583,7.6184],[-73.6593,7.6137],[-73.6583,7.6125],[-73.6527,7.6137],[-73.6502,7.6126],[-73.6524,7.6073],[-73.6514,7.6037],[-73.6481,7.6032],[-73.6453,7.606],[-73.644,7.6089],[-73.6413,7.6099],[-73.6407,7.6096],[-73.6404,7.605],[-73.6384,7.6022],[-73.6364,7.6011],[-73.6332,7.6024],[-73.6318,7.6058],[-73.6302,7.6057],[-73.6272,7.602],[-73.626,7.6014],[-73.6237,7.6016],[-73.6227,7.6023],[-73.6203,7.6079],[-73.619,7.6051],[-73.6175,7.6038],[-73.6124,7.6029],[-73.6119,7.6008],[-73.6104,7.599],[-73.6061,7.5985],[-73.603,7.5992],[-73.6007,7.5952],[-73.5988,7.5941],[-73.5913,7.5939],[-73.5891,7.5923],[-73.5837,7.5906],[-73.5779,7.5912],[-73.5659,7.5881],[-73.5644,7.5858],[-73.563,7.5811],[-73.5587,7.5768],[-73.5566,7.5713],[-73.5523,7.5699],[-73.5519,7.5692],[-73.5522,7.5676],[-73.5543,7.5638],[-73.5543,7.561],[-73.553,7.5566],[-73.5538,7.5528],[-73.5535,7.5507],[-73.5502,7.5475],[-73.5471,7.547],[-73.5419,7.5489],[-73.5396,7.5484],[-73.5394,7.5469],[-73.5418,7.5404],[-73.5415,7.5377],[-73.5402,7.5354],[-73.5379,7.5337],[-73.5307,7.5329],[-73.5305,7.5306],[-73.5284,7.5263],[-73.5287,7.5217],[-73.5275,7.5189],[-73.5214,7.5134],[-73.5151,7.5106],[-73.5146,7.5067],[-73.5123,7.5041],[-73.5103,7.5038],[-73.5082,7.5048],[-73.5055,7.5072],[-73.5007,7.5078],[-73.4947,7.5055],[-73.4879,7.5058],[-73.4825,7.5024],[-73.4798,7.5022],[-73.4779,7.5008],[-73.4779,7.4969],[-73.4773,7.4956],[-73.4747,7.4943],[-73.4719,7.4939],[-73.47,7.492],[-73.4701,7.4905],[-73.4737,7.4868],[-73.4745,7.4845],[-73.4735,7.4815],[-73.4707,7.4797],[-73.4696,7.4797],[-73.4654,7.4822],[-73.4612,7.4825],[-73.4583,7.4812],[-73.4578,7.4797],[-73.4586,7.478],[-73.4634,7.4749],[-73.465,7.4724],[-73.4658,7.4692],[-73.4648,7.4674],[-73.4629,7.4662],[-73.4563,7.466],[-73.4535,7.4666],[-73.4528,7.466],[-73.4521,7.4628],[-73.4541,7.4582],[-73.4542,7.4555],[-73.4535,7.454],[-73.4513,7.4519],[-73.4475,7.4512],[-73.4438,7.4535],[-73.4412,7.4527],[-73.4404,7.4511],[-73.4408,7.4494],[-73.4437,7.4475],[-73.4453,7.4448],[-73.4457,7.4423],[-73.4451,7.4391],[-73.4439,7.4369],[-73.4396,7.4334],[-73.4346,7.4227],[-73.4296,7.4186],[-73.4246,7.41],[-73.4209,7.4063],[-73.4168,7.4051],[-73.4133,7.407],[-73.4115,7.4102],[-73.4116,7.4128],[-73.4111,7.4139],[-73.4089,7.4152],[-73.407,7.4142],[-73.4064,7.4059],[-73.4044,7.4033],[-73.4009,7.4012],[-73.3978,7.4014],[-73.3959,7.4032],[-73.3952,7.406],[-73.394,7.4076],[-73.3925,7.4078],[-73.3907,7.407],[-73.3882,7.4048],[-73.3847,7.4052],[-73.3839,7.4091],[-73.3852,7.4132],[-73.3823,7.4144],[-73.38,7.4111],[-73.3796,7.4079],[-73.3781,7.4066],[-73.3758,7.4066],[-73.3741,7.4072],[-73.373,7.4104],[-73.3696,7.4137],[-73.371,7.4204],[-73.3709,7.4215],[-73.3689,7.4239],[-73.3662,7.424],[-73.3597,7.4217],[-73.3557,7.4229],[-73.3551,7.4269],[-73.3542,7.427],[-73.3527,7.426],[-73.3524,7.4213],[-73.3514,7.42],[-73.3486,7.4186],[-73.3478,7.4169],[-73.3486,7.4118],[-73.3498,7.4101],[-73.3484,7.4043],[-73.3488,7.3995],[-73.3437,7.3968],[-73.343,7.3958],[-73.3436,7.3897],[-73.3424,7.3871],[-73.3425,7.3856],[-73.344,7.3813],[-73.3479,7.3762],[-73.3488,7.3742],[-73.3489,7.3719],[-73.3469,7.3692],[-73.3458,7.3572],[-73.3415,7.3553],[-73.3404,7.3533],[-73.3471,7.3438],[-73.3473,7.3413],[-73.3463,7.3379],[-73.3415,7.3358],[-73.332,7.3348],[-73.3275,7.3355],[-73.3256,7.3374],[-73.3243,7.3423],[-73.3193,7.3446],[-73.3189,7.3472],[-73.318,7.348],[-73.3138,7.3503],[-73.3097,7.3508],[-73.3076,7.3558],[-73.3045,7.3591],[-73.3027,7.3582],[-73.3032,7.3562],[-73.3046,7.3548],[-73.3048,7.3531],[-73.3041,7.3523],[-73.3026,7.3519],[-73.2969,7.3524],[-73.295,7.3519],[-73.2934,7.3509],[-73.2927,7.3487],[-73.2883,7.3477],[-73.2868,7.3427],[-73.2885,7.3397],[-73.2887,7.3374],[-73.2874,7.3354],[-73.2831,7.3331],[-73.2786,7.3325],[-73.2794,7.3285],[-73.2791,7.3264],[-73.278,7.3254],[-73.2786,7.3271],[-73.2777,7.3321],[-73.278,7.3341],[-73.2798,7.3342],[-73.2808,7.3334],[-73.2824,7.3337],[-73.287,7.3363],[-73.288,7.3378],[-73.2851,7.3433],[-73.2869,7.3472],[-73.2894,7.3499],[-73.2921,7.3498],[-73.2931,7.3512],[-73.2958,7.3527],[-73.3038,7.3533],[-73.3037,7.3545],[-73.3014,7.3579],[-73.3016,7.3586],[-73.3043,7.36],[-73.306,7.3597],[-73.309,7.3572],[-73.3105,7.3525],[-73.3138,7.3517],[-73.3183,7.3487],[-73.3197,7.347],[-73.3196,7.3456],[-73.3204,7.3446],[-73.3249,7.3423],[-73.3256,7.3384],[-73.3275,7.336],[-73.3336,7.3357],[-73.3407,7.3363],[-73.345,7.3378],[-73.3462,7.3393],[-73.3463,7.3438],[-73.3401,7.3536],[-73.3416,7.3561],[-73.3453,7.3576],[-73.3461,7.3685],[-73.3484,7.373],[-73.3479,7.3753],[-73.347,7.3765],[-73.3423,7.3802],[-73.3415,7.3873],[-73.3427,7.39],[-73.342,7.3956],[-73.3431,7.3974],[-73.3455,7.3982],[-73.348,7.4008],[-73.3482,7.41],[-73.3474,7.4183],[-73.3518,7.4224],[-73.352,7.4266],[-73.354,7.4294],[-73.3548,7.4298],[-73.3563,7.429],[-73.3559,7.425],[-73.3566,7.4232],[-73.3602,7.4227],[-73.3674,7.4251],[-73.37,7.4241],[-73.3718,7.4218],[-73.3702,7.4141],[-73.3735,7.4111],[-73.3762,7.4073],[-73.3777,7.4076],[-73.3789,7.4087],[-73.3798,7.4125],[-73.3819,7.4151],[-73.3845,7.416],[-73.3861,7.4147],[-73.3845,7.4093],[-73.3845,7.4069],[-73.3853,7.4059],[-73.3886,7.4061],[-73.3904,7.408],[-73.3949,7.4088],[-73.396,7.4077],[-73.3961,7.4057],[-73.3982,7.4022],[-73.3999,7.4019],[-73.4035,7.4037],[-73.405,7.4056],[-73.4058,7.4076],[-73.4056,7.4135],[-73.4068,7.4157],[-73.4091,7.4165],[-73.4118,7.4153],[-73.4127,7.413],[-73.413,7.4094],[-73.4144,7.4074],[-73.417,7.4059],[-73.4203,7.4067],[-73.4229,7.4099],[-73.4258,7.416],[-73.4346,7.4258],[-73.4366,7.4325],[-73.4442,7.4407],[-73.4443,7.4431],[-73.4429,7.4456],[-73.4395,7.4485],[-73.439,7.4496],[-73.4391,7.4519],[-73.4399,7.4532],[-73.4425,7.4548],[-73.4483,7.4528],[-73.4516,7.4536],[-73.4529,7.4558],[-73.4529,7.4572],[-73.451,7.4619],[-73.451,7.4654],[-73.4523,7.4671],[-73.4535,7.4679],[-73.4597,7.4672],[-73.4638,7.4683],[-73.4644,7.4694],[-73.4641,7.4717],[-73.4624,7.4739],[-73.458,7.4767],[-73.4566,7.4784],[-73.4571,7.481],[-73.46,7.4835],[-73.4613,7.4838],[-73.467,7.4828],[-73.4696,7.4811],[-73.4719,7.4816],[-73.4732,7.4832],[-73.473,7.4852],[-73.4713,7.4878],[-73.4697,7.4888],[-73.4687,7.492],[-73.4708,7.4951],[-73.476,7.4963],[-73.4766,7.4976],[-73.4765,7.5011],[-73.478,7.5027],[-73.4821,7.5035],[-73.4878,7.507],[-73.4952,7.5065],[-73.4998,7.5103],[-73.5021,7.5112],[-73.5047,7.5103],[-73.5076,7.5068],[-73.5098,7.5052],[-73.5111,7.5052],[-73.5134,7.5071],[-73.5136,7.5101],[-73.5143,7.5112],[-73.5201,7.5136],[-73.526,7.5186],[-73.5268,7.52],[-73.5271,7.5266],[-73.5299,7.5337],[-73.5313,7.5346],[-73.537,7.5349],[-73.539,7.5362],[-73.5401,7.5379],[-73.5397,7.542],[-73.5377,7.5463],[-73.5376,7.5482],[-73.5413,7.5505],[-73.5482,7.5482],[-73.552,7.5506],[-73.5523,7.5536],[-73.5514,7.5561],[-73.553,7.5626],[-73.5527,7.5644],[-73.5505,7.567],[-73.5503,7.5697],[-73.556,7.5723],[-73.5571,7.5743],[-73.5575,7.577],[-73.5619,7.5817],[-73.5635,7.5864],[-73.5661,7.59],[-73.5711,7.5903],[-73.5771,7.5918],[-73.5818,7.5914],[-73.5856,7.5924],[-73.59,7.5946],[-73.5935,7.5955],[-73.5983,7.5956],[-73.5997,7.5967],[-73.6017,7.6],[-73.6089,7.5999],[-73.6108,7.6026],[-73.6134,7.6048],[-73.6169,7.6051],[-73.6181,7.6067],[-73.6184,7.6089],[-73.6196,7.6091],[-73.6211,7.6079],[-73.6233,7.6032],[-73.6243,7.6024],[-73.6271,7.6029],[-73.6306,7.6074],[-73.6324,7.6067],[-73.6349,7.6023],[-73.6375,7.6026],[-73.6393,7.6054],[-73.6394,7.609],[-73.6422,7.6108],[-73.6445,7.6094],[-73.6472,7.605],[-73.6498,7.6044],[-73.6514,7.6061],[-73.6509,7.6091],[-73.6491,7.6115],[-73.6498,7.6139],[-73.6525,7.6146],[-73.6574,7.6137],[-73.6583,7.6142],[-73.6575,7.6193],[-73.6584,7.6226],[-73.6575,7.6228],[-73.6562,7.621],[-73.6545,7.621],[-73.6522,7.6226],[-73.6519,7.6239],[-73.6537,7.6283],[-73.6534,7.6313],[-73.6522,7.634],[-73.6528,7.6359],[-73.6537,7.6365],[-73.6557,7.6365],[-73.6586,7.6355],[-73.6599,7.6342],[-73.6615,7.6351],[-73.6618,7.6387],[-73.6585,7.6449],[-73.6585,7.647],[-73.6591,7.6479],[-73.6619,7.6492],[-73.6644,7.6484],[-73.6661,7.6448],[-73.6677,7.6428],[-73.6692,7.6432],[-73.6711,7.647],[-73.6733,7.6469],[-73.6766,7.6442],[-73.6805,7.6455],[-73.6805,7.6474],[-73.6765,7.6501],[-73.6762,7.6522],[-73.6783,7.6533],[-73.6836,7.6508],[-73.6849,7.6511],[-73.6853,7.6524],[-73.683,7.6554],[-73.6833,7.6574],[-73.6848,7.6586],[-73.6891,7.6574],[-73.6912,7.6584],[-73.6918,7.6641],[-73.6937,7.6704],[-73.6945,7.6726],[-73.6963,7.6741],[-73.6984,7.6741],[-73.7026,7.6717],[-73.7074,7.6704],[-73.7098,7.6656],[-73.715,7.6645],[-73.7163,7.6615],[-73.7188,7.6612],[-73.7254,7.6633],[-73.7269,7.6657],[-73.7261,7.6687],[-73.7264,7.6718],[-73.7272,7.6726],[-73.7297,7.6729],[-73.7321,7.6749],[-73.7339,7.6776],[-73.7358,7.6777],[-73.7404,7.6755],[-73.7425,7.6756],[-73.744,7.6764],[-73.7457,7.6804],[-73.7472,7.6816],[-73.7492,7.6819],[-73.7507,7.6805],[-73.7523,7.6803],[-73.7539,7.6817],[-73.7542,7.6862],[-73.7569,7.6888],[-73.7591,7.6926],[-73.7605,7.7031],[-73.759,7.7052],[-73.7557,7.7073],[-73.7542,7.7101],[-73.7556,7.7127],[-73.7587,7.7143],[-73.7595,7.717],[-73.7586,7.7193],[-73.7563,7.7211],[-73.7558,7.7227],[-73.7563,7.7243],[-73.7587,7.726],[-73.7587,7.7279],[-73.7547,7.7296],[-73.7531,7.7326],[-73.7534,7.7347],[-73.7551,7.7374],[-73.7551,7.7386],[-73.7529,7.7411],[-73.7531,7.7427],[-73.7543,7.7442],[-73.7567,7.7454],[-73.7573,7.7465],[-73.7565,7.7485],[-73.7538,7.7496],[-73.7522,7.7512],[-73.7525,7.7518],[-73.7541,7.752],[-73.7575,7.7515],[-73.7559,7.7575],[-73.7573,7.7592],[-73.7606,7.7595],[-73.7613,7.7606],[-73.7608,7.7619],[-73.7582,7.7614],[-73.7566,7.7619],[-73.7557,7.7638],[-73.7563,7.766],[-73.7593,7.7676],[-73.763,7.7672],[-73.7579,7.7684],[-73.7584,7.7698],[-73.7612,7.7707],[-73.7591,7.7738],[-73.7536,7.7746],[-73.7502,7.7729],[-73.7489,7.7733],[-73.7474,7.7764],[-73.7457,7.7774],[-73.7431,7.7781],[-73.7404,7.7765],[-73.7382,7.7811],[-73.7369,7.7857],[-73.7375,7.7869],[-73.7413,7.7878],[-73.7423,7.7891],[-73.7422,7.7918],[-73.7413,7.7941],[-73.7413,7.7975],[-73.7405,7.799],[-73.7362,7.8018],[-73.7339,7.8019],[-73.7314,7.8004],[-73.7303,7.7977],[-73.7261,7.7939],[-73.722,7.7942],[-73.7185,7.7958],[-73.715,7.7994],[-73.7127,7.7997],[-73.7129,7.8046],[-73.7103,7.807],[-73.7104,7.8081],[-73.7124,7.8096],[-73.7131,7.8125],[-73.7125,7.8152],[-73.7127,7.8184],[-73.7092,7.8182],[-73.7063,7.8164],[-73.7041,7.817],[-73.7002,7.8206],[-73.7,7.8224],[-73.7014,7.8253],[-73.7015,7.8266],[-73.7009,7.827],[-73.6993,7.8269],[-73.6978,7.8249],[-73.6943,7.8239],[-73.6898,7.8257],[-73.6895,7.8274],[-73.6908,7.8351],[-73.6896,7.8374],[-73.6855,7.8403],[-73.684,7.8431],[-73.6821,7.8444],[-73.6811,7.8462],[-73.6771,7.8493],[-73.678,7.8554],[-73.6772,7.8579],[-73.6765,7.8583],[-73.6745,7.8578],[-73.6723,7.8595],[-73.6685,7.8601],[-73.6671,7.8619],[-73.6666,7.8643],[-73.6634,7.8679],[-73.662,7.8672],[-73.6607,7.8674],[-73.6586,7.8696],[-73.6586,7.8728],[-73.6577,7.8752],[-73.6604,7.8788],[-73.6583,7.884],[-73.6595,7.8878],[-73.6576,7.8929],[-73.6574,7.8976],[-73.6517,7.9041],[-73.6499,7.9143],[-73.6524,7.9188],[-73.6535,7.9194],[-73.6553,7.919],[-73.6559,7.9194],[-73.6549,7.9237],[-73.6559,7.9326],[-73.66,7.938],[-73.6609,7.9407],[-73.6608,7.9449],[-73.6632,7.946],[-73.664,7.9486],[-73.665,7.9496],[-73.67105,7.95],[-73.6748,7.9476],[-73.6756,7.9437],[-73.682,7.9416],[-73.6837,7.94],[-73.6837,7.9423],[-73.6852,7.9442],[-73.6854,7.9468],[-73.6847,7.9478],[-73.6824,7.9487],[-73.68222,7.95],[-73.69625,7.95]],[[-73.5046,7.5078],[-73.506,7.5079],[-73.5032,7.51],[-73.502,7.51],[-73.5008,7.5089],[-73.5046,7.5078]],[[-73.6588,7.8736],[-73.6596,7.8769],[-73.658,7.8754],[-73.6588,7.8736]],[[-73.6604,7.8687],[-73.6598,7.8687],[-73.66,7.8682],[-73.6612,7.8675],[-73.6628,7.8682],[-73.6604,7.8687]]]}},{"type":"Feature","properties":{"nombre":"Río Lebrija","tipo":"río","fuente":"IDEAM"},"geometry":{"type":"LineString","coordinates":[[-73.157,7.2163],[-73.1588,7.2168],[-73.1601,7.2164],[-73.1632,7.2135],[-73.1639,7.2105],[-73.1705,7.2137],[-73.1722,7.2121],[-73.1753,7.2107],[-73.1769,7.2083],[-73.1789,7.2079],[-73.1804,7.2097],[-73.1824,7.2093],[-73.183,7.2108],[-73.1839,7.2113],[-73.1884,7.2111],[-73.1947,7.2172],[-73.1996,7.218],[-73.2028,7.2201],[-73.2061,7.2189],[-73.2079,7.2197],[-73.2158,7.2204],[-73.2174,7.2199],[-73.2186,7.2184],[-73.2213,7.2209],[-73.222,7.2233],[-73.2256,7.2234],[-73.2309,7.228],[-73.2311,7.232],[-73.2332,7.2311],[-73.2348,7.2314],[-73.2356,7.234],[-73.2374,7.2349],[-73.2388,7.2378],[-73.2442,7.2391],[-73.2451,7.2382],[-73.2455,7.2361],[-73.2461,7.2357],[-73.2473,7.2361],[-73.2497,7.2398],[-73.2505,7.2454],[-73.2494,7.2487],[-73.2505,7.2524],[-73.249,7.2562],[-73.251,7.2603],[-73.2504,7.2634],[-73.2523,7.2655],[-73.2515,7.2717],[-73.2526,7.2753],[-73.2557,7.2794],[-73.2557,7.2829],[-73.2566,7.2839],[-73.2618,7.2855],[-73.2634,7.2874],[-73.2666,7.2967],[-73.2691,7.2985],[-73.2686,7.3034],[-73.2723,7.3082],[-73.2732,7.3115],[-73.277,7.315],[-73.277,7.3183],[-73.2793,7.3207],[-73.2785,7.3256]]}},{"type":"Feature","properties":{"nombre":"Río Lebrija","tipo":"río","fuente":"IDEAM"},"geometry":{"type":"LineString","coordinates":[[-73.7011,7.6725],[-73.7005,7.6747],[-73.7016,7.6761],[-73.7031,7.6763],[-73.7062,7.6754],[-73.7086,7.6766],[-73.7091,7.6807],[-73.7125,7.683],[-73.7119,7.6842],[-73.7088,7.6855],[-73.7089,7.6878],[-73.7105,7.689],[-73.715,7.6884],[-73.7153,7.6924],[-73.7173,7.6944],[-73.7185,7.6936],[-73.7172,7.6889],[-73.718,7.687],[-73.7199,7.6873],[-73.7203,7.6903],[-73.7211,7.6908],[-73.7227,7.6906],[-73.7253,7.6889],[-73.7285,7.6892],[-73.7324,7.6877],[-73.7331,7.6865],[-73.7335,7.6801],[-73.7341,7.6793],[-73.7355,7.6795],[-73.7377,7.6815],[-73.7408,7.6801],[-73.7431,7.6818],[-73.7453,7.6824],[-73.7468,7.6845],[-73.7479,7.685],[-73.751,7.6834],[-73.7533,7.6809]]}},{"type":"Feature","properties":{"nombre":"Río Manco","tipo":"río","fuente":"IDEAM"},"geometry":{"type":"LineString","coordinates":[[-72.9108,7.0643],[-72.9147,7.0657],[-72.9183,7.0658],[-72.9211,7.0685],[-72.9238,7.0696],[-72.9267,7.0686],[-72.9294,7.0656],[-72.932,7.0641]]}},{"type":"Feature","properties":{"nombre":"Río Manco","tipo":"río","fuente":"IDEAM"},"geometry":{"type":"LineString","coordinates":[[-72.9417,7.0904],[-72.9393,7.0921],[-72.9376,7.0925],[-72.9344,7.0912],[-72.9328,7.0896],[-72.9319,7.0801],[-72.9296,7.0715],[-72.9301,7.0697],[-72.9317,7.0679],[-72.9322,7.0629],[-72.9343,7.0615],[-72.9355,7.0589],[-72.9372,7.051],[-72.9386,7.048],[-72.9396,7.0417],[-72.9407,7.0399],[-72.9397,7.0361],[-72.9409,7.0293],[-72.943,7.0256],[-72.943,7.0212],[-72.9451,7.0185],[-72.9432,7.0128],[-72.9439,7.0071],[-72.9477,7.0013],[-72.9553,6.9949],[-72.9553,6.9932],[-72.9536,6.9909],[-72.954,6.9871],[-72.9559,6.9859],[-72.9552,6.9832],[-72.9592,6.9796],[-72.9596,6.9774],[-72.9614,6.9757],[-72.9612,6.9726],[-72.9638,6.9679],[-72.968,6.9648],[-72.9743,6.9622],[-72.9785,6.9629],[-72.9795,6.9624],[-72.9793,6.9568],[-72.9815,6.9547],[-72.9819,6.9524],[-72.9836,6.9512],[-72.9859,6.9478],[-72.9853,6.9459],[-72.9884,6.9392],[-72.9911,6.9358],[-72.991,6.9308],[-72.9928,6.9302],[-72.9946,6.9274],[-72.9952,6.9234],[-72.9963,6.9234],[-72.9968,6.922],[-72.998,6.9221],[-72.9985,6.9215],[-73.0001,6.9221],[-73.0008,6.9206],[-73.002,6.9206],[-73.0018,6.92],[-72.9993,6.919],[-72.9999,6.9168],[-72.9989,6.9159],[-72.9991,6.9146],[-73.0002,6.9145],[-73.0003,6.9133],[-73.0021,6.9131],[-73.0015,6.9113],[-73.0025,6.9073],[-73.0016,6.9028],[-72.9988,6.8997],[-72.9988,6.8944],[-72.9977,6.8928],[-72.9984,6.8913],[-72.9978,6.8887],[-72.9985,6.886],[-72.9946,6.876],[-72.9958,6.8748],[-72.9948,6.8706],[-72.9923,6.869],[-72.99,6.8632],[-72.991,6.8583],[-72.9889,6.8548],[-72.9889,6.8501],[-72.9903,6.8467],[-72.9887,6.8429],[-72.9904,6.8409],[-72.9893,6.8369],[-72.9912,6.8347],[-72.9897,6.8285],[-72.9906,6.8268],[-72.9908,6.8245],[-72.992,6.8238],[-72.995,6.8252],[-72.9966,6.8242],[-72.9992,6.8244],[-73.0023,6.8233]]}},{"type":"Feature","properties":{"nombre":"Río Negro","tipo":"río","fuente":"IDEAM"},"geometry":{"type":"LineString","coordinates":[[-73.0934,7.3725],[-73.0936,7.3699],[-73.0959,7.3689],[-73.0993,7.3646],[-73.1031,7.3625],[-73.103,7.3595],[-73.1061,7.3561],[-73.1049,7.3531],[-73.1051,7.3507],[-73.1074,7.3486],[-73.1076,7.3459],[-73.1113,7.3429],[-73.1153,7.3364],[-73.1156,7.3318],[-73.1163,7.3302],[-73.1176,7.3289],[-73.1208,7.3276],[-73.1213,7.3253],[-73.1239,7.322],[-73.1276,7.3217],[-73.1282,7.3195],[-73.13,7.3186],[-73.1297,7.3165],[-73.1308,7.3151],[-73.1332,7.3136],[-73.1359,7.3137],[-73.1365,7.3132],[-73.1373,7.3107],[-73.1386,7.3095],[-73.1384,7.3055],[-73.1395,7.3047],[-73.139,7.3021],[-73.1402,7.3015],[-73.1396,7.3],[-73.1406,7.2982],[-73.1432,7.2967],[-73.1424,7.2947],[-73.1429,7.2932],[-73.1418,7.2923],[-73.141,7.2902],[-73.1427,7.2906],[-73.1458,7.2885],[-73.1462,7.2879],[-73.1455,7.2865],[-73.1472,7.2852],[-73.1484,7.2853],[-73.148,7.2838],[-73.1502,7.2816],[-73.1506,7.2802],[-73.1519,7.2801],[-73.1525,7.2794],[-73.1522,7.2778],[-73.1499,7.276],[-73.1505,7.2735],[-73.1496,7.2707],[-73.1499,7.2684],[-73.1468,7.2664],[-73.1462,7.2647],[-73.1463,7.2628],[-73.1483,7.2601],[-73.1478,7.2581],[-73.1498,7.2564],[-73.1494,7.2557],[-73.148,7.2557],[-73.1489,7.2519],[-73.1463,7.2508],[-73.1454,7.2483],[-73.1485,7.2453],[-73.1472,7.2416],[-73.1476,7.2393],[-73.1497,7.2349],[-73.1466,7.2332],[-73.1459,7.232],[-73.1474,7.2288],[-73.15,7.2289],[-73.1509,7.2267],[-73.1517,7.2277],[-73.1525,7.2266],[-73.1538,7.2263],[-73.1529,7.2246],[-73.1543,7.2237],[-73.153,7.2214],[-73.1545,7.2203],[-73.1555,7.2183],[-73.1569,7.219],[-73.1574,7.2185],[-73.157,7.2163]]}},{"type":"Feature","properties":{"nombre":"Río Playón","tipo":"río","fuente":"IDEAM"},"geometry":{"type":"LineString","coordinates":[[-73.249,7.5645],[-73.2421,7.5707],[-73.2363,7.5713],[-73.2351,7.5708],[-73.2314,7.5588],[-73.2294,7.5572],[-73.2299,7.5525],[-73.2285,7.5493],[-73.2257,7.5463],[-73.2256,7.5427],[-73.2246,7.5393],[-73.2251,7.5363],[-73.2245,7.5351],[-73.2232,7.5346],[-73.224,7.5328],[-73.2209,7.5323],[-73.2203,7.5316],[-73.2214,7.531],[-73.2217,7.5293],[-73.223,7.5274],[-73.2201,7.524],[-73.2195,7.5218],[-73.2206,7.5197],[-73.2199,7.5184],[-73.2202,7.5161],[-73.2182,7.5138],[-73.2179,7.5104],[-73.2143,7.5043],[-73.2132,7.4994],[-73.2119,7.4974],[-73.2129,7.494],[-73.2124,7.4913],[-73.2133,7.489],[-73.2114,7.4842],[-73.2088,7.4841],[-73.209,7.4811],[-73.2079,7.4807],[-73.2071,7.4815],[-73.2054,7.4789],[-73.2058,7.4718],[-73.2019,7.4644],[-73.2025,7.4609],[-73.2071,7.4598],[-73.2067,7.4573],[-73.2039,7.4565],[-73.2044,7.4557],[-73.2068,7.455],[-73.2065,7.4529],[-73.2085,7.4526],[-73.2096,7.4542],[-73.2111,7.4529],[-73.2124,7.453],[-73.2122,7.4508],[-73.2104,7.4495]]}},{"type":"Feature","properties":{"nombre":"Río Romerito","tipo":"río","fuente":"IDEAM"},"geometry":{"type":"LineString","coordinates":[[-72.9964,7.6133],[-73.0001,7.6155],[-73.0048,7.6159],[-73.0147,7.6146],[-73.0199,7.6111],[-73.0215,7.6076],[-73.022,7.6048],[-73.027,7.5952],[-73.0301,7.5933],[-73.0328,7.5893],[-73.034,7.5834],[-73.0388,7.5807],[-73.046,7.57],[-73.0493,7.5613],[-73.0502,7.5573],[-73.0522,7.5549],[-73.052,7.5523],[-73.0551,7.5507],[-73.056,7.5495],[-73.0553,7.5445],[-73.0568,7.5419],[-73.0573,7.5391],[-73.06,7.5361],[-73.0655,7.5351],[-73.0683,7.5309],[-73.0687,7.5253],[-73.0664,7.5159],[-73.0686,7.5074],[-73.0718,7.5037],[-73.0729,7.4997],[-73.0745,7.4985],[-73.0851,7.4942],[-73.0888,7.4913],[-73.0894,7.4901],[-73.091,7.4891],[-73.0913,7.488]]}},{"type":"Feature","properties":{"nombre":"Río Saladito","tipo":"río","fuente":"IDEAM"},"geometry":{"type":"LineString","coordinates":[[-72.8807,7.118],[-72.8804,7.1195],[-72.8789,7.1214],[-72.879,7.1234],[-72.8773,7.1274],[-72.871,7.1316],[-72.8658,7.133],[-72.8631,7.1351],[-72.863,7.1392],[-72.8659,7.1473],[-72.8636,7.1524],[-72.8596,7.1523],[-72.858,7.156],[-72.8549,7.1566],[-72.8448,7.1658],[-72.8442,7.167],[-72.8445,7.1685],[-72.8423,7.1705],[-72.8415,7.1729],[-72.8423,7.1826],[-72.8416,7.1839],[-72.8428,7.1864],[-72.8429,7.1881],[-72.8407,7.1912],[-72.842,7.1928],[-72.8407,7.1952],[-72.8383,7.195],[-72.8372,7.1979],[-72.8349,7.1989],[-72.8326,7.1989]]}},{"type":"Feature","properties":{"nombre":"Río Saladito","tipo":"río","fuente":"IDEAM"},"geometry":{"type":"LineString","coordinates":[[-72.8829,7.1435],[-72.8799,7.1436],[-72.8698,7.1469],[-72.8659,7.1471]]}},{"type":"Feature","properties":{"nombre":"Río Salamaga","tipo":"río","fuente":"IDEAM"},"geometry":{"type":"LineString","coordinates":[[-73.1854,7.4087],[-73.1847,7.4038],[-73.1831,7.3995],[-73.1834,7.397],[-73.1825,7.3954],[-73.1808,7.3874],[-73.1801,7.3787],[-73.182,7.3755],[-73.1797,7.3747],[-73.1785,7.3735],[-73.1757,7.3674],[-73.1761,7.3657],[-73.1784,7.3632],[-73.1783,7.3584],[-73.1808,7.356],[-73.1818,7.3558],[-73.185,7.3572],[-73.1874,7.3572],[-73.1871,7.355],[-73.1892,7.3547],[-73.1915,7.3533],[-73.1925,7.3543],[-73.1928,7.3559],[-73.1942,7.3566],[-73.196,7.3588],[-73.1981,7.3585],[-73.1989,7.3567],[-73.2004,7.3564],[-73.2027,7.3571],[-73.2044,7.3592],[-73.2064,7.3599],[-73.2119,7.3577],[-73.2145,7.3579],[-73.2166,7.3573],[-73.2186,7.3581],[-73.2217,7.3581],[-73.224,7.3572],[-73.2258,7.3576],[-73.2272,7.3561],[-73.2294,7.3515],[-73.2325,7.3489],[-73.2339,7.3486],[-73.2349,7.3467],[-73.2373,7.3459],[-73.2389,7.3444],[-73.2388,7.3414],[-73.2368,7.3396],[-73.2397,7.3375],[-73.2384,7.3362],[-73.2383,7.3351],[-73.2396,7.3323],[-73.2392,7.3299],[-73.2419,7.3277],[-73.2418,7.3253],[-73.2446,7.3247],[-73.2483,7.3225],[-73.2484,7.3249],[-73.2497,7.3263],[-73.2508,7.3264],[-73.2518,7.324],[-73.2545,7.3246],[-73.2554,7.3223],[-73.258,7.3225],[-73.2605,7.3209],[-73.2643,7.3215],[-73.2655,7.3192],[-73.2665,7.319],[-73.2673,7.3194],[-73.2678,7.3219],[-73.2715,7.3246],[-73.2745,7.3251],[-73.2736,7.3267],[-73.2737,7.3278],[-73.2753,7.3275],[-73.2778,7.3251],[-73.2782,7.3254]]}},{"type":"Feature","properties":{"nombre":"Río Salamaga","tipo":"río","fuente":"IDEAM"},"geometry":{"type":"LineString","coordinates":[[-73.0933,7.4124],[-73.0967,7.4103],[-73.0981,7.4082],[-73.1023,7.4065],[-73.1054,7.4056],[-73.1104,7.4054],[-73.1153,7.4028],[-73.118,7.4038]]}},{"type":"Feature","properties":{"nombre":"Río Salamaga","tipo":"río","fuente":"IDEAM"},"geometry":{"type":"LineString","coordinates":[[-73.1046,7.4184],[-73.1099,7.4085],[-73.1127,7.4075],[-73.1175,7.404],[-73.1252,7.4022],[-73.1295,7.3988],[-73.1312,7.3992],[-73.1329,7.4016],[-73.1341,7.4017],[-73.1386,7.3975],[-73.1433,7.3969],[-73.1447,7.3982],[-73.1446,7.4006],[-73.1452,7.4014],[-73.1464,7.4004],[-73.1485,7.4002],[-73.1506,7.4019],[-73.1542,7.4027],[-73.155,7.4023],[-73.1544,7.4009],[-73.155,7.4001],[-73.1565,7.4021],[-73.1584,7.4024],[-73.1618,7.3977],[-73.1664,7.3965],[-73.1669,7.3932],[-73.1686,7.3926],[-73.1695,7.3915],[-73.1707,7.3918],[-73.172,7.3909],[-73.1722,7.39],[-73.171,7.389],[-73.1726,7.3879],[-73.1726,7.3846],[-73.1744,7.3817],[-73.1752,7.3784],[-73.1771,7.3773],[-73.1805,7.3775]]}},{"type":"Feature","properties":{"nombre":"Río Sogamoso","tipo":"río","fuente":"IDEAM"},"geometry":{"type":"Polygon","coordinates":[[[-73.6939,7.2568],[-73.697,7.2577],[-73.7005,7.2544],[-73.7016,7.2541],[-73.7109,7.2557],[-73.7146,7.2575],[-73.7188,7.2569],[-73.7214,7.2547],[-73.7234,7.2495],[-73.7258,7.2469],[-73.7275,7.2462],[-73.7293,7.2442],[-73.7303,7.2418],[-73.7332,7.2395],[-73.7384,7.2371],[-73.7437,7.2332],[-73.7471,7.2332],[-73.7525,7.2347],[-73.7562,7.2411],[-73.7644,7.2454],[-73.7721,7.2445],[-73.7769,7.2454],[-73.7821,7.244],[-73.7913,7.2436],[-73.794,7.2405],[-73.7963,7.2305],[-73.7981,7.2263],[-73.8028,7.2217],[-73.8061,7.2196],[-73.8088,7.216],[-73.8123,7.2135],[-73.8151,7.2141],[-73.8165,7.2162],[-73.8173,7.2209],[-73.8129,7.2252],[-73.8081,7.2276],[-73.8056,7.2299],[-73.8051,7.2325],[-73.8071,7.2342],[-73.8109,7.2357],[-73.8205,7.2353],[-73.8225,7.234],[-73.827,7.2328],[-73.8332,7.2286],[-73.8355,7.2276],[-73.8382,7.2275],[-73.8476,7.2219],[-73.8633,7.2097],[-73.8689,7.2066],[-73.8714,7.2046],[-73.8744,7.2007],[-73.8822,7.1968],[-73.8859,7.1912],[-73.8879,7.1917],[-73.8909,7.194],[-73.8987,7.1921],[-73.9014,7.1928],[-73.9068,7.1986],[-73.9104,7.204],[-73.9123,7.2052],[-73.9141,7.2094],[-73.918,7.2117],[-73.9202,7.2148],[-73.924,7.2063],[-73.9242,7.2009],[-73.9238,7.2025],[-73.9205,7.2042],[-73.9183,7.2026],[-73.9152,7.2016],[-73.9089,7.1936],[-73.9016,7.19],[-73.897,7.1857],[-73.8898,7.1847],[-73.8869,7.1849],[-73.879,7.1906],[-73.8664,7.1973],[-73.864,7.1995],[-73.8616,7.2044],[-73.8588,7.2083],[-73.8541,7.213],[-73.8495,7.215],[-73.8395,7.2206],[-73.8332,7.2264],[-73.8295,7.2289],[-73.819,7.2338],[-73.8134,7.2346],[-73.8072,7.2326],[-73.8081,7.2307],[-73.8134,7.2298],[-73.8156,7.2285],[-73.8176,7.2263],[-73.82,7.221],[-73.8197,7.2156],[-73.8185,7.2132],[-73.8165,7.2118],[-73.8127,7.2112],[-73.8095,7.2123],[-73.8001,7.2191],[-73.7936,7.2281],[-73.7928,7.2402],[-73.7895,7.2425],[-73.7881,7.2428],[-73.784,7.2419],[-73.7769,7.2438],[-73.7738,7.2424],[-73.7698,7.243],[-73.7624,7.2424],[-73.7539,7.2339],[-73.7498,7.2311],[-73.7455,7.2308],[-73.7404,7.2331],[-73.7339,7.2379],[-73.7259,7.2408],[-73.7237,7.2443],[-73.7238,7.2469],[-73.7206,7.2529],[-73.7193,7.2533],[-73.7124,7.2506],[-73.7098,7.2507],[-73.7061,7.2538],[-73.6997,7.2536],[-73.6965,7.2567],[-73.6919,7.2514],[-73.6902,7.2506],[-73.6846,7.25],[-73.6801,7.2468],[-73.6793,7.246],[-73.6786,7.24],[-73.677,7.2373],[-73.673,7.2362],[-73.6699,7.2398],[-73.668,7.2436],[-73.6657,7.2432],[-73.6656,7.2405],[-73.6685,7.2358],[-73.6673,7.2329],[-73.6668,7.2285],[-73.6648,7.2262],[-73.6621,7.2258],[-73.6609,7.2245],[-73.6577,7.2268],[-73.6549,7.2257],[-73.654,7.2241],[-73.6533,7.2189],[-73.6509,7.2171],[-73.6482,7.2128],[-73.6393,7.2097],[-73.6355,7.2108],[-73.6332,7.2072],[-73.6312,7.2063],[-73.6283,7.2058],[-73.6234,7.2084],[-73.6219,7.2082],[-73.6205,7.2064],[-73.6183,7.207],[-73.6181,7.201],[-73.6168,7.1974],[-73.6121,7.1899],[-73.6108,7.1845],[-73.6108,7.1799],[-73.6089,7.1781],[-73.6067,7.1773],[-73.6036,7.1771],[-73.5999,7.1796],[-73.5966,7.1789],[-73.5948,7.1775],[-73.593,7.1775],[-73.5916,7.1781],[-73.5907,7.1804],[-73.5884,7.1792],[-73.5818,7.1789],[-73.5723,7.1773],[-73.5705,7.1761],[-73.5693,7.1718],[-73.5688,7.1671],[-73.567,7.1651],[-73.5621,7.1646],[-73.5609,7.1617],[-73.5594,7.1614],[-73.5573,7.1624],[-73.5521,7.1619],[-73.5508,7.1608],[-73.5492,7.1578],[-73.545,7.1595],[-73.5429,7.1573],[-73.5423,7.1542],[-73.5409,7.1523],[-73.536,7.1493],[-73.5336,7.1472],[-73.5331,7.1461],[-73.5298,7.145],[-73.5262,7.1451],[-73.5224,7.1418],[-73.5199,7.1405],[-73.5147,7.1398],[-73.513,7.1401],[-73.5097,7.1442],[-73.5071,7.1426],[-73.504,7.1421],[-73.4976,7.1428],[-73.494,7.1443],[-73.4899,7.1443],[-73.488,7.1454],[-73.4856,7.1456],[-73.4839,7.1417],[-73.4829,7.1412],[-73.4757,7.1411],[-73.4748,7.1405],[-73.4742,7.1374],[-73.4726,7.1359],[-73.4662,7.1343],[-73.4617,7.1315],[-73.4543,7.132],[-73.4526,7.1328],[-73.4485,7.1314],[-73.4428,7.1312],[-73.4394,7.1305],[-73.4386,7.1297],[-73.4381,7.1238],[-73.4371,7.1208],[-73.4337,7.1165],[-73.4303,7.1147],[-73.4293,7.1133],[-73.4268,7.113],[-73.4227,7.1106],[-73.4205,7.1079],[-73.4136,7.1031],[-73.4102,7.1015],[-73.4008,7.0991],[-73.3948,7.0933],[-73.3946,7.0907],[-73.3955,7.0876],[-73.3947,7.0845],[-73.3867,7.0746],[-73.3865,7.0722],[-73.3852,7.0698],[-73.3836,7.0694],[-73.3781,7.066],[-73.3741,7.0618],[-73.3676,7.0606],[-73.3668,7.0609],[-73.3665,7.062],[-73.3588,7.0627],[-73.3549,7.0607],[-73.353,7.0607],[-73.3497,7.0637],[-73.3474,7.0636],[-73.345,7.0602],[-73.3447,7.0563],[-73.3456,7.0528],[-73.3478,7.0499],[-73.3462,7.0468],[-73.3459,7.0432],[-73.3442,7.0407],[-73.3278,7.0314],[-73.3213,7.031],[-73.3199,7.0296],[-73.3121,7.0259],[-73.304,7.0234],[-73.2964,7.0199],[-73.2929,7.0138],[-73.2895,7.0122],[-73.287,7.0099],[-73.2864,7.0075],[-73.2826,7.001],[-73.278,6.9868],[-73.2746,6.9821],[-73.2654,6.9726],[-73.2617,6.9666],[-73.2546,6.9649],[-73.2526,6.9626],[-73.2507,6.9615],[-73.2467,6.961],[-73.2433,6.9584],[-73.2389,6.9574],[-73.2299,6.9473],[-73.2274,6.9419],[-73.2256,6.9359],[-73.2226,6.9327],[-73.2203,6.9284],[-73.219,6.9268],[-73.2172,6.9259],[-73.2127,6.9192],[-73.2078,6.9144],[-73.2014,6.9045],[-73.1936,6.9013],[-73.1911,6.9013],[-73.1884,6.9023],[-73.1863,6.9014],[-73.1848,6.8994],[-73.184,6.8961],[-73.183,6.8946],[-73.177,6.8881],[-73.1759,6.8826],[-73.1749,6.8818],[-73.1725,6.8818],[-73.1716,6.8793],[-73.1712,6.8666],[-73.1689,6.8605],[-73.1694,6.8572],[-73.167,6.8504],[-73.1695,6.8466],[-73.1696,6.8423],[-73.1715,6.8376],[-73.1748,6.8342],[-73.1764,6.8315],[-73.1766,6.8273],[-73.1784,6.8264],[-73.1802,6.8264],[-73.1817,6.8239],[-73.183,6.8188],[-73.183,6.8158],[-73.1847,6.8111],[-73.1885,6.8084],[-73.1919,6.8031],[-73.194,6.8012],[-73.1973,6.7999],[-73.1993,6.7973],[-73.1995,6.7942],[-73.1985,6.7905],[-73.201,6.7873],[-73.2011,6.7844],[-73.2005,6.7758],[-73.1993,6.7687],[-73.1986,6.7674],[-73.1979,6.7677],[-73.1993,6.7742],[-73.2003,6.7868],[-73.1978,6.7898],[-73.1978,6.7915],[-73.1988,6.7931],[-73.1983,6.798],[-73.1974,6.7991],[-73.1937,6.8004],[-73.1899,6.8043],[-73.1882,6.8076],[-73.1838,6.8105],[-73.181,6.8241],[-73.1805,6.8252],[-73.1776,6.8259],[-73.1754,6.8277],[-73.1761,6.8311],[-73.1704,6.8383],[-73.1687,6.8424],[-73.169,6.8468],[-73.1673,6.8483],[-73.1666,6.85],[-73.1684,6.8563],[-73.1685,6.8611],[-73.1704,6.8668],[-73.1708,6.8784],[-73.1717,6.8822],[-73.1722,6.8829],[-73.1749,6.8831],[-73.1756,6.8838],[-73.1761,6.8881],[-73.1831,6.8958],[-73.1856,6.9019],[-73.1883,6.9031],[-73.1914,6.9019],[-73.1934,6.902],[-73.1989,6.9039],[-73.2014,6.9054],[-73.2076,6.9151],[-73.2125,6.92],[-73.2162,6.9257],[-73.2186,6.9277],[-73.2218,6.9327],[-73.2246,6.9356],[-73.2281,6.9455],[-73.2378,6.957],[-73.2399,6.9587],[-73.2431,6.9591],[-73.2464,6.9618],[-73.2513,6.9629],[-73.2559,6.9665],[-73.2604,6.9671],[-73.2622,6.9689],[-73.2691,6.9782],[-73.2764,6.9857],[-73.2805,6.9957],[-73.2828,7.0032],[-73.285,7.0062],[-73.2869,7.011],[-73.2886,7.0125],[-73.2929,7.0148],[-73.2964,7.021],[-73.3064,7.0249],[-73.3117,7.0263],[-73.3173,7.0287],[-73.3221,7.0319],[-73.3237,7.0323],[-73.3262,7.0317],[-73.3278,7.0321],[-73.3417,7.0398],[-73.3436,7.0418],[-73.3453,7.0459],[-73.3453,7.0502],[-73.3432,7.0587],[-73.3443,7.062],[-73.3465,7.0649],[-73.3494,7.0652],[-73.3532,7.0631],[-73.356,7.0636],[-73.3663,7.0672],[-73.3699,7.0674],[-73.374,7.0699],[-73.3767,7.0687],[-73.3785,7.0718],[-73.3803,7.0715],[-73.3821,7.0724],[-73.3858,7.0776],[-73.3899,7.0798],[-73.3936,7.0844],[-73.3947,7.0873],[-73.3935,7.0934],[-73.3944,7.0946],[-73.3976,7.0964],[-73.4012,7.0997],[-73.4091,7.1018],[-73.4122,7.1035],[-73.4148,7.1051],[-73.4174,7.1084],[-73.4186,7.1086],[-73.4236,7.1132],[-73.428,7.1143],[-73.4326,7.1173],[-73.4345,7.1194],[-73.4365,7.1235],[-73.4369,7.13],[-73.4393,7.1318],[-73.4407,7.1343],[-73.4468,7.1338],[-73.449,7.1344],[-73.452,7.1371],[-73.452,7.1396],[-73.4534,7.1406],[-73.4573,7.1416],[-73.4583,7.1433],[-73.4645,7.1438],[-73.4707,7.1457],[-73.4789,7.1514],[-73.4932,7.1511],[-73.497,7.1523],[-73.5,7.1496],[-73.5021,7.1494],[-73.506,7.1504],[-73.5076,7.1492],[-73.5091,7.1461],[-73.5114,7.1446],[-73.5161,7.1444],[-73.5189,7.1461],[-73.5201,7.1462],[-73.5233,7.148],[-73.5237,7.151],[-73.525,7.1542],[-73.5283,7.1568],[-73.5306,7.1566],[-73.5327,7.1573],[-73.5343,7.1564],[-73.5357,7.1565],[-73.5457,7.1625],[-73.5483,7.1633],[-73.5486,7.1644],[-73.5516,7.1669],[-73.555,7.1677],[-73.5618,7.1681],[-73.5648,7.1696],[-73.5668,7.1775],[-73.5667,7.183],[-73.5689,7.185],[-73.5722,7.1855],[-73.5727,7.1877],[-73.5741,7.1878],[-73.5757,7.1869],[-73.5779,7.1878],[-73.5797,7.1875],[-73.5829,7.1848],[-73.591,7.1821],[-73.5926,7.1839],[-73.5951,7.189],[-73.598,7.1923],[-73.5999,7.1929],[-73.6033,7.1927],[-73.6047,7.1939],[-73.6058,7.1929],[-73.6069,7.193],[-73.6087,7.1951],[-73.6123,7.1964],[-73.613,7.1989],[-73.6133,7.2043],[-73.6141,7.2056],[-73.6162,7.2067],[-73.6192,7.2119],[-73.6229,7.2128],[-73.6297,7.2122],[-73.6313,7.2166],[-73.6352,7.2201],[-73.6394,7.2199],[-73.6407,7.2202],[-73.6429,7.2222],[-73.646,7.222],[-73.6501,7.2262],[-73.6579,7.2295],[-73.6624,7.2281],[-73.6639,7.2282],[-73.666,7.232],[-73.6669,7.2361],[-73.6647,7.2411],[-73.6652,7.2433],[-73.6664,7.2442],[-73.6687,7.2446],[-73.6725,7.2423],[-73.6748,7.2424],[-73.6755,7.2434],[-73.6747,7.2449],[-73.6756,7.2465],[-73.6793,7.2475],[-73.6831,7.2508],[-73.6903,7.2519],[-73.6929,7.2537],[-73.6928,7.2561],[-73.6939,7.2568]],[[-73.7145,7.2546],[-73.7161,7.2545],[-73.714,7.2554],[-73.7145,7.2546]],[[-73.7101,7.254],[-73.7079,7.2534],[-73.7096,7.251],[-73.713,7.2512],[-73.7136,7.2517],[-73.7108,7.253],[-73.7101,7.254]],[[-73.7113,7.2534],[-73.7116,7.2528],[-73.7135,7.2525],[-73.7123,7.2539],[-73.7113,7.2539],[-73.7113,7.2534]],[[-73.729,7.2435],[-73.7275,7.2454],[-73.7266,7.2456],[-73.728,7.2436],[-73.7289,7.2431],[-73.729,7.2435]],[[-73.7271,7.2432],[-73.7259,7.2443],[-73.7255,7.2422],[-73.7287,7.2411],[-73.7271,7.2432]],[[-73.7959,7.2279],[-73.7954,7.2311],[-73.7947,7.2314],[-73.7947,7.2291],[-73.7959,7.2279]],[[-73.8116,7.2283],[-73.8131,7.2259],[-73.815,7.226],[-73.8145,7.227],[-73.8116,7.2283]],[[-73.8507,7.2155],[-73.8507,7.2168],[-73.8478,7.2183],[-73.8473,7.2202],[-73.8445,7.2225],[-73.8379,7.2259],[-73.8387,7.2236],[-73.84,7.2224],[-73.8432,7.2199],[-73.8456,7.2198],[-73.8471,7.2177],[-73.8499,7.2165],[-73.8507,7.2155]],[[-73.866,7.2071],[-73.866,7.2051],[-73.8718,7.2007],[-73.8731,7.2008],[-73.8715,7.2039],[-73.8678,7.2065],[-73.866,7.2071]],[[-73.869,7.2008],[-73.867,7.2013],[-73.8671,7.1996],[-73.8706,7.1965],[-73.8733,7.1949],[-73.8789,7.1932],[-73.879,7.1943],[-73.8762,7.1974],[-73.869,7.2008]],[[-73.8918,7.1925],[-73.8901,7.1893],[-73.8866,7.1884],[-73.8845,7.1896],[-73.8843,7.1889],[-73.8872,7.1869],[-73.8928,7.1862],[-73.8965,7.1872],[-73.8991,7.1897],[-73.8984,7.1906],[-73.8918,7.1925]],[[-73.9093,7.2004],[-73.9072,7.1981],[-73.9082,7.196],[-73.909,7.1964],[-73.9104,7.199],[-73.9104,7.2007],[-73.9093,7.2004]],[[-73.9111,7.2041],[-73.9099,7.2024],[-73.9108,7.2023],[-73.9125,7.2041],[-73.9111,7.2041]],[[-73.917,7.207],[-73.9163,7.2052],[-73.9188,7.2054],[-73.9184,7.2078],[-73.9179,7.2081],[-73.917,7.207]],[[-73.6766,7.2412],[-73.678,7.2467],[-73.6758,7.246],[-73.6755,7.2453],[-73.6762,7.2433],[-73.6744,7.2416],[-73.6706,7.2428],[-73.6711,7.2411],[-73.6737,7.2391],[-73.6755,7.2393],[-73.6766,7.2412]],[[-73.6722,7.2392],[-73.6706,7.2401],[-73.6725,7.2375],[-73.6735,7.2373],[-73.6767,7.2385],[-73.6777,7.2408],[-73.6763,7.239],[-73.6749,7.2384],[-73.6722,7.2392]],[[-73.6481,7.2163],[-73.65,7.2173],[-73.6525,7.2208],[-73.6526,7.2251],[-73.6513,7.2263],[-73.646,7.2206],[-73.6474,7.2192],[-73.6473,7.2166],[-73.6481,7.2163]],[[-73.646,7.2165],[-73.6465,7.218],[-73.646,7.2189],[-73.6452,7.2184],[-73.6451,7.2173],[-73.6439,7.2182],[-73.6429,7.2173],[-73.6409,7.217],[-73.6421,7.2124],[-73.6431,7.2122],[-73.6477,7.2138],[-73.6484,7.2154],[-73.646,7.2165]],[[-73.6352,7.2186],[-73.6337,7.217],[-73.6328,7.2133],[-73.6315,7.2114],[-73.6276,7.2092],[-73.6278,7.2077],[-73.6299,7.2068],[-73.6319,7.207],[-73.6333,7.2083],[-73.634,7.2106],[-73.6353,7.2114],[-73.6385,7.2103],[-73.6426,7.2114],[-73.6395,7.2139],[-73.638,7.2176],[-73.6352,7.2186]],[[-73.6291,7.2068],[-73.627,7.2082],[-73.6271,7.2102],[-73.623,7.2111],[-73.6197,7.2105],[-73.6184,7.2075],[-73.6205,7.207],[-73.6217,7.2087],[-73.6231,7.209],[-73.6263,7.2079],[-73.6281,7.2062],[-73.6292,7.2062],[-73.6291,7.2068]],[[-73.6386,7.2179],[-73.6401,7.2138],[-73.6408,7.2135],[-73.6405,7.2164],[-73.6386,7.2179]],[[-73.6159,7.2036],[-73.6155,7.2055],[-73.6139,7.2043],[-73.6141,7.1971],[-73.6152,7.1981],[-73.6151,7.201],[-73.6159,7.2036]],[[-73.6163,7.2033],[-73.6153,7.2007],[-73.6154,7.199],[-73.6168,7.2014],[-73.6167,7.2033],[-73.6163,7.2033]],[[-73.6127,7.1923],[-73.6136,7.1928],[-73.6139,7.1948],[-73.6115,7.1934],[-73.6118,7.1923],[-73.6127,7.1923]],[[-73.61,7.1925],[-73.6098,7.1937],[-73.6084,7.191],[-73.61,7.1925]],[[-73.6005,7.191],[-73.5991,7.1907],[-73.5981,7.1889],[-73.5992,7.1886],[-73.6002,7.1893],[-73.6009,7.1901],[-73.6005,7.191]],[[-73.6083,7.1882],[-73.6024,7.1883],[-73.5992,7.1868],[-73.5963,7.1818],[-73.5914,7.1801],[-73.5919,7.1783],[-73.5943,7.1779],[-73.5967,7.1795],[-73.5997,7.1799],[-73.6037,7.1775],[-73.6082,7.1783],[-73.6104,7.1802],[-73.6102,7.1837],[-73.6116,7.1888],[-73.6083,7.1882]],[[-73.5857,7.1817],[-73.5842,7.1831],[-73.583,7.183],[-73.5832,7.1822],[-73.5861,7.1806],[-73.5891,7.1809],[-73.5886,7.1815],[-73.5857,7.1817]],[[-73.5781,7.1826],[-73.582,7.1833],[-73.5823,7.184],[-73.5794,7.186],[-73.5786,7.1845],[-73.5768,7.1844],[-73.5742,7.1828],[-73.5722,7.1829],[-73.5692,7.1844],[-73.5683,7.1834],[-73.5684,7.1795],[-73.5755,7.1794],[-73.5769,7.1804],[-73.5781,7.1826]],[[-73.5782,7.1847],[-73.5792,7.1862],[-73.5788,7.187],[-73.5773,7.1852],[-73.5782,7.1847]],[[-73.5747,7.1868],[-73.5734,7.1875],[-73.5727,7.1868],[-73.5727,7.1853],[-73.5712,7.1847],[-73.5727,7.1837],[-73.5748,7.1839],[-73.5756,7.1855],[-73.5755,7.1864],[-73.5747,7.1868]],[[-73.5767,7.1866],[-73.5765,7.1855],[-73.5772,7.1862],[-73.5767,7.1866]],[[-73.5674,7.1798],[-73.5671,7.1819],[-73.5669,7.1802],[-73.5674,7.1798]],[[-73.5804,7.1802],[-73.5796,7.1798],[-73.5798,7.1794],[-73.5822,7.1798],[-73.5804,7.1802]],[[-73.5841,7.1799],[-73.5849,7.1802],[-73.5825,7.1813],[-73.5841,7.1799]],[[-73.5807,7.181],[-73.5809,7.182],[-73.5793,7.1826],[-73.5787,7.1818],[-73.5788,7.181],[-73.5807,7.181]],[[-73.6054,7.1892],[-73.6064,7.1889],[-73.6069,7.1895],[-73.6041,7.1907],[-73.6054,7.1892]],[[-73.6099,7.1905],[-73.6093,7.1895],[-73.6117,7.19],[-73.6121,7.1907],[-73.6109,7.1914],[-73.6099,7.1905]],[[-73.5684,7.1759],[-73.57,7.1775],[-73.5684,7.177],[-73.5684,7.1759]],[[-73.5668,7.1716],[-73.5673,7.1728],[-73.5666,7.1746],[-73.5668,7.1716]],[[-73.5659,7.1665],[-73.5669,7.1675],[-73.567,7.1698],[-73.5654,7.167],[-73.5659,7.1665]],[[-73.5609,7.1665],[-73.5585,7.1667],[-73.5603,7.1655],[-73.5614,7.1658],[-73.5609,7.1665]],[[-73.5562,7.1658],[-73.5539,7.1649],[-73.5526,7.1631],[-73.557,7.1631],[-73.5599,7.1624],[-73.56,7.1647],[-73.5562,7.1658]],[[-73.5503,7.1629],[-73.5515,7.1653],[-73.5512,7.1658],[-73.5477,7.1623],[-73.5484,7.162],[-73.5493,7.1629],[-73.5495,7.1621],[-73.5503,7.1629]],[[-73.5418,7.1597],[-73.5355,7.1562],[-73.5325,7.1568],[-73.5304,7.1562],[-73.529,7.1566],[-73.5271,7.1557],[-73.5251,7.1536],[-73.5237,7.1478],[-73.5205,7.146],[-73.5229,7.1453],[-73.5242,7.1463],[-73.5265,7.1507],[-73.5272,7.1535],[-73.5285,7.1547],[-73.534,7.1528],[-73.5373,7.1536],[-73.5418,7.1597]],[[-73.5285,7.1543],[-73.5275,7.1533],[-73.5268,7.1503],[-73.5247,7.1463],[-73.5331,7.1499],[-73.5375,7.1529],[-73.5376,7.1534],[-73.5336,7.1525],[-73.5285,7.1543]],[[-73.5039,7.1434],[-73.5059,7.1437],[-73.5082,7.1452],[-73.5072,7.1471],[-73.5039,7.1475],[-73.5028,7.1441],[-73.5039,7.1434]],[[-73.4955,7.1456],[-73.4967,7.1463],[-73.4933,7.1479],[-73.4901,7.147],[-73.4872,7.1483],[-73.4835,7.1489],[-73.481,7.1472],[-73.4763,7.1471],[-73.4733,7.1463],[-73.4676,7.1425],[-73.4631,7.1409],[-73.4586,7.137],[-73.4651,7.1391],[-73.4673,7.1389],[-73.4705,7.1399],[-73.4736,7.1411],[-73.4768,7.1434],[-73.4818,7.1422],[-73.4853,7.1466],[-73.4869,7.1472],[-73.4881,7.1472],[-73.4916,7.1453],[-73.4955,7.1456]],[[-73.4917,7.1478],[-73.4931,7.1484],[-73.4923,7.1495],[-73.4891,7.1503],[-73.4829,7.1499],[-73.4829,7.1493],[-73.4859,7.1494],[-73.4895,7.1478],[-73.4917,7.1478]],[[-73.4947,7.15],[-73.4973,7.1485],[-73.4984,7.1485],[-73.4986,7.149],[-73.4978,7.1492],[-73.4966,7.1514],[-73.495,7.1512],[-73.4947,7.15]],[[-73.4764,7.1486],[-73.4779,7.1483],[-73.482,7.1498],[-73.482,7.1503],[-73.4788,7.1502],[-73.4764,7.1486]],[[-73.4561,7.137],[-73.4614,7.143],[-73.4583,7.1421],[-73.4566,7.1401],[-73.4536,7.1396],[-73.4534,7.138],[-73.4517,7.1356],[-73.4519,7.1352],[-73.4561,7.137]],[[-73.4551,7.1353],[-73.4531,7.134],[-73.455,7.1327],[-73.4577,7.1328],[-73.4612,7.1346],[-73.4624,7.1346],[-73.4585,7.1325],[-73.4599,7.1322],[-73.4619,7.1329],[-73.4629,7.1342],[-73.4661,7.1345],[-73.4676,7.1355],[-73.4677,7.1363],[-73.467,7.137],[-73.4646,7.1368],[-73.4629,7.1374],[-73.4627,7.137],[-73.4637,7.1368],[-73.4619,7.1364],[-73.461,7.1369],[-73.46,7.1361],[-73.4604,7.1353],[-73.459,7.1357],[-73.4551,7.1353]],[[-73.4444,7.1331],[-73.4418,7.1338],[-73.4402,7.1324],[-73.4442,7.1322],[-73.4448,7.1328],[-73.4444,7.1331]],[[-73.4684,7.1369],[-73.4686,7.136],[-73.4729,7.1369],[-73.4737,7.138],[-73.4736,7.1399],[-73.4703,7.1384],[-73.4687,7.1385],[-73.4684,7.1369]],[[-73.5191,7.1421],[-73.5198,7.1427],[-73.5191,7.1441],[-73.516,7.1424],[-73.5175,7.1415],[-73.5191,7.1421]],[[-73.3836,7.0697],[-73.3852,7.0702],[-73.3863,7.0745],[-73.3836,7.0722],[-73.3833,7.0706],[-73.3815,7.0683],[-73.3836,7.0697]],[[-73.3795,7.0683],[-73.3802,7.0699],[-73.3793,7.0713],[-73.3779,7.0679],[-73.3795,7.0683]],[[-73.3762,7.0677],[-73.3753,7.0692],[-73.374,7.0696],[-73.3707,7.0671],[-73.3737,7.0664],[-73.3762,7.0677]],[[-73.3706,7.0664],[-73.3697,7.067],[-73.3679,7.0662],[-73.3696,7.0658],[-73.3706,7.0664]],[[-73.376,7.0661],[-73.3747,7.0649],[-73.3762,7.0648],[-73.3768,7.0657],[-73.376,7.0661]],[[-73.3744,7.0647],[-73.371,7.0645],[-73.3743,7.0633],[-73.3755,7.0643],[-73.3744,7.0647]],[[-73.368,7.0647],[-73.3647,7.0644],[-73.3662,7.0631],[-73.3683,7.0641],[-73.368,7.0647]],[[-73.3646,7.0631],[-73.3625,7.0642],[-73.3602,7.0633],[-73.3646,7.0631]],[[-73.3682,7.063],[-73.3737,7.0626],[-73.3703,7.0639],[-73.3682,7.063]],[[-73.3699,7.0625],[-73.3682,7.0615],[-73.3729,7.0621],[-73.3699,7.0625]]]}},{"type":"Feature","properties":{"nombre":"Río Sucio","tipo":"río","fuente":"IDEAM"},"geometry":{"type":"Polygon","coordinates":[[[-73.5486,7.1644],[-73.5452,7.1647],[-73.5401,7.1611],[-73.5372,7.1608],[-73.5369,7.1617],[-73.5349,7.16],[-73.5327,7.1613],[-73.5295,7.159],[-73.528,7.1623],[-73.5249,7.1615],[-73.525,7.166],[-73.5209,7.1667],[-73.52,7.1686],[-73.5183,7.1697],[-73.5147,7.1695],[-73.5158,7.1666],[-73.5144,7.1657],[-73.5114,7.1691],[-73.5101,7.1687],[-73.5095,7.1675],[-73.5075,7.1661],[-73.5071,7.1677],[-73.5048,7.1681],[-73.5013,7.1668],[-73.5003,7.1691],[-73.4992,7.1696],[-73.4996,7.1664],[-73.4931,7.1653],[-73.4931,7.1621],[-73.4924,7.1614],[-73.4912,7.162],[-73.4895,7.1613],[-73.488,7.1619],[-73.4866,7.1638],[-73.4867,7.1658],[-73.4852,7.1666],[-73.4843,7.166],[-73.484,7.1635],[-73.4829,7.1634],[-73.4818,7.1669],[-73.4828,7.1691],[-73.4822,7.1694],[-73.4799,7.1691],[-73.4787,7.1675],[-73.4766,7.1671],[-73.4763,7.164],[-73.4752,7.1648],[-73.476,7.1646],[-73.4758,7.1667],[-73.4766,7.168],[-73.4785,7.1679],[-73.4796,7.1696],[-73.4822,7.1699],[-73.4831,7.1693],[-73.4822,7.167],[-73.4833,7.1637],[-73.4838,7.164],[-73.4842,7.1668],[-73.4854,7.167],[-73.487,7.1659],[-73.487,7.164],[-73.4883,7.1622],[-73.4898,7.1618],[-73.4912,7.1625],[-73.4924,7.1619],[-73.4928,7.1626],[-73.4926,7.1653],[-73.4962,7.1665],[-73.4992,7.1667],[-73.4986,7.1691],[-73.4995,7.1701],[-73.5005,7.1693],[-73.5014,7.1672],[-73.5022,7.167],[-73.5048,7.1686],[-73.5071,7.1682],[-73.5076,7.1665],[-73.5088,7.1673],[-73.5095,7.1688],[-73.5112,7.1696],[-73.5143,7.1659],[-73.5153,7.1668],[-73.5141,7.1695],[-73.517,7.1702],[-73.5196,7.1693],[-73.5211,7.167],[-73.5234,7.1672],[-73.5255,7.1661],[-73.525,7.1622],[-73.5283,7.1623],[-73.5295,7.1594],[-73.5329,7.1617],[-73.5349,7.1603],[-73.5368,7.1623],[-73.5374,7.1622],[-73.5376,7.1613],[-73.5398,7.1616],[-73.5455,7.1654],[-73.5478,7.1654],[-73.5491,7.1646],[-73.5486,7.1644]]]}},{"type":"Feature","properties":{"nombre":"Río Sucio","tipo":"río","fuente":"IDEAM"},"geometry":{"type":"LineString","coordinates":[[-73.3483,7.1445],[-73.3463,7.1487],[-73.3453,7.1534],[-73.3424,7.1576],[-73.3418,7.1597],[-73.3406,7.1608],[-73.3403,7.163],[-73.3375,7.1673],[-73.3359,7.1684],[-73.3353,7.1707],[-73.3308,7.1731],[-73.3289,7.1769],[-73.3265,7.1785],[-73.3265,7.1807],[-73.3235,7.1831],[-73.3233,7.1844],[-73.3244,7.1859],[-73.324,7.1879],[-73.3247,7.1903],[-73.3245,7.1927],[-73.3258,7.1965],[-73.3247,7.2052],[-73.3254,7.2075],[-73.3248,7.2089],[-73.3251,7.2103],[-73.3236,7.215],[-73.3245,7.216],[-73.3257,7.216],[-73.3293,7.2196],[-73.3296,7.2265],[-73.3327,7.2295],[-73.3351,7.2292],[-73.337,7.2308],[-73.3381,7.2308],[-73.3436,7.2352],[-73.3454,7.2354],[-73.3473,7.2343],[-73.3521,7.2348],[-73.355,7.2359],[-73.3561,7.2384],[-73.3586,7.2399],[-73.3574,7.2417],[-73.3574,7.2429],[-73.3639,7.248],[-73.3665,7.247],[-73.368,7.2424],[-73.3675,7.2409],[-73.3662,7.2408],[-73.3653,7.2399],[-73.369,7.2378],[-73.3708,7.2379],[-73.3722,7.2336],[-73.3743,7.2336],[-73.3769,7.2314],[-73.3838,7.2282],[-73.3878,7.2284],[-73.3883,7.2243],[-73.3913,7.2214],[-73.3918,7.2187],[-73.3937,7.2174],[-73.3935,7.2151],[-73.3961,7.2122],[-73.3978,7.2092],[-73.3979,7.2078],[-73.3999,7.2054],[-73.4009,7.2055],[-73.4005,7.209],[-73.4015,7.2095],[-73.4027,7.2081],[-73.4034,7.2039],[-73.4048,7.2027],[-73.4065,7.2019],[-73.4083,7.204],[-73.4091,7.2039],[-73.4102,7.2016],[-73.4114,7.2023],[-73.4122,7.202],[-73.4133,7.199],[-73.4147,7.1977],[-73.4179,7.1997],[-73.4187,7.1985],[-73.4178,7.197],[-73.419,7.196],[-73.4207,7.1967],[-73.4207,7.1987],[-73.4219,7.1987],[-73.4224,7.1958],[-73.4249,7.1942],[-73.4259,7.1928],[-73.4268,7.1923],[-73.4293,7.1926],[-73.4289,7.1898],[-73.4314,7.1903],[-73.4322,7.1899],[-73.4334,7.1868],[-73.4354,7.1844],[-73.434,7.1814],[-73.4373,7.1809],[-73.4392,7.1789],[-73.44,7.1793],[-73.4408,7.1814],[-73.4414,7.1811],[-73.4411,7.1783],[-73.4436,7.1785],[-73.4441,7.1742],[-73.444,7.1729],[-73.4429,7.1715],[-73.4434,7.1698],[-73.4415,7.1671],[-73.4418,7.1662],[-73.4452,7.1653],[-73.448,7.1658],[-73.4497,7.1643],[-73.4507,7.1642],[-73.4528,7.1677],[-73.4557,7.1691],[-73.4562,7.1689],[-73.4567,7.1643],[-73.4579,7.1625],[-73.4561,7.1622],[-73.456,7.1617],[-73.4585,7.1589],[-73.4614,7.1584],[-73.4624,7.1593],[-73.4631,7.1634],[-73.4643,7.1634],[-73.4663,7.1612],[-73.4673,7.1685],[-73.4693,7.1705],[-73.4705,7.1699],[-73.4719,7.1672],[-73.4753,7.1647]]}},{"type":"Feature","properties":{"nombre":"Río Suratá","tipo":"río","fuente":"IDEAM"},"geometry":{"type":"LineString","coordinates":[[-72.9564,7.4437],[-72.9576,7.4408],[-72.9627,7.4355],[-72.9649,7.4292],[-72.9676,7.4239],[-72.9689,7.4167],[-72.9713,7.4105],[-72.9734,7.4011],[-72.9746,7.3989],[-72.9744,7.3858],[-72.9777,7.3746],[-72.9784,7.37],[-72.9808,7.3669],[-72.981,7.3627],[-72.9836,7.36],[-72.9881,7.3472],[-72.9921,7.3431],[-72.9944,7.3424],[-72.9962,7.3394],[-72.999,7.3397],[-73.0008,7.339],[-73.0028,7.3376],[-73.0038,7.3358],[-73.0076,7.3335],[-73.0127,7.3321],[-73.0147,7.3296],[-73.0181,7.3272],[-73.019,7.3256],[-73.0222,7.3248],[-73.0234,7.3171],[-73.0224,7.3151],[-73.0235,7.3139],[-73.024,7.3106],[-73.0256,7.3089],[-73.0258,7.3064],[-73.0249,7.3038],[-73.026,7.3017],[-73.0261,7.2994],[-73.025,7.2939],[-73.0251,7.2869],[-73.0245,7.2845],[-73.0254,7.2828],[-73.028,7.282],[-73.0322,7.2786],[-73.0357,7.2772],[-73.0429,7.2779],[-73.0461,7.2793],[-73.0498,7.2783],[-73.0559,7.2702],[-73.0555,7.269],[-73.0576,7.2664],[-73.0578,7.2626],[-73.0587,7.2607],[-73.0585,7.2554],[-73.0612,7.251],[-73.0606,7.2492],[-73.0575,7.2487],[-73.0579,7.2466],[-73.0574,7.2449],[-73.0536,7.2418],[-73.0528,7.2403],[-73.0534,7.2359],[-73.0561,7.2311],[-73.0557,7.2278],[-73.0568,7.2257],[-73.0564,7.2238],[-73.0571,7.2227],[-73.0563,7.2187],[-73.0574,7.2166],[-73.0593,7.2149],[-73.0609,7.2139],[-73.0641,7.2133],[-73.0635,7.2101],[-73.0638,7.2073],[-73.0655,7.2067],[-73.0657,7.2046],[-73.0671,7.2032],[-73.0663,7.2008],[-73.069,7.199],[-73.0721,7.1997],[-73.0727,7.1977],[-73.0745,7.1971],[-73.0737,7.1954],[-73.0735,7.1925],[-73.0754,7.1924],[-73.0777,7.1891],[-73.0788,7.1856],[-73.079,7.1821],[-73.0837,7.1811],[-73.084,7.1799],[-73.0834,7.1777],[-73.085,7.1762],[-73.0859,7.172],[-73.0882,7.1687],[-73.0879,7.166],[-73.0912,7.1629],[-73.0913,7.1613],[-73.0936,7.1582],[-73.0963,7.1587],[-73.0979,7.1581],[-73.0996,7.1598],[-73.1017,7.159],[-73.1061,7.1601],[-73.108,7.1587],[-73.1102,7.1584],[-73.1109,7.1575],[-73.1107,7.1559],[-73.1131,7.1557],[-73.1143,7.1546],[-73.1144,7.1531],[-73.1164,7.1528],[-73.1163,7.1503],[-73.1185,7.1513],[-73.1212,7.1545],[-73.1283,7.1555],[-73.1296,7.1582],[-73.1346,7.1591],[-73.1374,7.1654],[-73.1421,7.1654],[-73.1438,7.166]]}},{"type":"Feature","properties":{"nombre":"Río Tona","tipo":"río","fuente":"IDEAM"},"geometry":{"type":"LineString","coordinates":[[-72.9021,7.2255],[-72.9041,7.2248],[-72.9141,7.2258],[-72.916,7.2243],[-72.9188,7.2201],[-72.9224,7.2179],[-72.9263,7.2169],[-72.9299,7.2171],[-72.9318,7.2182],[-72.9367,7.2175],[-72.9425,7.2182],[-72.9447,7.2173],[-72.9468,7.2173],[-72.9485,7.2163],[-72.9534,7.2163],[-72.9558,7.2135],[-72.967,7.2048],[-72.9718,7.1957],[-72.975,7.1941],[-72.9777,7.1908],[-72.9795,7.1904],[-72.9804,7.1884],[-72.9827,7.1862],[-72.9863,7.1846],[-72.9877,7.1846],[-72.9887,7.183],[-72.995,7.1824],[-72.9974,7.1798],[-72.9994,7.1796],[-73.0011,7.1785],[-73.0012,7.1767],[-73.0059,7.1748],[-73.0072,7.1756],[-73.0103,7.1759],[-73.0146,7.1747],[-73.0221,7.1763],[-73.0245,7.1746],[-73.027,7.1746],[-73.031,7.1733],[-73.032,7.1715],[-73.0355,7.1706],[-73.0354,7.1699],[-73.0367,7.1688],[-73.0397,7.1679],[-73.0403,7.167],[-73.0423,7.1672],[-73.0444,7.1647],[-73.0464,7.1636],[-73.0465,7.1622],[-73.0508,7.1625],[-73.0525,7.1606],[-73.0543,7.1598],[-73.0549,7.1576],[-73.0581,7.1562],[-73.061,7.1567],[-73.0634,7.1507],[-73.0664,7.1471],[-73.0744,7.149],[-73.0799,7.1485],[-73.082,7.1502],[-73.0825,7.1517],[-73.085,7.1528],[-73.087,7.1526],[-73.088,7.1547],[-73.0926,7.1557],[-73.0953,7.1584]]}},{"type":"Feature","properties":{"nombre":"Río Umpalá","tipo":"río","fuente":"IDEAM"},"geometry":{"type":"LineString","coordinates":[[-72.9021,7.0342],[-72.9019,7.032],[-72.9028,7.0277],[-72.9018,7.0195],[-72.902,7.0161],[-72.9063,7.0087],[-72.9076,7.0036],[-72.9098,6.9994],[-72.9089,6.9888],[-72.9112,6.9859],[-72.9154,6.9829],[-72.9165,6.9792],[-72.9164,6.9689],[-72.9173,6.967],[-72.9203,6.9637],[-72.9219,6.9598],[-72.9242,6.9568],[-72.926,6.9449],[-72.9275,6.9435],[-72.9305,6.9375],[-72.9327,6.931],[-72.9361,6.9266],[-72.937,6.9239],[-72.9366,6.9233],[-72.9384,6.9236],[-72.9389,6.9227],[-72.9397,6.9229],[-72.9425,6.9186],[-72.9426,6.9154],[-72.9437,6.9144],[-72.9429,6.9129],[-72.9435,6.9113],[-72.9444,6.9106],[-72.9495,6.9096],[-72.9555,6.9011],[-72.9587,6.8944],[-72.9595,6.8877],[-72.9629,6.884],[-72.9683,6.8744],[-72.969,6.8714],[-72.9737,6.8645],[-72.9741,6.863],[-72.9736,6.8573],[-72.9778,6.8522],[-72.9795,6.8439],[-72.9816,6.8397],[-72.982,6.8264],[-72.9829,6.824],[-72.9849,6.8215],[-72.9895,6.8199],[-72.9915,6.8208],[-72.995,6.8252]]}},{"type":"Feature","properties":{"nombre":"Río de Oro","tipo":"río","fuente":"IDEAM"},"geometry":{"type":"LineString","coordinates":[[-72.994,7.1058],[-72.9946,7.1038],[-72.9922,7.0916],[-72.9923,7.0834],[-72.9927,7.0813],[-72.9938,7.0797],[-72.9933,7.0763],[-72.994,7.0709],[-72.9979,7.0629],[-72.9984,7.0599],[-72.9996,7.0589],[-72.9969,7.0554],[-72.9974,7.0534],[-72.996,7.0491],[-72.9968,7.0462],[-72.9961,7.0432],[-72.9992,7.0403],[-73.0005,7.0363],[-73.0027,7.0349],[-73.0023,7.0316],[-73.0055,7.0295],[-73.0064,7.0268],[-73.0056,7.0245],[-73.0085,7.0236],[-73.0102,7.0217],[-73.0108,7.0206],[-73.0103,7.0165],[-73.0118,7.0145],[-73.0125,7.0121],[-73.0168,7.0074],[-73.0169,7.0065],[-73.0152,7.0046],[-73.0155,7.0029],[-73.0137,6.9995],[-73.0138,6.9969],[-73.016,6.9933],[-73.0186,6.9913],[-73.018,6.9898],[-73.0153,6.9889],[-73.0156,6.9869],[-73.0182,6.9855],[-73.0215,6.9863],[-73.0252,6.9855],[-73.0281,6.9879],[-73.0289,6.9903],[-73.0299,6.9911],[-73.0319,6.9918],[-73.0327,6.9909],[-73.0338,6.991],[-73.0365,6.9952],[-73.0379,6.9942],[-73.0384,6.9921],[-73.0397,6.9904],[-73.0492,6.9811],[-73.0498,6.9781],[-73.0529,6.9734],[-73.0547,6.9716],[-73.0612,6.9677],[-73.0656,6.9685],[-73.0697,6.9704],[-73.0783,6.9693],[-73.0814,6.9718],[-73.0878,6.9722],[-73.0925,6.9696],[-73.0967,6.9687],[-73.1018,6.9658],[-73.1041,6.9664],[-73.1065,6.9688],[-73.1121,6.968],[-73.1147,6.9695],[-73.1182,6.9648],[-73.1252,6.9627],[-73.1295,6.9644],[-73.1332,6.9647],[-73.1342,6.9639],[-73.1354,6.9641],[-73.1381,6.9689],[-73.1386,6.9711],[-73.1411,6.9718],[-73.1421,6.9733],[-73.1429,6.9728],[-73.1435,6.9707],[-73.1458,6.9714],[-73.1469,6.9697],[-73.1493,6.9708],[-73.1506,6.9731],[-73.1546,6.9723],[-73.1558,6.9695],[-73.1582,6.9697],[-73.158,6.9713],[-73.1606,6.9715],[-73.1619,6.9706],[-73.1652,6.9708],[-73.1708,6.9732],[-73.1719,6.9795],[-73.1692,6.98],[-73.1688,6.9827],[-73.1695,6.9838],[-73.1706,6.9902],[-73.1724,6.9944],[-73.1715,6.9965],[-73.1716,6.9995],[-73.1721,7.0007],[-73.175,7.0022],[-73.1768,7.0064],[-73.1759,7.0076],[-73.1739,7.0085],[-73.1652,7.0088],[-73.1617,7.013],[-73.1609,7.0158],[-73.1619,7.018],[-73.161,7.0221],[-73.1613,7.0239],[-73.1627,7.0269],[-73.1658,7.0288],[-73.1677,7.0322],[-73.1658,7.0354],[-73.1662,7.0364],[-73.1671,7.0356],[-73.1681,7.0366],[-73.1672,7.0393],[-73.1677,7.041],[-73.1659,7.0418],[-73.1664,7.0438],[-73.1656,7.0456],[-73.1711,7.0536],[-73.1744,7.0609],[-73.174,7.0629],[-73.1728,7.0639],[-73.1664,7.0669],[-73.1659,7.0689],[-73.1663,7.0711],[-73.1651,7.0744],[-73.1655,7.0757],[-73.1706,7.0786],[-73.1709,7.0803],[-73.174,7.0853],[-73.1741,7.0876],[-73.1716,7.0894],[-73.1714,7.0903],[-73.1725,7.0956],[-73.1721,7.1021],[-73.1698,7.1043],[-73.1661,7.1058],[-73.165,7.1173],[-73.164,7.1183],[-73.1629,7.1173],[-73.1616,7.1178],[-73.1628,7.1197],[-73.1614,7.1245],[-73.1575,7.1303],[-73.1561,7.1357],[-73.1549,7.1372],[-73.1567,7.142],[-73.1507,7.1487],[-73.1494,7.1517],[-73.1448,7.1547],[-73.1435,7.1606],[-73.1445,7.1648],[-73.1438,7.1653],[-73.1439,7.167],[-73.1446,7.168],[-73.1467,7.167],[-73.1483,7.1676],[-73.1484,7.1707],[-73.1498,7.1732],[-73.1494,7.1747],[-73.1518,7.1772],[-73.152,7.1805],[-73.1512,7.1817],[-73.1512,7.1839],[-73.1497,7.186],[-73.1518,7.1877],[-73.152,7.1919],[-73.1534,7.193],[-73.1535,7.1941],[-73.1515,7.1952],[-73.1523,7.1975],[-73.1519,7.1995],[-73.1522,7.2002],[-73.1543,7.2009],[-73.1536,7.2029],[-73.1541,7.2057],[-73.1537,7.2081],[-73.1562,7.2092],[-73.1544,7.2117],[-73.1567,7.2129],[-73.157,7.2163]]}}]}