{"type":"FeatureCollection","features":[{"type":"Feature","properties":{"nombre":"Bucaramanga","osm_id":1423498},"geometry":{"type":"Polygon","coordinates":[[[-73.17216,7.10085],[-73.16703,7.0965],[-73.15853,7.09518],[-73.15988,7.08468],[-73.15735,7.07773],[-73.14543,7.07453],[-73.12329,7.08232],[-73.12631,7.07341],[-73.12308,7.07058],[-73.11116,7.07952],[-73.10491,7.09024],[-73.10651,7.09631],[-73.10496,7.09379],[-73.09412,7.09772],[-73.0942,7.10005],[-73.08365,7.10606],[-73.07915,7.12005],[-73.06991,7.11894],[-73.0659,7.11411],[-73.06112,7.11456],[-73.05907,7.12379],[-73.04937,7.13435],[-73.04981,7.14453],[-73.0572,7.14852],[-73.06296,7.14556],[-73.06596,7.14737],[-73.0611,7.15704],[-73.06479,7.17055],[-73.05681,7.18603],[-73.07478,7.19231],[-73.07448,7.19878],[-73.09054,7.21463],[-73.08338,7.23318],[-73.08137,7.26372],[-73.08493,7.25825],[-73.0928,7.25805],[-73.1046,7.24777],[-73.11392,7.23223],[-73.12035,7.22704],[-73.12246,7.21921],[-73.13289,7.21071],[-73.14509,7.20942],[-73.15623,7.21651],[-73.15966,7.21516],[-73.15448,7.20988],[-73.15032,7.18698],[-73.15277,7.18134],[-73.1437,7.16583],[-73.14376,7.15933],[-73.14479,7.15493],[-73.15583,7.14441],[-73.15499,7.13707],[-73.16037,7.12752],[-73.16573,7.10652],[-73.17216,7.10085]]]}},{"type":"Feature","properties":{"nombre":"Floridablanca","osm_id":1423451},"geometry":{"type":"Polygon","coordinates":[[[-73.13517,7.05185],[-73.12814,7.04224],[-73.12713,7.03452],[-73.12458,7.03278],[-73.11924,7.03601],[-73.118,7.03171],[-73.12254,7.02971],[-73.11669,7.02458],[-73.11624,7.01843],[-73.11064,7.01727],[-73.10418,7.02203],[-73.09718,7.02047],[-73.09752,7.02665],[-73.0911,7.03341],[-73.0856,7.02692],[-73.07822,7.02388],[-73.0802,7.03218],[-73.07403,7.03859],[-73.07156,7.03646],[-73.06359,7.03859],[-73.0498,7.04683],[-73.04865,7.0517],[-73.03868,7.05896],[-73.03784,7.06587],[-73.02958,7.07045],[-73.02373,7.09807],[-73.01954,7.09765],[-73.01142,7.10301],[-73.00588,7.09961],[-73.00229,7.1008],[-73.00493,7.11557],[-73.01893,7.12374],[-73.02088,7.13428],[-73.02573,7.1355],[-73.02405,7.14053],[-73.03437,7.14806],[-73.0518,7.13347],[-73.05299,7.1279],[-73.05907,7.12379],[-73.06059,7.11483],[-73.0659,7.11411],[-73.06991,7.11894],[-73.0782,7.12066],[-73.08365,7.10606],[-73.0942,7.10005],[-73.09412,7.09772],[-73.10496,7.09379],[-73.10651,7.09631],[-73.10491,7.09024],[-73.11116,7.07952],[-73.12365,7.07049],[-73.12383,7.0657],[-73.13458,7.05965],[-73.13517,7.05185]]]}},{"type":"Feature","properties":{"nombre":"Girón","osm_id":1423476},"geometry":{"type":"Polygon","coordinates":[[[-73.54535,7.15994],[-73.52119,7.14376],[-73.47861,7.14935],[-73.4636,7.14306],[-73.45077,7.13259],[-73.43881,7.13155],[-73.43602,7.12073],[-73.43203,7.11648],[-73.39384,7.09331],[-73.39484,7.08483],[-73.37835,7.06806],[-73.3584,7.06324],[-73.34844,7.06443],[-73.34377,7.05781],[-73.34602,7.05116],[-73.34356,7.04034],[-73.32825,7.03158],[-73.32108,7.03117],[-73.29632,7.01943],[-73.28575,7.00775],[-73.2772,6.98601],[-73.26197,6.96799],[-73.2344,6.9531],[-73.21985,6.92854],[-73.2013,6.90518],[-73.18551,6.90149],[-73.17589,6.88423],[-73.16591,6.88455],[-73.16584,6.88717],[-73.15142,6.8946],[-73.12969,6.89955],[-73.11287,6.90924],[-73.10428,6.91088],[-73.09957,6.9173],[-73.10215,6.93018],[-73.08935,6.94013],[-73.10169,6.94527],[-73.10622,6.95225],[-73.10855,6.96324],[-73.10544,6.96775],[-73.11538,6.96832],[-73.11687,6.97708],[-73.11463,6.98218],[-73.12277,6.99124],[-73.11333,6.99581],[-73.11426,7.00851],[-73.11552,7.01173],[-73.12238,7.01193],[-73.12598,7.01534],[-73.11551,7.02229],[-73.12254,7.02971],[-73.118,7.03171],[-73.11924,7.03601],[-73.12458,7.03278],[-73.12713,7.03452],[-73.12814,7.04224],[-73.13517,7.05185],[-73.13458,7.05965],[-73.12316,7.06724],[-73.12631,7.07341],[-73.12329,7.08232],[-73.1371,7.07887],[-73.1407,7.07526],[-73.15532,7.07693],[-73.15988,7.08468],[-73.15853,7.09518],[-73.17209,7.09901],[-73.1716,7.10306],[-73.16573,7.10652],[-73.16037,7.12752],[-73.15499,7.13707],[-73.15583,7.14441],[-73.14479,7.15493],[-73.14376,7.15933],[-73.1437,7.16583],[-73.15277,7.18134],[-73.15032,7.18698],[-73.15424,7.20901],[-73.15797,7.21504],[-73.16438,7.21143],[-73.15903,7.20401],[-73.16016,7.1963],[-73.15702,7.19255],[-73.15647,7.18592],[-73.16185,7.1729],[-73.16013,7.162],[-73.16628,7.15154],[-73.18355,7.13832],[-73.18044,7.11413],[-73.19997,7.06735],[-73.19816,7.05553],[-73.20212,7.04858],[-73.1987,7.04566],[-73.20404,7.04318],[-73.2272,7.0411],[-73.23622,7.05018],[-73.2604,7.05459],[-73.25859,7.06064],[-73.262,7.06359],[-73.26053,7.07378],[-73.26362,7.08598],[-73.29338,7.10882],[-73.28955,7.11831],[-73.31297,7.12683],[-73.31839,7.11172],[-73.34524,7.12169],[-73.36266,7.14126],[-73.39023,7.15147],[-73.4045,7.15236],[-73.41112,7.16149],[-73.41799,7.15051],[-73.42364,7.15464],[-73.42793,7.17108],[-73.43461,7.18114],[-73.44201,7.1786],[-73.44754,7.16683],[-73.45635,7.16724],[-73.45861,7.16],[-73.46653,7.16123],[-73.47263,7.16914],[-73.48097,7.17005],[-73.49816,7.16617],[-73.50618,7.16914],[-73.5216,7.16896],[-73.54535,7.15994]]]}},{"type":"Feature","properties":{"nombre":"Piedecuesta","osm_id":1423480},"geometry":{"type":"Polygon","coordinates":[[[-73.12598,7.01534],[-73.12238,7.01193],[-73.11552,7.01173],[-73.11426,7.00851],[-73.11333,6.99581],[-73.12277,6.99124],[-73.11463,6.98218],[-73.11687,6.97708],[-73.11538,6.96832],[-73.10544,6.96775],[-73.10855,6.96324],[-73.10622,6.95225],[-73.10169,6.94527],[-73.08935,6.94013],[-73.10215,6.93018],[-73.09924,6.9181],[-73.10543,6.91071],[-73.10251,6.90588],[-73.09383,6.89983],[-73.08417,6.88684],[-73.07694,6.88733],[-73.07402,6.88382],[-73.0654,6.88177],[-73.05811,6.87416],[-73.0529,6.87364],[-73.03485,6.85214],[-73.01754,6.84232],[-73.01096,6.83154],[-73.0053,6.8301],[-73.00512,6.82443],[-72.98377,6.80568],[-72.98411,6.79094],[-72.95803,6.79188],[-72.94718,6.81234],[-72.93996,6.80457],[-72.9342,6.81597],[-72.93444,6.8216],[-72.92017,6.84145],[-72.91484,6.85401],[-72.91697,6.8731],[-72.91932,6.877],[-72.92864,6.86918],[-72.93618,6.86776],[-72.93634,6.86492],[-72.94339,6.86582],[-72.94169,6.87504],[-72.95387,6.88415],[-72.96102,6.88613],[-72.95809,6.88839],[-72.95865,6.89448],[-72.95335,6.90557],[-72.95753,6.90837],[-72.96674,6.90773],[-72.97227,6.92576],[-72.99378,6.93024],[-72.99076,6.93112],[-72.99094,6.9366],[-72.9842,6.94657],[-72.98642,6.94825],[-72.98191,6.95293],[-72.97665,6.9503],[-72.97141,6.95157],[-72.96091,6.94587],[-72.95012,6.95432],[-72.94587,6.9525],[-72.94214,6.95742],[-72.93902,6.968],[-72.92231,6.99468],[-72.9217,7.00849],[-72.91487,7.02724],[-72.91678,7.04927],[-72.90796,7.06945],[-72.91031,7.08046],[-72.93734,7.09497],[-72.94223,7.09488],[-72.95029,7.08634],[-72.95373,7.0917],[-72.95427,7.10299],[-72.98328,7.11271],[-72.99483,7.1078],[-73.00418,7.09996],[-73.01142,7.10301],[-73.01954,7.09765],[-73.02373,7.09807],[-73.02958,7.07045],[-73.03784,7.06587],[-73.03868,7.05896],[-73.04865,7.0517],[-73.0498,7.04683],[-73.06359,7.03859],[-73.07156,7.03646],[-73.07403,7.03859],[-73.0802,7.03218],[-73.07822,7.02388],[-73.0856,7.02692],[-73.0911,7.03341],[-73.09752,7.02665],[-73.09718,7.02047],[-73.10418,7.02203],[-73.11091,7.01719],[-73.123,7.01899],[-73.12598,7.01534]]]}},{"type":"Feature","properties":{"nombre":"Lebrija","osm_id":1343739},"geometry":{"type":"Polygon","coordinates":[[[-73.43461,7.18114],[-73.42793,7.17108],[-73.42364,7.15464],[-73.41799,7.15051],[-73.41112,7.16149],[-73.4045,7.15236],[-73.39023,7.15147],[-73.36266,7.14126],[-73.34524,7.12169],[-73.31839,7.11172],[-73.31297,7.12683],[-73.28955,7.11831],[-73.29338,7.10882],[-73.26362,7.08598],[-73.26053,7.07378],[-73.262,7.06359],[-73.25859,7.06064],[-73.2604,7.05459],[-73.23622,7.05018],[-73.22559,7.04102],[-73.19928,7.04438],[-73.20212,7.04858],[-73.19816,7.05553],[-73.19997,7.06735],[-73.18044,7.11413],[-73.18355,7.13832],[-73.17609,7.14212],[-73.16287,7.15716],[-73.16013,7.162],[-73.16185,7.1729],[-73.15647,7.18592],[-73.16016,7.1963],[-73.15903,7.20401],[-73.16438,7.21143],[-73.17156,7.21297],[-73.17868,7.20834],[-73.20209,7.21985],[-73.21928,7.21882],[-73.23947,7.238],[-73.24751,7.23609],[-73.25113,7.24323],[-73.24888,7.25612],[-73.25237,7.27529],[-73.27565,7.31456],[-73.28054,7.33091],[-73.28677,7.33425],[-73.28686,7.34415],[-73.29281,7.35083],[-73.31288,7.35224],[-73.32894,7.33568],[-73.34645,7.33931],[-73.34726,7.34524],[-73.34154,7.3516],[-73.3471,7.36793],[-73.34222,7.39197],[-73.34787,7.4016],[-73.34979,7.42372],[-73.35618,7.42898],[-73.35456,7.42559],[-73.35717,7.42259],[-73.36908,7.42298],[-73.37412,7.4078],[-73.38376,7.41468],[-73.38573,7.40656],[-73.37324,7.39499],[-73.3787,7.37997],[-73.37071,7.37226],[-73.37307,7.35411],[-73.36903,7.34956],[-73.36315,7.33127],[-73.36151,7.2967],[-73.35565,7.28342],[-73.36308,7.26448],[-73.38217,7.23765],[-73.39846,7.20705],[-73.40072,7.20536],[-73.40133,7.20949],[-73.40442,7.20292],[-73.42225,7.19702],[-73.43205,7.18768],[-73.43461,7.18114]]]}},{"type":"Feature","properties":{"nombre":"Rionegro","osm_id":1314969},"geometry":{"type":"Polygon","coordinates":[[[-73.76119,7.70262],[-73.75426,7.68001],[-73.74729,7.68144],[-73.74328,7.67544],[-73.73379,7.6771],[-73.72652,7.67191],[-73.72848,7.66629],[-73.72583,7.66306],[-73.71819,7.66004],[-73.70959,7.66525],[-73.70748,7.67013],[-73.69731,7.67403],[-73.69191,7.65774],[-73.68363,7.65728],[-73.68597,7.65062],[-73.67657,7.65183],[-73.68041,7.64458],[-73.67193,7.64673],[-73.66878,7.64173],[-73.66481,7.6479],[-73.66058,7.64851],[-73.66194,7.63452],[-73.65264,7.63478],[-73.65296,7.62306],[-73.6594,7.62291],[-73.65916,7.61369],[-73.65035,7.61375],[-73.65071,7.60377],[-73.64216,7.61053],[-73.63616,7.60175],[-73.63133,7.60664],[-73.62575,7.60207],[-73.61528,7.60522],[-73.59902,7.59516],[-73.5654,7.5879],[-73.55754,7.57236],[-73.55085,7.57008],[-73.55386,7.56421],[-73.55258,7.55062],[-73.54744,7.54825],[-73.54029,7.54968],[-73.54022,7.53644],[-73.53001,7.53274],[-73.52606,7.51836],[-73.52241,7.51461],[-73.51443,7.51104],[-73.51237,7.50491],[-73.5022,7.50772],[-73.4846,7.50495],[-73.47019,7.49378],[-73.47369,7.48572],[-73.47229,7.48046],[-73.46423,7.48274],[-73.45775,7.48098],[-73.46511,7.46854],[-73.45218,7.46656],[-73.45363,7.456],[-73.45081,7.45235],[-73.44025,7.45287],[-73.43977,7.44896],[-73.44487,7.44077],[-73.41961,7.40658],[-73.41508,7.40601],[-73.40844,7.41437],[-73.40237,7.40195],[-73.39817,7.40178],[-73.39297,7.40783],[-73.38573,7.40656],[-73.38376,7.41468],[-73.37412,7.4078],[-73.36908,7.42298],[-73.35717,7.42259],[-73.35456,7.42559],[-73.35618,7.42898],[-73.35124,7.42605],[-73.34787,7.4016],[-73.34222,7.39197],[-73.3471,7.36793],[-73.34154,7.3516],[-73.34726,7.34524],[-73.34645,7.33931],[-73.32894,7.33568],[-73.31288,7.35224],[-73.29551,7.35248],[-73.29151,7.34957],[-73.28686,7.34415],[-73.28677,7.33425],[-73.28054,7.33091],[-73.27565,7.31456],[-73.25237,7.27529],[-73.24888,7.25612],[-73.25113,7.24323],[-73.24751,7.23609],[-73.23947,7.238],[-73.21928,7.21882],[-73.20209,7.21985],[-73.17868,7.20834],[-73.17156,7.21297],[-73.1647,7.21127],[-73.15623,7.21651],[-73.14509,7.20942],[-73.13653,7.20942],[-73.12246,7.21921],[-73.12035,7.22704],[-73.11502,7.23079],[-73.10325,7.24905],[-73.09196,7.25848],[-73.08493,7.25825],[-73.07981,7.26926],[-73.0817,7.27554],[-73.09676,7.2882],[-73.11263,7.29188],[-73.10874,7.2964],[-73.11111,7.30257],[-73.10898,7.31607],[-73.12105,7.32653],[-73.11629,7.32952],[-73.11341,7.33968],[-73.10484,7.34982],[-73.10637,7.35577],[-73.10262,7.3597],[-73.10325,7.36284],[-73.09614,7.36818],[-73.10573,7.37319],[-73.11098,7.38107],[-73.10974,7.392],[-73.10087,7.39962],[-73.09554,7.41315],[-73.08814,7.42145],[-73.08155,7.44399],[-73.09017,7.45103],[-73.09067,7.4559],[-73.07877,7.4581],[-73.07869,7.47159],[-73.09744,7.4738],[-73.11053,7.46413],[-73.1101,7.46116],[-73.12191,7.4459],[-73.12885,7.44397],[-73.13072,7.43916],[-73.14387,7.43878],[-73.14751,7.4348],[-73.168,7.43078],[-73.17153,7.42797],[-73.17004,7.42247],[-73.17376,7.41552],[-73.18086,7.41795],[-73.1857,7.41294],[-73.18956,7.41832],[-73.19699,7.44679],[-73.20927,7.44957],[-73.21587,7.44102],[-73.22914,7.44997],[-73.22855,7.45874],[-73.23098,7.46185],[-73.24877,7.433],[-73.25492,7.43578],[-73.26234,7.43443],[-73.26612,7.43813],[-73.27792,7.43394],[-73.29676,7.43225],[-73.29954,7.43955],[-73.30717,7.44226],[-73.30734,7.45038],[-73.30391,7.45552],[-73.29529,7.4567],[-73.29396,7.46345],[-73.31316,7.48707],[-73.32235,7.49015],[-73.32609,7.50145],[-73.31726,7.506],[-73.31897,7.50913],[-73.31695,7.51596],[-73.30795,7.52593],[-73.29401,7.52916],[-73.29448,7.53225],[-73.2818,7.549],[-73.34984,7.54415],[-73.36201,7.54638],[-73.36846,7.56295],[-73.38481,7.57982],[-73.39582,7.57837],[-73.39739,7.56792],[-73.40612,7.56563],[-73.41337,7.56577],[-73.42237,7.57157],[-73.42837,7.56878],[-73.44067,7.5739],[-73.46903,7.57665],[-73.47611,7.58529],[-73.48396,7.58896],[-73.48405,7.59287],[-73.49166,7.5928],[-73.4913,7.60171],[-73.51489,7.63265],[-73.51828,7.65492],[-73.52538,7.66579],[-73.54548,7.66489],[-73.55497,7.67167],[-73.55452,7.67776],[-73.54751,7.68138],[-73.54729,7.68883],[-73.55654,7.70564],[-73.56626,7.71322],[-73.57507,7.72609],[-73.60849,7.72948],[-73.63743,7.74948],[-73.75293,7.75064],[-73.758,7.74631],[-73.7538,7.7434],[-73.75583,7.73821],[-73.75386,7.73213],[-73.75989,7.7268],[-73.75603,7.72366],[-73.75989,7.71525],[-73.75474,7.71063],[-73.76119,7.70262]]]}},{"type":"Feature","properties":{"nombre":"El Playón","osm_id":1314968},"geometry":{"type":"Polygon","coordinates":[[[-73.32609,7.50145],[-73.32235,7.49015],[-73.31316,7.48707],[-73.29396,7.46345],[-73.29529,7.4567],[-73.30391,7.45552],[-73.30734,7.45038],[-73.30717,7.44226],[-73.29954,7.43955],[-73.29761,7.43254],[-73.27792,7.43394],[-73.26612,7.43813],[-73.26234,7.43443],[-73.25492,7.43578],[-73.24877,7.433],[-73.23098,7.46185],[-73.22855,7.45874],[-73.22914,7.44997],[-73.21587,7.44102],[-73.20927,7.44957],[-73.19699,7.44679],[-73.18956,7.41832],[-73.1857,7.41294],[-73.18086,7.41795],[-73.17376,7.41552],[-73.17004,7.42247],[-73.17153,7.42797],[-73.168,7.43078],[-73.14751,7.4348],[-73.14387,7.43878],[-73.13072,7.43916],[-73.12885,7.44397],[-73.12191,7.4459],[-73.1101,7.46116],[-73.11053,7.46413],[-73.09661,7.47416],[-73.07869,7.47159],[-73.0785,7.45792],[-73.04587,7.45883],[-73.0476,7.47188],[-73.05293,7.48407],[-73.06381,7.48821],[-73.07166,7.48626],[-73.08256,7.49012],[-73.09093,7.48828],[-73.08529,7.49395],[-73.07413,7.49863],[-73.06745,7.50769],[-73.06692,7.51355],[-73.0732,7.5134],[-73.08183,7.51848],[-73.0963,7.53309],[-73.08948,7.54184],[-73.08538,7.55714],[-73.07221,7.56322],[-73.0705,7.57255],[-73.06186,7.57293],[-73.04803,7.60728],[-73.05829,7.60609],[-73.0645,7.60973],[-73.07785,7.6115],[-73.08848,7.60953],[-73.09995,7.62028],[-73.12348,7.60685],[-73.13132,7.61405],[-73.1572,7.61982],[-73.16546,7.62595],[-73.18119,7.6196],[-73.19098,7.62322],[-73.19516,7.62803],[-73.20377,7.62934],[-73.21256,7.62688],[-73.21723,7.63265],[-73.22149,7.63263],[-73.2343,7.62118],[-73.24589,7.59873],[-73.25869,7.58776],[-73.25826,7.5785],[-73.24988,7.56723],[-73.24838,7.55954],[-73.25573,7.53095],[-73.26058,7.52942],[-73.26878,7.53956],[-73.27749,7.54301],[-73.2818,7.549],[-73.29448,7.53225],[-73.29401,7.52916],[-73.30795,7.52593],[-73.31695,7.51596],[-73.31897,7.50913],[-73.31726,7.506],[-73.32609,7.50145]]]}},{"type":"Feature","properties":{"nombre":"California","osm_id":1343387},"geometry":{"type":"Polygon","coordinates":[[[-72.98004,7.35141],[-72.9789,7.34162],[-72.96961,7.33059],[-72.96265,7.32669],[-72.95283,7.3149],[-72.94668,7.31434],[-72.94008,7.30649],[-72.91775,7.29082],[-72.91278,7.29469],[-72.91703,7.30594],[-72.93231,7.31689],[-72.93183,7.34112],[-72.92553,7.33911],[-72.92383,7.35001],[-72.90587,7.35666],[-72.8859,7.36988],[-72.88828,7.37635],[-72.86494,7.37711],[-72.87573,7.38212],[-72.8763,7.38877],[-72.88215,7.39111],[-72.88553,7.40034],[-72.8956,7.4017],[-72.89658,7.39809],[-72.91274,7.39278],[-72.91563,7.38175],[-72.92213,7.38432],[-72.92654,7.37642],[-72.93365,7.37266],[-72.93709,7.36415],[-72.95022,7.34832],[-72.98004,7.35141]]]}},{"type":"Feature","properties":{"nombre":"Charta","osm_id":1423481},"geometry":{"type":"Polygon","coordinates":[[[-73.07478,7.19231],[-73.05681,7.18603],[-73.05201,7.19037],[-73.04111,7.1897],[-73.03675,7.19597],[-73.02929,7.19822],[-73.02403,7.20473],[-73.0181,7.22528],[-73.00654,7.23978],[-72.99638,7.24138],[-72.98806,7.25129],[-72.97608,7.25152],[-72.96714,7.23953],[-72.9565,7.23569],[-72.91216,7.24876],[-72.89798,7.24579],[-72.89426,7.25192],[-72.88149,7.25769],[-72.88257,7.2623],[-72.89034,7.26346],[-72.90357,7.27305],[-72.90707,7.27945],[-72.91453,7.28019],[-72.91778,7.29086],[-72.93347,7.29042],[-72.94684,7.30651],[-72.95535,7.3076],[-72.95835,7.31334],[-72.972,7.31872],[-72.98995,7.30784],[-72.99714,7.29565],[-73.01067,7.29304],[-73.015,7.2897],[-73.01615,7.2844],[-73.02092,7.28029],[-73.02886,7.28095],[-73.03568,7.27679],[-73.0462,7.27901],[-73.05252,7.27559],[-73.06112,7.25022],[-73.05291,7.24026],[-73.05648,7.21769],[-73.06384,7.21312],[-73.06724,7.20063],[-73.073,7.19798],[-73.07478,7.19231]]]}},{"type":"Feature","properties":{"nombre":"Matanza","osm_id":1423477},"geometry":{"type":"Polygon","coordinates":[[[-73.12105,7.32653],[-73.10898,7.31607],[-73.11111,7.30257],[-73.10874,7.2964],[-73.11263,7.29188],[-73.09656,7.28809],[-73.08791,7.28247],[-73.08022,7.27215],[-73.08338,7.23318],[-73.09054,7.21463],[-73.0818,7.20829],[-73.07377,7.19688],[-73.0677,7.19986],[-73.06384,7.21312],[-73.05648,7.21769],[-73.05291,7.24026],[-73.06112,7.25022],[-73.05252,7.27559],[-73.0462,7.27901],[-73.03568,7.27679],[-73.02886,7.28095],[-73.02092,7.28029],[-73.01615,7.2844],[-73.015,7.2897],[-73.01067,7.29304],[-72.99714,7.29565],[-72.98995,7.30784],[-72.97893,7.31417],[-72.98173,7.33347],[-72.99412,7.34214],[-72.99583,7.33927],[-73.00157,7.33849],[-73.00516,7.35028],[-73.01591,7.36046],[-73.01629,7.36382],[-73.00597,7.37856],[-72.99932,7.4175],[-73.00956,7.42323],[-73.01167,7.43276],[-73.02039,7.43542],[-73.02793,7.45124],[-73.04404,7.45922],[-73.08993,7.45762],[-73.09017,7.45103],[-73.08155,7.44399],[-73.08264,7.4365],[-73.10087,7.39962],[-73.1093,7.39362],[-73.11113,7.38283],[-73.10573,7.37319],[-73.096,7.3687],[-73.10325,7.36284],[-73.10262,7.3597],[-73.10637,7.35577],[-73.10484,7.34982],[-73.11341,7.33968],[-73.11629,7.32952],[-73.12105,7.32653]]]}},{"type":"Feature","properties":{"nombre":"Suratá","osm_id":1314972},"geometry":{"type":"Polygon","coordinates":[[[-73.0963,7.53309],[-73.08183,7.51848],[-73.0732,7.5134],[-73.06692,7.51355],[-73.06745,7.50769],[-73.07413,7.49863],[-73.08529,7.49395],[-73.09093,7.48828],[-73.08256,7.49012],[-73.07166,7.48626],[-73.06381,7.48821],[-73.05293,7.48407],[-73.0449,7.45927],[-73.02793,7.45124],[-73.02039,7.43542],[-73.01167,7.43276],[-73.00956,7.42323],[-72.99939,7.41802],[-73.00597,7.37856],[-73.01629,7.36382],[-73.01486,7.35841],[-73.0018,7.34464],[-73.00157,7.33849],[-72.99583,7.33927],[-72.99412,7.34214],[-72.98205,7.33386],[-72.97931,7.31346],[-72.96834,7.31887],[-72.96476,7.31464],[-72.95766,7.31275],[-72.95535,7.3076],[-72.94684,7.30651],[-72.93347,7.29042],[-72.92034,7.29177],[-72.94668,7.31434],[-72.95283,7.3149],[-72.97344,7.33444],[-72.97957,7.3433],[-72.97972,7.35269],[-72.95022,7.34832],[-72.93709,7.36415],[-72.93365,7.37266],[-72.92654,7.37642],[-72.92213,7.38432],[-72.91563,7.38175],[-72.91274,7.39278],[-72.89658,7.39809],[-72.89602,7.40159],[-72.88553,7.40034],[-72.88215,7.39111],[-72.87671,7.38939],[-72.87648,7.38313],[-72.87177,7.37907],[-72.86494,7.37711],[-72.86583,7.3813],[-72.86294,7.38369],[-72.87453,7.39221],[-72.87729,7.40626],[-72.89154,7.41983],[-72.89309,7.42674],[-72.90049,7.43482],[-72.90162,7.44628],[-72.89403,7.47238],[-72.89559,7.48048],[-72.9024,7.4771],[-72.91003,7.48788],[-72.92811,7.49533],[-72.93133,7.50355],[-72.93672,7.50564],[-72.93944,7.51255],[-72.96224,7.51937],[-72.97781,7.52962],[-72.9774,7.53922],[-72.98478,7.54954],[-72.98937,7.58595],[-72.98902,7.59711],[-72.98002,7.61205],[-72.98275,7.62042],[-72.99818,7.61785],[-73.01174,7.62271],[-73.02353,7.62073],[-73.03399,7.62358],[-73.03901,7.62133],[-73.04111,7.6138],[-73.04871,7.60645],[-73.06186,7.57293],[-73.0705,7.57255],[-73.07221,7.56322],[-73.08538,7.55714],[-73.08948,7.54184],[-73.0963,7.53309]]]}},{"type":"Feature","properties":{"nombre":"Tona","osm_id":1423453},"geometry":{"type":"Polygon","coordinates":[[[-73.06596,7.14737],[-73.06296,7.14556],[-73.0572,7.14852],[-73.04981,7.14453],[-73.04937,7.13435],[-73.03437,7.14806],[-73.02801,7.14513],[-73.02405,7.14053],[-73.02573,7.1355],[-73.02088,7.13428],[-73.01893,7.12374],[-73.00619,7.118],[-73.00226,7.10191],[-72.98328,7.11271],[-72.96989,7.10969],[-72.95427,7.10299],[-72.95373,7.0917],[-72.95029,7.08634],[-72.94223,7.09488],[-72.93734,7.09497],[-72.91096,7.0805],[-72.88519,7.07754],[-72.87891,7.05835],[-72.87491,7.05391],[-72.86766,7.05679],[-72.85572,7.05593],[-72.84766,7.04773],[-72.83741,7.04455],[-72.82216,7.05219],[-72.8229,7.05631],[-72.81765,7.06667],[-72.82228,7.07639],[-72.81885,7.09004],[-72.83825,7.09863],[-72.83479,7.10562],[-72.83638,7.11724],[-72.84282,7.12164],[-72.85016,7.13011],[-72.85282,7.13915],[-72.85581,7.1396],[-72.85494,7.14826],[-72.85861,7.15476],[-72.84234,7.16955],[-72.84158,7.19294],[-72.83239,7.19949],[-72.83154,7.20752],[-72.84171,7.20641],[-72.8558,7.21747],[-72.8577,7.22721],[-72.86578,7.23433],[-72.8647,7.24557],[-72.86846,7.2515],[-72.86831,7.25718],[-72.87463,7.26352],[-72.88538,7.25485],[-72.89426,7.25192],[-72.89918,7.24536],[-72.91216,7.24876],[-72.9565,7.23569],[-72.96714,7.23953],[-72.97608,7.25152],[-72.98904,7.25091],[-72.99638,7.24138],[-73.00606,7.2402],[-73.01708,7.2272],[-73.02331,7.20612],[-73.02929,7.19822],[-73.03579,7.19669],[-73.04111,7.1897],[-73.05201,7.19037],[-73.05681,7.18603],[-73.06479,7.17055],[-73.0611,7.15704],[-73.06596,7.14737]]]}},{"type":"Feature","properties":{"nombre":"Vetas","osm_id":1423514},"geometry":{"type":"Polygon","coordinates":[[[-72.93324,7.32644],[-72.93179,7.31532],[-72.91814,7.30789],[-72.9142,7.29992],[-72.91278,7.29469],[-72.91775,7.29082],[-72.91453,7.28019],[-72.90707,7.27945],[-72.90357,7.27305],[-72.88958,7.26301],[-72.88314,7.26327],[-72.88149,7.25769],[-72.87463,7.26352],[-72.87662,7.2662],[-72.87048,7.27315],[-72.87071,7.27726],[-72.86337,7.28345],[-72.85568,7.28478],[-72.84695,7.29487],[-72.83442,7.30347],[-72.84227,7.31598],[-72.83968,7.31999],[-72.84151,7.34443],[-72.83803,7.36004],[-72.85545,7.36233],[-72.85192,7.37326],[-72.86294,7.38369],[-72.8667,7.37533],[-72.88063,7.37788],[-72.88828,7.37635],[-72.8859,7.36988],[-72.90587,7.35666],[-72.92383,7.35001],[-72.92553,7.33911],[-72.93183,7.34112],[-72.93324,7.32644]]]}}]}