{"type":"FeatureCollection","name":"paramos_delimitados_cdmb","features":[{"type":"Feature","properties":{"nombre":"Almorzadero","tipo":"páramo","fuente":"MADS","acto":"Resolución No. 152 de Enero 31 de 2018","escala":"25.000","hectareas":157074.2},"geometry":{"type":"Polygon","coordinates":[[[-72.5435,6.5311],[-72.5454,6.5344],[-72.5413,6.5416],[-72.542,6.5512],[-72.5469,6.5556],[-72.5495,6.5604],[-72.5533,6.5623],[-72.5531,6.5655],[-72.5562,6.5712],[-72.5546,6.5739],[-72.5587,6.578],[-72.5588,6.5754],[-72.5603,6.5765],[-72.562,6.5743],[-72.5641,6.5746],[-72.5622,6.5702],[-72.5682,6.5655],[-72.5711,6.5678],[-72.5718,6.5639],[-72.5733,6.5635],[-72.5694,6.5538],[-72.5671,6.5505],[-72.5631,6.5497],[-72.5623,6.5457],[-72.5667,6.5422],[-72.5648,6.539],[-72.5706,6.5376],[-72.5689,6.5371],[-72.5697,6.5333],[-72.5732,6.5313],[-72.5718,6.5303],[-72.5717,6.5271],[-72.5755,6.5302],[-72.5777,6.5372],[-72.5769,6.5395],[-72.5794,6.5418],[-72.5777,6.5441],[-72.5777,6.5468],[-72.5814,6.5455],[-72.583,6.549],[-72.5829,6.5552],[-72.5871,6.5574],[-72.5854,6.5535],[-72.5869,6.5493],[-72.5864,6.5411],[-72.5918,6.5488],[-72.5975,6.5501],[-72.5992,6.5493],[-72.5985,6.5452],[-72.5965,6.5422],[-72.5949,6.5428],[-72.5945,6.5408],[-72.5966,6.538],[-72.5998,6.5383],[-72.602,6.533],[-72.6013,6.5277],[-72.6042,6.5271],[-72.6076,6.5229],[-72.6087,6.5162],[-72.6073,6.5143],[-72.6085,6.5123],[-72.6062,6.5008],[-72.6086,6.4995],[-72.6102,6.5045],[-72.6119,6.5047],[-72.6117,6.5076],[-72.6158,6.5169],[-72.6131,6.5349],[-72.6164,6.535],[-72.6163,6.5368],[-72.6242,6.5356],[-72.6345,6.542],[-72.6341,6.5434],[-72.6297,6.5437],[-72.6292,6.5464],[-72.6273,6.5459],[-72.6256,6.5475],[-72.6264,6.5483],[-72.6208,6.5514],[-72.6221,6.5579],[-72.6172,6.5562],[-72.6153,6.5581],[-72.6123,6.5572],[-72.6131,6.5596],[-72.612,6.5616],[-72.6067,6.562],[-72.6094,6.566],[-72.6095,6.5692],[-72.6137,6.5711],[-72.6129,6.5743],[-72.6114,6.5741],[-72.6096,6.5773],[-72.6094,6.58],[-72.6124,6.5841],[-72.6157,6.5817],[-72.6188,6.5815],[-72.6251,6.5891],[-72.6183,6.5956],[-72.6115,6.5995],[-72.6109,6.6095],[-72.6099,6.6075],[-72.6034,6.6046],[-72.6049,6.6006],[-72.6032,6.5976],[-72.6004,6.5981],[-72.6002,6.5949],[-72.598,6.594],[-72.5957,6.5773],[-72.5888,6.5752],[-72.5887,6.578],[-72.5843,6.5826],[-72.5872,6.588],[-72.5845,6.5968],[-72.5777,6.5965],[-72.5725,6.5905],[-72.5729,6.5949],[-72.5718,6.5948],[-72.569,6.6009],[-72.5686,6.6052],[-72.5658,6.6025],[-72.5593,6.6017],[-72.558,6.6028],[-72.5588,6.6106],[-72.5525,6.6067],[-72.5501,6.6067],[-72.5501,6.6119],[-72.5481,6.6172],[-72.5406,6.6103],[-72.5401,6.6147],[-72.542,6.6174],[-72.5368,6.6198],[-72.5425,6.6198],[-72.5417,6.6218],[-72.5437,6.6264],[-72.5428,6.6302],[-72.5385,6.6321],[-72.5376,6.6344],[-72.5415,6.6322],[-72.5448,6.6339],[-72.5455,6.6322],[-72.5484,6.6332],[-72.5524,6.6318],[-72.5559,6.6357],[-72.559,6.6333],[-72.5585,6.6394],[-72.5557,6.6404],[-72.5576,6.644],[-72.5554,6.6461],[-72.5559,6.6495],[-72.5514,6.6538],[-72.5503,6.6572],[-72.555,6.6576],[-72.5581,6.6639],[-72.5653,6.6635],[-72.5649,6.6678],[-72.5619,6.6705],[-72.5703,6.6782],[-72.5702,6.6806],[-72.5683,6.6809],[-72.5672,6.6867],[-72.5653,6.6887],[-72.5678,6.688],[-72.569,6.6916],[-72.5702,6.6859],[-72.5752,6.6834],[-72.5752,6.6813],[-72.577,6.6811],[-72.5787,6.6772],[-72.5867,6.68],[-72.5876,6.6827],[-72.5906,6.6825],[-72.5925,6.6776],[-72.5932,6.6808],[-72.5951,6.6822],[-72.5944,6.6845],[-72.5974,6.6864],[-72.5982,6.689],[-72.5995,6.6888],[-72.5995,6.6906],[-72.6025,6.6883],[-72.6061,6.6892],[-72.6094,6.6925],[-72.6091,6.6949],[-72.6107,6.6905],[-72.6129,6.6911],[-72.6125,6.6876],[-72.614,6.6871],[-72.615,6.6828],[-72.6166,6.6824],[-72.615,6.6813],[-72.6184,6.6778],[-72.6164,6.6771],[-72.6172,6.6735],[-72.6156,6.6706],[-72.6172,6.6646],[-72.6148,6.6625],[-72.616,6.6604],[-72.6138,6.6572],[-72.6119,6.6604],[-72.6104,6.6554],[-72.6116,6.6532],[-72.6104,6.652],[-72.6114,6.6467],[-72.6136,6.6484],[-72.6143,6.6526],[-72.6193,6.6567],[-72.6211,6.6541],[-72.6254,6.6526],[-72.6276,6.6502],[-72.6303,6.656],[-72.6304,6.6656],[-72.6329,6.6666],[-72.634,6.6723],[-72.6393,6.669],[-72.641,6.6742],[-72.64,6.6773],[-72.6423,6.6809],[-72.6457,6.6773],[-72.6466,6.69],[-72.6433,6.6904],[-72.6419,6.6929],[-72.6419,6.7075],[-72.6447,6.707],[-72.6447,6.7086],[-72.6475,6.7055],[-72.6493,6.7067],[-72.6492,6.7102],[-72.6512,6.7105],[-72.6516,6.7126],[-72.6541,6.7129],[-72.66,6.7076],[-72.6633,6.7097],[-72.6625,6.7173],[-72.6595,6.7186],[-72.656,6.7162],[-72.6543,6.7191],[-72.6513,6.7194],[-72.6489,6.7178],[-72.6472,6.7215],[-72.648,6.724],[-72.6492,6.7221],[-72.6509,6.7242],[-72.6515,6.7224],[-72.6538,6.7219],[-72.6591,6.7242],[-72.66,6.7264],[-72.6588,6.7334],[-72.661,6.735],[-72.6586,6.7377],[-72.6579,6.7446],[-72.6541,6.7439],[-72.6542,6.7485],[-72.6572,6.7499],[-72.6545,6.754],[-72.6552,6.7559],[-72.6537,6.7586],[-72.6479,6.7553],[-72.6401,6.7567],[-72.6374,6.755],[-72.6413,6.7591],[-72.6388,6.7586],[-72.6384,6.7602],[-72.6359,6.7603],[-72.6366,6.7621],[-72.6396,6.7634],[-72.6393,6.7649],[-72.6426,6.7651],[-72.6446,6.7679],[-72.64,6.7712],[-72.639,6.7736],[-72.645,6.7748],[-72.6479,6.7717],[-72.6498,6.7741],[-72.6488,6.7779],[-72.6506,6.7793],[-72.6528,6.7749],[-72.6557,6.7758],[-72.6568,6.7792],[-72.6587,6.7799],[-72.6591,6.7832],[-72.6561,6.7875],[-72.6618,6.7938],[-72.6641,6.7991],[-72.671,6.8017],[-72.6736,6.807],[-72.6691,6.8091],[-72.6728,6.814],[-72.6729,6.819],[-72.6692,6.822],[-72.6626,6.8194],[-72.6604,6.8198],[-72.6612,6.8226],[-72.6593,6.8252],[-72.661,6.8277],[-72.6622,6.8366],[-72.6647,6.8403],[-72.6682,6.8404],[-72.673,6.8379],[-72.6726,6.8353],[-72.6743,6.8345],[-72.674,6.8332],[-72.6692,6.8334],[-72.6722,6.8262],[-72.6775,6.8303],[-72.6787,6.8325],[-72.6775,6.8345],[-72.6805,6.8346],[-72.6804,6.8392],[-72.6818,6.8405],[-72.6742,6.8455],[-72.6733,6.8484],[-72.6628,6.8505],[-72.6677,6.8541],[-72.6708,6.8544],[-72.6711,6.861],[-72.6742,6.8639],[-72.673,6.867],[-72.6798,6.8736],[-72.6779,6.8805],[-72.679,6.878],[-72.6838,6.8776],[-72.6865,6.8735],[-72.6886,6.8772],[-72.6918,6.8769],[-72.6988,6.8867],[-72.7036,6.8836],[-72.6993,6.8799],[-72.6989,6.8746],[-72.7023,6.876],[-72.6982,6.8708],[-72.705,6.8692],[-72.7006,6.8699],[-72.697,6.8677],[-72.6941,6.8678],[-72.6904,6.8624],[-72.6914,6.8602],[-72.6896,6.859],[-72.6905,6.8558],[-72.692,6.8548],[-72.6936,6.8565],[-72.6955,6.8557],[-72.6976,6.8539],[-72.6968,6.8516],[-72.6971,6.8496],[-72.6988,6.8488],[-72.6981,6.8479],[-72.7012,6.8454],[-72.7053,6.8458],[-72.7091,6.8387],[-72.7129,6.8383],[-72.7072,6.8295],[-72.7034,6.8289],[-72.7044,6.8264],[-72.7079,6.8253],[-72.7086,6.8235],[-72.706,6.8155],[-72.709,6.8148],[-72.7113,6.817],[-72.7139,6.8098],[-72.7158,6.8093],[-72.7128,6.8066],[-72.7134,6.8016],[-72.7116,6.7977],[-72.7159,6.7989],[-72.7186,6.7944],[-72.7209,6.7964],[-72.723,6.7962],[-72.7249,6.7999],[-72.7274,6.8011],[-72.7268,6.7904],[-72.7313,6.7891],[-72.7291,6.7858],[-72.7254,6.7855],[-72.7273,6.7815],[-72.7272,6.7785],[-72.7191,6.771],[-72.721,6.7648],[-72.7288,6.7699],[-72.7305,6.7682],[-72.7319,6.7697],[-72.7326,6.7677],[-72.7376,6.7692],[-72.7398,6.768],[-72.7447,6.7686],[-72.7457,6.7711],[-72.7491,6.7733],[-72.7478,6.7707],[-72.7499,6.7696],[-72.7509,6.766],[-72.7487,6.7555],[-72.7503,6.7547],[-72.7489,6.7533],[-72.7466,6.7534],[-72.7458,6.7488],[-72.7497,6.7499],[-72.7534,6.7412],[-72.7522,6.7365],[-72.7549,6.7374],[-72.7573,6.7356],[-72.7643,6.7155],[-72.7676,6.7128],[-72.7667,6.7068],[-72.7638,6.7065],[-72.7677,6.6988],[-72.7658,6.6838],[-72.767,6.6825],[-72.7668,6.6776],[-72.7649,6.669],[-72.7668,6.6683],[-72.7679,6.6711],[-72.7697,6.6699],[-72.7722,6.6705],[-72.772,6.673],[-72.7745,6.675],[-72.7701,6.6773],[-72.7736,6.6853],[-72.7754,6.6939],[-72.7744,6.696],[-72.777,6.6992],[-72.7753,6.7161],[-72.7768,6.718],[-72.7851,6.7179],[-72.7893,6.7232],[-72.7933,6.7251],[-72.7943,6.7278],[-72.7959,6.7276],[-72.7952,6.73],[-72.7928,6.7312],[-72.7907,6.7391],[-72.7842,6.734],[-72.7821,6.7349],[-72.7808,6.7335],[-72.7748,6.7328],[-72.7743,6.7367],[-72.7721,6.7359],[-72.771,6.7422],[-72.7687,6.7409],[-72.7669,6.7426],[-72.7649,6.751],[-72.7658,6.7542],[-72.7647,6.7549],[-72.7658,6.7718],[-72.7685,6.7843],[-72.771,6.7861],[-72.7759,6.7837],[-72.7813,6.7856],[-72.7763,6.7889],[-72.7754,6.7936],[-72.7705,6.7966],[-72.7702,6.8049],[-72.7676,6.8076],[-72.7687,6.8103],[-72.7677,6.8122],[-72.7682,6.814],[-72.7698,6.814],[-72.7711,6.8207],[-72.7777,6.8159],[-72.785,6.8172],[-72.7875,6.8145],[-72.7917,6.823],[-72.793,6.8238],[-72.7961,6.8224],[-72.7977,6.8235],[-72.7971,6.8274],[-72.7948,6.826],[-72.7913,6.8277],[-72.7859,6.8247],[-72.7782,6.8275],[-72.7769,6.8301],[-72.7781,6.8335],[-72.7801,6.8334],[-72.781,6.8352],[-72.7805,6.841],[-72.7758,6.841],[-72.7717,6.845],[-72.7631,6.8453],[-72.7646,6.8483],[-72.7636,6.8508],[-72.7651,6.8522],[-72.7635,6.8544],[-72.7632,6.8593],[-72.7674,6.8614],[-72.7724,6.859],[-72.774,6.8623],[-72.7751,6.8602],[-72.7803,6.8632],[-72.782,6.8607],[-72.7835,6.862],[-72.7847,6.8591],[-72.7883,6.8632],[-72.7944,6.852],[-72.7972,6.8493],[-72.8007,6.8545],[-72.7995,6.8569],[-72.8007,6.8597],[-72.8068,6.8633],[-72.8086,6.8659],[-72.8059,6.8686],[-72.8082,6.8693],[-72.8081,6.8706],[-72.8054,6.8701],[-72.8035,6.8716],[-72.8032,6.8805],[-72.797,6.8803],[-72.798,6.8854],[-72.796,6.8877],[-72.7916,6.8872],[-72.7878,6.8902],[-72.7834,6.8882],[-72.7809,6.8893],[-72.7808,6.893],[-72.7733,6.8945],[-72.7701,6.9001],[-72.764,6.9024],[-72.7718,6.9023],[-72.7745,6.9042],[-72.7752,6.9028],[-72.7793,6.9078],[-72.7874,6.91],[-72.7905,6.9072],[-72.7933,6.9103],[-72.7984,6.9055],[-72.7991,6.9032],[-72.8024,6.9025],[-72.8044,6.9059],[-72.8058,6.9046],[-72.8086,6.905],[-72.8089,6.9094],[-72.812,6.9123],[-72.8123,6.9163],[-72.8114,6.9205],[-72.808,6.9202],[-72.8067,6.922],[-72.8089,6.9238],[-72.8083,6.9294],[-72.8051,6.9313],[-72.8004,6.9304],[-72.8007,6.9325],[-72.7993,6.9335],[-72.8039,6.9367],[-72.8032,6.939],[-72.8004,6.9407],[-72.7966,6.9377],[-72.7951,6.9384],[-72.7891,6.9363],[-72.789,6.938],[-72.7923,6.9402],[-72.7931,6.9447],[-72.8013,6.9479],[-72.7978,6.9495],[-72.7982,6.9519],[-72.7945,6.9558],[-72.7897,6.9565],[-72.7946,6.9579],[-72.7986,6.9562],[-72.7947,6.9601],[-72.7923,6.9604],[-72.7904,6.963],[-72.7913,6.9658],[-72.7875,6.97],[-72.7905,6.9705],[-72.793,6.9676],[-72.7948,6.9682],[-72.7938,6.9668],[-72.7964,6.9633],[-72.7992,6.9652],[-72.8007,6.9627],[-72.8037,6.9622],[-72.8056,6.9634],[-72.8115,6.9596],[-72.8114,6.9633],[-72.8131,6.9654],[-72.8123,6.969],[-72.814,6.9705],[-72.8129,6.9721],[-72.8155,6.9742],[-72.8128,6.9786],[-72.8152,6.9794],[-72.8161,6.9843],[-72.8182,6.9838],[-72.8216,6.9804],[-72.8251,6.9723],[-72.8275,6.9717],[-72.8264,6.9708],[-72.8279,6.9691],[-72.8268,6.9675],[-72.8298,6.9653],[-72.8402,6.9491],[-72.8403,6.9594],[-72.8417,6.9598],[-72.8419,6.9643],[-72.8409,6.9678],[-72.8419,6.9691],[-72.8378,6.9789],[-72.8395,6.9804],[-72.8398,6.9853],[-72.8381,6.9871],[-72.8403,6.9912],[-72.8392,6.9935],[-72.8375,6.9935],[-72.8388,6.9947],[-72.8376,7.004],[-72.8387,7.0014],[-72.8402,7.0015],[-72.8398,6.9981],[-72.8414,6.9947],[-72.8434,6.9949],[-72.8422,6.9935],[-72.8434,6.9908],[-72.8446,6.9914],[-72.8428,6.989],[-72.8435,6.9872],[-72.8468,6.9868],[-72.8446,6.9851],[-72.8462,6.9833],[-72.8472,6.9766],[-72.8494,6.9772],[-72.8492,6.9752],[-72.8521,6.9756],[-72.8521,6.9735],[-72.8544,6.9721],[-72.8532,6.9661],[-72.8572,6.9662],[-72.853,6.9593],[-72.8603,6.9599],[-72.8579,6.9565],[-72.8605,6.9545],[-72.8551,6.9528],[-72.8556,6.946],[-72.8532,6.9412],[-72.8544,6.9355],[-72.856,6.9364],[-72.8592,6.9348],[-72.8631,6.9391],[-72.8623,6.9326],[-72.8577,6.9296],[-72.8593,6.926],[-72.8634,6.9218],[-72.8624,6.9199],[-72.8631,6.9172],[-72.8683,6.919],[-72.8701,6.9245],[-72.8734,6.9178],[-72.8755,6.916],[-72.8781,6.9169],[-72.88,6.9156],[-72.8822,6.9099],[-72.8851,6.9117],[-72.8879,6.911],[-72.8903,6.9142],[-72.8874,6.9181],[-72.8873,6.9206],[-72.8802,6.9216],[-72.8794,6.925],[-72.8812,6.928],[-72.8768,6.9287],[-72.8753,6.9311],[-72.8763,6.9332],[-72.8733,6.9348],[-72.8763,6.9383],[-72.8768,6.9415],[-72.8757,6.9425],[-72.8768,6.9437],[-72.881,6.9472],[-72.8833,6.9462],[-72.8856,6.9496],[-72.8887,6.9497],[-72.881,6.9528],[-72.8803,6.9577],[-72.8779,6.9607],[-72.8826,6.9607],[-72.8823,6.9667],[-72.8802,6.9679],[-72.8797,6.9701],[-72.8772,6.9697],[-72.8806,6.9753],[-72.8795,6.9774],[-72.8779,6.9775],[-72.8728,6.9754],[-72.8715,6.9736],[-72.8715,6.9786],[-72.8702,6.9812],[-72.8682,6.9817],[-72.8704,6.9845],[-72.862,6.9854],[-72.8598,6.99],[-72.8598,6.992],[-72.862,6.9931],[-72.8619,6.9957],[-72.8603,6.9964],[-72.8661,7.0044],[-72.866,7.0079],[-72.8734,7.0215],[-72.8711,7.0225],[-72.8705,7.0254],[-72.8671,7.0283],[-72.8642,7.0283],[-72.8659,7.0305],[-72.8638,7.0328],[-72.8645,7.0342],[-72.862,7.0387],[-72.8623,7.0406],[-72.8664,7.0348],[-72.871,7.0322],[-72.8806,7.0326],[-72.8817,7.0344],[-72.8834,7.0334],[-72.8843,7.0376],[-72.8868,7.0349],[-72.8885,7.0412],[-72.8876,7.0443],[-72.8922,7.0467],[-72.8928,7.0491],[-72.8906,7.0533],[-72.8936,7.0559],[-72.892,7.0569],[-72.8911,7.0606],[-72.8959,7.063],[-72.8961,7.0679],[-72.8992,7.0636],[-72.9011,7.0639],[-72.9023,7.0569],[-72.9058,7.0558],[-72.9054,7.0518],[-72.9083,7.051],[-72.9087,7.0486],[-72.9101,7.0488],[-72.9083,7.0446],[-72.9105,7.043],[-72.9098,7.0389],[-72.9134,7.0344],[-72.9145,7.0284],[-72.914,7.0411],[-72.9169,7.0479],[-72.9078,7.0686],[-72.9086,7.0744],[-72.9112,7.0766],[-72.9105,7.0819],[-72.907,7.0818],[-72.9017,7.0778],[-72.8903,7.08],[-72.8828,7.078],[-72.8841,7.0683],[-72.8799,7.0666],[-72.8778,7.0561],[-72.8743,7.0544],[-72.8705,7.0561],[-72.8683,7.0554],[-72.8673,7.0573],[-72.8595,7.0545],[-72.8554,7.0558],[-72.8496,7.0519],[-72.8469,7.0472],[-72.8451,7.0477],[-72.8405,7.0447],[-72.8375,7.0438],[-72.8355,7.0456],[-72.8286,7.0461],[-72.8269,7.0426],[-72.8242,7.0409],[-72.8194,7.0416],[-72.8174,7.0396],[-72.8129,7.0408],[-72.8106,7.0374],[-72.7982,7.0392],[-72.7912,7.038],[-72.7915,7.0409],[-72.7879,7.047],[-72.7901,7.0484],[-72.792,7.0533],[-72.7897,7.0623],[-72.7952,7.067],[-72.796,7.0714],[-72.7937,7.0749],[-72.7938,7.0772],[-72.7962,7.0775],[-72.7969,7.0795],[-72.8013,7.0801],[-72.7994,7.0907],[-72.7875,7.1124],[-72.7743,7.1252],[-72.7696,7.132],[-72.7531,7.1355],[-72.7539,7.143],[-72.7466,7.1504],[-72.75,7.1412],[-72.7467,7.139],[-72.7413,7.1398],[-72.7437,7.1369],[-72.7409,7.1321],[-72.7439,7.1328],[-72.7548,7.1288],[-72.7557,7.1301],[-72.7562,7.1275],[-72.7603,7.1257],[-72.7591,7.1252],[-72.7597,7.1227],[-72.7662,7.1165],[-72.7657,7.1153],[-72.768,7.1145],[-72.7635,7.1136],[-72.7605,7.116],[-72.7567,7.1157],[-72.7559,7.1175],[-72.7542,7.1167],[-72.7518,7.1193],[-72.7491,7.1186],[-72.7455,7.1202],[-72.7468,7.111],[-72.7487,7.1087],[-72.7471,7.1058],[-72.7486,7.1037],[-72.748,7.1019],[-72.753,7.0991],[-72.7484,7.0972],[-72.7466,7.0934],[-72.7546,7.0909],[-72.7466,7.087],[-72.7488,7.0762],[-72.748,7.0725],[-72.7491,7.07],[-72.752,7.0688],[-72.7495,7.0668],[-72.7492,7.0638],[-72.7491,7.0677],[-72.7439,7.0745],[-72.745,7.0758],[-72.7437,7.077],[-72.7425,7.0834],[-72.7408,7.0859],[-72.7368,7.0878],[-72.7405,7.0886],[-72.7377,7.0948],[-72.739,7.0966],[-72.7367,7.1011],[-72.7347,7.1017],[-72.732,7.0993],[-72.7314,7.1011],[-72.7328,7.104],[-72.7358,7.1055],[-72.7355,7.1067],[-72.7331,7.1087],[-72.7317,7.1079],[-72.7306,7.1106],[-72.7289,7.1104],[-72.7275,7.1097],[-72.7276,7.1074],[-72.7254,7.1077],[-72.7245,7.1036],[-72.7231,7.1057],[-72.7198,7.1051],[-72.7176,7.1031],[-72.7165,7.1057],[-72.7183,7.1116],[-72.7159,7.1118],[-72.7097,7.1071],[-72.7089,7.1095],[-72.7044,7.1124],[-72.7062,7.1141],[-72.7051,7.1161],[-72.7062,7.1182],[-72.7164,7.1164],[-72.7243,7.1177],[-72.7209,7.1242],[-72.7233,7.1271],[-72.7214,7.1297],[-72.7232,7.136],[-72.7205,7.1386],[-72.7199,7.1405],[-72.7219,7.1428],[-72.7208,7.1464],[-72.7216,7.1481],[-72.7188,7.152],[-72.7179,7.148],[-72.708,7.1309],[-72.7021,7.1259],[-72.7047,7.1209],[-72.7026,7.1142],[-72.7012,7.1135],[-72.6956,7.1172],[-72.6941,7.1168],[-72.6876,7.1201],[-72.6927,7.1145],[-72.6914,7.1114],[-72.6946,7.1104],[-72.6953,7.1047],[-72.6989,7.1035],[-72.6978,7.0999],[-72.7019,7.0975],[-72.7013,7.0957],[-72.7028,7.0942],[-72.6982,7.0909],[-72.6997,7.0857],[-72.6963,7.0802],[-72.6968,7.0785],[-72.6997,7.0777],[-72.6995,7.0761],[-72.6971,7.0747],[-72.6939,7.077],[-72.6914,7.0872],[-72.687,7.0866],[-72.6868,7.0882],[-72.6851,7.0883],[-72.6804,7.0865],[-72.6812,7.0915],[-72.6783,7.0915],[-72.6773,7.0939],[-72.6759,7.0941],[-72.6731,7.0908],[-72.6738,7.0811],[-72.6735,7.0799],[-72.6722,7.0805],[-72.6732,7.0778],[-72.672,7.0755],[-72.6749,7.074],[-72.6753,7.0708],[-72.683,7.0709],[-72.6835,7.0688],[-72.6859,7.068],[-72.6869,7.0644],[-72.6849,7.0616],[-72.6862,7.0608],[-72.6852,7.0585],[-72.6869,7.0528],[-72.6893,7.0516],[-72.6833,7.0474],[-72.6844,7.0471],[-72.6841,7.0448],[-72.682,7.0447],[-72.6806,7.0423],[-72.6818,7.0369],[-72.6842,7.0338],[-72.6805,7.032],[-72.677,7.0327],[-72.674,7.0259],[-72.6736,7.0207],[-72.6717,7.0279],[-72.6701,7.029],[-72.6723,7.0304],[-72.6707,7.0319],[-72.6712,7.0336],[-72.6681,7.0347],[-72.6687,7.037],[-72.67,7.0369],[-72.6684,7.0404],[-72.6722,7.0448],[-72.6677,7.0515],[-72.6669,7.0494],[-72.6633,7.05],[-72.6665,7.0543],[-72.6648,7.0567],[-72.6612,7.0581],[-72.6613,7.062],[-72.66,7.0629],[-72.6587,7.0605],[-72.6565,7.0612],[-72.656,7.0644],[-72.6513,7.0602],[-72.6493,7.0608],[-72.6491,7.0581],[-72.6473,7.0582],[-72.6457,7.0561],[-72.645,7.0578],[-72.6476,7.0664],[-72.6455,7.0681],[-72.648,7.0695],[-72.6471,7.071],[-72.6493,7.074],[-72.6448,7.0755],[-72.651,7.0809],[-72.645,7.0874],[-72.6515,7.0868],[-72.6539,7.0898],[-72.6539,7.0913],[-72.6517,7.0906],[-72.6516,7.0935],[-72.6539,7.0961],[-72.6494,7.0984],[-72.6528,7.1026],[-72.6564,7.1025],[-72.6522,7.1134],[-72.6461,7.1168],[-72.6461,7.1185],[-72.6494,7.12],[-72.6507,7.1237],[-72.647,7.1245],[-72.6475,7.1302],[-72.6456,7.1329],[-72.6431,7.1329],[-72.6434,7.1377],[-72.646,7.1399],[-72.6436,7.1425],[-72.6442,7.1449],[-72.641,7.1446],[-72.6336,7.1398],[-72.6377,7.1501],[-72.6428,7.1532],[-72.6374,7.1561],[-72.6353,7.1596],[-72.6315,7.1581],[-72.6309,7.1608],[-72.6332,7.1622],[-72.6336,7.1651],[-72.6361,7.165],[-72.6384,7.1673],[-72.6369,7.1735],[-72.6356,7.1744],[-72.6313,7.172],[-72.6283,7.1752],[-72.6269,7.1723],[-72.6215,7.1739],[-72.621,7.1709],[-72.6194,7.171],[-72.6158,7.1734],[-72.6127,7.1734],[-72.615,7.1764],[-72.6129,7.1792],[-72.6063,7.1791],[-72.611,7.1842],[-72.6176,7.1835],[-72.6217,7.1886],[-72.615,7.1914],[-72.6137,7.1932],[-72.6154,7.1951],[-72.6145,7.197],[-72.6108,7.1984],[-72.6096,7.1968],[-72.607,7.1994],[-72.6081,7.2011],[-72.6071,7.2035],[-72.6054,7.2032],[-72.6041,7.2053],[-72.6019,7.2024],[-72.5997,7.2027],[-72.6009,7.2055],[-72.5997,7.2101],[-72.6053,7.2162],[-72.5987,7.2196],[-72.6001,7.2259],[-72.598,7.2265],[-72.5946,7.2247],[-72.5941,7.2206],[-72.5963,7.2181],[-72.594,7.2174],[-72.5944,7.2133],[-72.5886,7.2137],[-72.5881,7.2153],[-72.5832,7.2137],[-72.5833,7.2113],[-72.581,7.2114],[-72.5803,7.2091],[-72.577,7.209],[-72.5804,7.2045],[-72.5781,7.2034],[-72.5799,7.2016],[-72.5742,7.2028],[-72.5668,7.2087],[-72.5658,7.2168],[-72.5667,7.2233],[-72.5645,7.2242],[-72.5667,7.229],[-72.5656,7.2314],[-72.5664,7.2342],[-72.5626,7.2286],[-72.5616,7.2236],[-72.5601,7.2241],[-72.5598,7.2223],[-72.558,7.2219],[-72.5576,7.2232],[-72.5565,7.2221],[-72.5559,7.231],[-72.5506,7.2254],[-72.543,7.2226],[-72.5339,7.2303],[-72.5354,7.2323],[-72.5321,7.2377],[-72.5327,7.2413],[-72.5381,7.247],[-72.5347,7.2493],[-72.5351,7.2541],[-72.5371,7.2559],[-72.5276,7.2572],[-72.5267,7.2558],[-72.5234,7.2566],[-72.5244,7.2548],[-72.5215,7.2532],[-72.5196,7.249],[-72.5154,7.2501],[-72.5144,7.2488],[-72.5167,7.2463],[-72.5149,7.2433],[-72.5172,7.2422],[-72.5177,7.2395],[-72.516,7.2398],[-72.5151,7.2383],[-72.5133,7.2393],[-72.5129,7.2372],[-72.5169,7.235],[-72.5164,7.23],[-72.5208,7.2316],[-72.522,7.2308],[-72.5232,7.224],[-72.5245,7.2232],[-72.5224,7.2174],[-72.5189,7.2165],[-72.5185,7.2113],[-72.5238,7.2108],[-72.5267,7.2171],[-72.5298,7.219],[-72.5325,7.2187],[-72.5363,7.2027],[-72.5302,7.1972],[-72.5299,7.196],[-72.5313,7.1966],[-72.5286,7.1946],[-72.5293,7.1939],[-72.5381,7.2007],[-72.5408,7.1985],[-72.5446,7.2029],[-72.5452,7.2046],[-72.5439,7.205],[-72.5482,7.208],[-72.5476,7.2095],[-72.553,7.2112],[-72.552,7.2073],[-72.5537,7.2037],[-72.5508,7.2026],[-72.5564,7.1987],[-72.5542,7.1982],[-72.5547,7.1959],[-72.5517,7.1943],[-72.553,7.1886],[-72.551,7.1883],[-72.5493,7.1852],[-72.5551,7.1841],[-72.5528,7.1827],[-72.5515,7.1796],[-72.5457,7.1795],[-72.5492,7.1753],[-72.5494,7.1728],[-72.5464,7.1676],[-72.5548,7.1626],[-72.558,7.1665],[-72.5615,7.1681],[-72.5635,7.1667],[-72.5663,7.1683],[-72.566,7.1657],[-72.5708,7.1646],[-72.5663,7.1629],[-72.5648,7.1598],[-72.569,7.1546],[-72.5644,7.1539],[-72.5565,7.148],[-72.5486,7.1461],[-72.5466,7.142],[-72.5443,7.1438],[-72.5408,7.1431],[-72.5353,7.1373],[-72.5379,7.1352],[-72.5375,7.1323],[-72.5398,7.1305],[-72.5419,7.1314],[-72.5414,7.1285],[-72.5375,7.1235],[-72.539,7.1202],[-72.5383,7.1176],[-72.5393,7.1161],[-72.5413,7.1165],[-72.5424,7.1208],[-72.5473,7.1287],[-72.551,7.1274],[-72.5526,7.1304],[-72.5583,7.1347],[-72.5599,7.1344],[-72.5606,7.1361],[-72.5618,7.1359],[-72.5608,7.1335],[-72.5617,7.1322],[-72.5603,7.1234],[-72.5655,7.1289],[-72.5674,7.1298],[-72.571,7.1288],[-72.5728,7.1321],[-72.5751,7.1319],[-72.5778,7.1356],[-72.5853,7.1367],[-72.581,7.1341],[-72.5813,7.1319],[-72.579,7.1288],[-72.5802,7.1281],[-72.5741,7.1213],[-72.5739,7.116],[-72.5774,7.113],[-72.5791,7.1133],[-72.5797,7.1115],[-72.589,7.1121],[-72.5879,7.1107],[-72.5895,7.1081],[-72.5926,7.1064],[-72.5884,7.1067],[-72.5858,7.1089],[-72.5842,7.108],[-72.585,7.1063],[-72.5775,7.1055],[-72.5771,7.1016],[-72.5755,7.1036],[-72.5728,7.1041],[-72.5725,7.1008],[-72.5675,7.096],[-72.5658,7.0966],[-72.5663,7.0985],[-72.5626,7.1048],[-72.5602,7.1062],[-72.5552,7.0998],[-72.5563,7.0992],[-72.5567,7.0945],[-72.543,7.0882],[-72.5527,7.0857],[-72.5522,7.0825],[-72.5502,7.0811],[-72.5541,7.0739],[-72.5577,7.0735],[-72.5617,7.0759],[-72.5594,7.0697],[-72.5651,7.0735],[-72.566,7.0723],[-72.5675,7.0769],[-72.5772,7.0695],[-72.5797,7.0773],[-72.5814,7.0768],[-72.5825,7.0795],[-72.5839,7.0783],[-72.5852,7.08],[-72.5861,7.078],[-72.5888,7.0778],[-72.5918,7.0747],[-72.5939,7.0749],[-72.5949,7.0779],[-72.5971,7.0779],[-72.5982,7.0797],[-72.6022,7.0799],[-72.5999,7.0774],[-72.6008,7.0753],[-72.6039,7.0737],[-72.6081,7.0765],[-72.6111,7.0767],[-72.6078,7.0734],[-72.6142,7.0717],[-72.6038,7.0699],[-72.6042,7.0672],[-72.601,7.0682],[-72.6004,7.0673],[-72.5983,7.0695],[-72.5959,7.0689],[-72.5942,7.0644],[-72.5966,7.0626],[-72.5936,7.0617],[-72.5972,7.0602],[-72.5995,7.055],[-72.6047,7.0571],[-72.6059,7.0533],[-72.6089,7.0534],[-72.6076,7.0515],[-72.6091,7.05],[-72.6165,7.0472],[-72.6152,7.0469],[-72.6163,7.0458],[-72.6155,7.0451],[-72.6143,7.0466],[-72.6124,7.0451],[-72.6084,7.0467],[-72.6061,7.0452],[-72.605,7.0415],[-72.6016,7.0413],[-72.6012,7.0397],[-72.5998,7.0401],[-72.5974,7.0463],[-72.5943,7.0464],[-72.5903,7.0438],[-72.5916,7.0397],[-72.5868,7.0371],[-72.5819,7.042],[-72.5795,7.039],[-72.576,7.0417],[-72.5732,7.0412],[-72.5713,7.0437],[-72.5674,7.0441],[-72.5674,7.0387],[-72.5695,7.0338],[-72.5669,7.0322],[-72.5733,7.0338],[-72.5764,7.0307],[-72.5866,7.0286],[-72.5879,7.0236],[-72.5857,7.0179],[-72.591,7.0161],[-72.5914,7.0182],[-72.5942,7.019],[-72.5948,7.0236],[-72.5964,7.025],[-72.5994,7.0238],[-72.6132,7.0302],[-72.6129,7.0262],[-72.6105,7.0253],[-72.6108,7.0222],[-72.6062,7.0175],[-72.6076,7.016],[-72.6024,7.0085],[-72.6017,7.0006],[-72.6026,6.9998],[-72.6042,7.0022],[-72.607,7.0005],[-72.6124,7.0001],[-72.6189,7.005],[-72.6195,7.0003],[-72.6171,6.9976],[-72.6207,6.9948],[-72.6196,6.9908],[-72.6213,6.9878],[-72.6171,6.9843],[-72.6129,6.9834],[-72.612,6.9816],[-72.6052,6.9858],[-72.6072,6.9782],[-72.6052,6.9753],[-72.6046,6.9811],[-72.6019,6.9854],[-72.5987,6.9854],[-72.5944,6.9882],[-72.5945,6.9817],[-72.5965,6.9796],[-72.5923,6.9755],[-72.592,6.9713],[-72.5905,6.9707],[-72.5873,6.9747],[-72.5844,6.9749],[-72.5845,6.977],[-72.5822,6.9792],[-72.583,6.9837],[-72.5813,6.9839],[-72.5779,6.9815],[-72.5745,6.9826],[-72.5743,6.9802],[-72.576,6.978],[-72.5747,6.9716],[-72.5781,6.9681],[-72.5763,6.9678],[-72.5724,6.9704],[-72.5716,6.9688],[-72.5689,6.9688],[-72.5728,6.9648],[-72.5726,6.962],[-72.57,6.965],[-72.5661,6.9646],[-72.5674,6.9593],[-72.5664,6.957],[-72.5706,6.9562],[-72.5692,6.9544],[-72.5676,6.9551],[-72.5678,6.9504],[-72.5605,6.9477],[-72.5597,6.9434],[-72.5604,6.9392],[-72.5619,6.9381],[-72.5605,6.933],[-72.5685,6.9344],[-72.5705,6.9306],[-72.5761,6.9325],[-72.578,6.9309],[-72.578,6.9276],[-72.5797,6.9283],[-72.5814,6.9267],[-72.5855,6.926],[-72.5884,6.9292],[-72.59,6.9277],[-72.5917,6.93],[-72.5943,6.928],[-72.595,6.9287],[-72.5963,6.9259],[-72.6005,6.9302],[-72.6019,6.9338],[-72.6078,6.9343],[-72.6074,6.933],[-72.6039,6.9324],[-72.606,6.9307],[-72.6037,6.9238],[-72.6022,6.9242],[-72.5999,6.9223],[-72.6036,6.9198],[-72.6049,6.9104],[-72.6084,6.9104],[-72.6104,6.9083],[-72.5997,6.9092],[-72.5975,6.9119],[-72.5995,6.9119],[-72.5998,6.915],[-72.597,6.9162],[-72.5951,6.9216],[-72.5939,6.9208],[-72.5901,6.9225],[-72.5877,6.9215],[-72.5875,6.923],[-72.5808,6.9208],[-72.579,6.9217],[-72.5771,6.9191],[-72.5715,6.9216],[-72.5668,6.9188],[-72.564,6.9188],[-72.5631,6.9171],[-72.5644,6.9166],[-72.5641,6.9126],[-72.5594,6.9106],[-72.5571,6.9066],[-72.5523,6.9031],[-72.552,6.8943],[-72.5484,6.8907],[-72.5488,6.8862],[-72.5515,6.885],[-72.5552,6.8808],[-72.5565,6.8767],[-72.5593,6.8752],[-72.5569,6.873],[-72.5574,6.8715],[-72.5552,6.8682],[-72.5566,6.8644],[-72.5522,6.861],[-72.5534,6.8564],[-72.559,6.8531],[-72.5569,6.8499],[-72.5592,6.8461],[-72.5599,6.8339],[-72.5565,6.8283],[-72.5581,6.8343],[-72.5552,6.8435],[-72.5524,6.8468],[-72.5488,6.8455],[-72.5519,6.8496],[-72.5516,6.853],[-72.55,6.8544],[-72.5488,6.8527],[-72.5481,6.8541],[-72.5497,6.8546],[-72.5472,6.8594],[-72.5477,6.8617],[-72.5419,6.8621],[-72.5436,6.8647],[-72.5429,6.8671],[-72.5452,6.8687],[-72.5425,6.8691],[-72.5421,6.8714],[-72.5398,6.872],[-72.5431,6.8768],[-72.5396,6.8801],[-72.5388,6.883],[-72.541,6.8878],[-72.5398,6.8893],[-72.5441,6.8869],[-72.5457,6.8876],[-72.5468,6.8989],[-72.5438,6.9054],[-72.5406,6.9063],[-72.5422,6.9103],[-72.5401,6.9123],[-72.5401,6.9148],[-72.5461,6.9203],[-72.542,6.9257],[-72.5338,6.9298],[-72.5323,6.9325],[-72.5289,6.9291],[-72.5246,6.9309],[-72.5213,6.9285],[-72.516,6.9277],[-72.5176,6.9332],[-72.5253,6.9444],[-72.5236,6.943],[-72.518,6.9426],[-72.5166,6.941],[-72.5158,6.9418],[-72.5089,6.938],[-72.5158,6.9496],[-72.5181,6.9495],[-72.5173,6.9537],[-72.5217,6.9559],[-72.5197,6.9574],[-72.5208,6.9575],[-72.5202,6.9615],[-72.5184,6.9631],[-72.5183,6.9682],[-72.5171,6.9693],[-72.5193,6.9717],[-72.5155,6.9757],[-72.518,6.9766],[-72.5191,6.9754],[-72.5212,6.977],[-72.5214,6.975],[-72.5233,6.9779],[-72.5253,6.9781],[-72.5267,6.9757],[-72.53,6.9766],[-72.5308,6.9752],[-72.5297,6.9742],[-72.5319,6.9722],[-72.5337,6.9731],[-72.5331,6.9747],[-72.5358,6.9784],[-72.5403,6.9803],[-72.539,6.9887],[-72.5347,6.9879],[-72.5338,6.9909],[-72.5313,6.9926],[-72.5287,6.9903],[-72.5233,6.9898],[-72.5236,6.9932],[-72.5265,6.9952],[-72.5244,6.9968],[-72.5266,6.9992],[-72.531,6.999],[-72.5319,7.0011],[-72.5374,7.0029],[-72.5402,7.0069],[-72.5437,7.0033],[-72.5434,7.0109],[-72.5396,7.0133],[-72.5343,7.0094],[-72.5306,7.0096],[-72.5273,7.0131],[-72.525,7.0102],[-72.5201,7.0079],[-72.508,7.0088],[-72.5092,7.0116],[-72.5155,7.0133],[-72.5131,7.0182],[-72.5145,7.0197],[-72.5132,7.0237],[-72.525,7.028],[-72.5312,7.0355],[-72.5199,7.0337],[-72.516,7.0366],[-72.5097,7.0347],[-72.5084,7.0355],[-72.5116,7.0378],[-72.513,7.0425],[-72.5155,7.0425],[-72.5191,7.0455],[-72.5211,7.05],[-72.5159,7.0505],[-72.5128,7.0478],[-72.5089,7.0469],[-72.5028,7.0473],[-72.5018,7.0448],[-72.4996,7.045],[-72.4996,7.044],[-72.497,7.0442],[-72.4952,7.0465],[-72.4885,7.0493],[-72.4868,7.0485],[-72.4849,7.0496],[-72.4847,7.0459],[-72.4819,7.0462],[-72.4826,7.0482],[-72.48,7.0513],[-72.4846,7.0557],[-72.4901,7.0564],[-72.49,7.0599],[-72.4911,7.0605],[-72.4875,7.0644],[-72.4849,7.0651],[-72.4853,7.0663],[-72.4954,7.0683],[-72.4957,7.0713],[-72.4934,7.0761],[-72.4941,7.0796],[-72.4899,7.0843],[-72.4859,7.0793],[-72.4831,7.0796],[-72.4798,7.075],[-72.4767,7.0764],[-72.4734,7.0738],[-72.4725,7.0758],[-72.4668,7.0763],[-72.467,7.078],[-72.4647,7.0784],[-72.4639,7.0749],[-72.4603,7.0784],[-72.46,7.077],[-72.4577,7.0768],[-72.4577,7.0748],[-72.4601,7.0736],[-72.4582,7.0719],[-72.4587,7.0682],[-72.4571,7.0643],[-72.452,7.0615],[-72.4549,7.0555],[-72.4535,7.0542],[-72.4504,7.0555],[-72.4482,7.0548],[-72.4468,7.0494],[-72.4468,7.0448],[-72.4512,7.0441],[-72.4495,7.0395],[-72.4516,7.0335],[-72.4478,7.0349],[-72.4475,7.031],[-72.4441,7.0305],[-72.4364,7.0354],[-72.4353,7.0375],[-72.4316,7.0361],[-72.433,7.0324],[-72.4353,7.0308],[-72.4364,7.0246],[-72.4322,7.0238],[-72.429,7.0258],[-72.4214,7.0246],[-72.4211,7.0207],[-72.419,7.0178],[-72.4207,7.0147],[-72.4178,7.0116],[-72.4213,7.0094],[-72.4282,7.0113],[-72.4328,7.009],[-72.4356,7.0109],[-72.4382,7.0094],[-72.4397,7.007],[-72.4392,7.0049],[-72.4371,7.0037],[-72.438,7.0003],[-72.4345,6.9957],[-72.4405,6.9991],[-72.4458,6.9992],[-72.4509,7.0013],[-72.4521,7.0089],[-72.4578,7.0069],[-72.4627,7.0116],[-72.4677,7.012],[-72.47,7.014],[-72.4752,7.014],[-72.4744,7.0077],[-72.4724,7.0051],[-72.474,7.0027],[-72.4723,7.001],[-72.4711,6.9963],[-72.4719,6.9941],[-72.4699,6.989],[-72.4728,6.9861],[-72.4768,6.9847],[-72.483,6.9853],[-72.4853,6.9812],[-72.4886,6.9805],[-72.4853,6.9774],[-72.4886,6.9762],[-72.4862,6.9644],[-72.4935,6.9624],[-72.4942,6.96],[-72.4982,6.96],[-72.5001,6.9578],[-72.4969,6.9566],[-72.4959,6.9541],[-72.4857,6.9582],[-72.481,6.9539],[-72.4798,6.9556],[-72.471,6.9548],[-72.4704,6.9562],[-72.467,6.957],[-72.4659,6.9595],[-72.4632,6.9596],[-72.4592,6.9629],[-72.4554,6.9665],[-72.4553,6.9689],[-72.4524,6.9693],[-72.4502,6.9626],[-72.4481,6.9609],[-72.4488,6.9589],[-72.4533,6.9573],[-72.4522,6.9548],[-72.4596,6.9515],[-72.4666,6.9434],[-72.4665,6.939],[-72.4682,6.938],[-72.4704,6.9401],[-72.4707,6.9386],[-72.4731,6.9381],[-72.4754,6.9319],[-72.4716,6.9331],[-72.4689,6.9316],[-72.4581,6.9327],[-72.4533,6.9295],[-72.4488,6.9294],[-72.4469,6.9261],[-72.4404,6.9293],[-72.438,6.9291],[-72.4347,6.9326],[-72.4294,6.9338],[-72.4274,6.939],[-72.4287,6.943],[-72.4226,6.943],[-72.42,6.9452],[-72.4165,6.9449],[-72.4152,6.948],[-72.4163,6.9509],[-72.412,6.9547],[-72.4134,6.9587],[-72.4032,6.9525],[-72.3987,6.9547],[-72.3981,6.9565],[-72.3933,6.9572],[-72.3903,6.9603],[-72.3859,6.9614],[-72.3841,6.9638],[-72.386,6.9668],[-72.3808,6.9681],[-72.3797,6.9667],[-72.3758,6.9692],[-72.3675,6.969],[-72.3682,6.9646],[-72.3755,6.963],[-72.3756,6.9606],[-72.3783,6.9571],[-72.3764,6.9529],[-72.3815,6.9517],[-72.3833,6.9498],[-72.3829,6.9449],[-72.389,6.942],[-72.3921,6.9444],[-72.3943,6.9434],[-72.3945,6.9445],[-72.3968,6.9402],[-72.3942,6.9392],[-72.3924,6.9324],[-72.3871,6.9298],[-72.3858,6.9311],[-72.3825,6.929],[-72.3696,6.9259],[-72.3697,6.9233],[-72.3674,6.9224],[-72.3684,6.921],[-72.367,6.9202],[-72.3673,6.9161],[-72.3741,6.9139],[-72.3767,6.9164],[-72.3783,6.9159],[-72.378,6.9174],[-72.3809,6.9205],[-72.3827,6.9212],[-72.3849,6.92],[-72.3883,6.922],[-72.3886,6.9236],[-72.4006,6.9257],[-72.4064,6.9233],[-72.4107,6.9242],[-72.4115,6.9271],[-72.4147,6.9287],[-72.4205,6.9264],[-72.4254,6.9259],[-72.4273,6.9269],[-72.4322,6.925],[-72.442,6.9139],[-72.4497,6.9164],[-72.4525,6.9148],[-72.4593,6.919],[-72.4649,6.9174],[-72.4714,6.9211],[-72.4781,6.9195],[-72.489,6.9248],[-72.4928,6.9241],[-72.4975,6.9202],[-72.4971,6.916],[-72.5006,6.9122],[-72.4999,6.9096],[-72.5029,6.9082],[-72.4964,6.8965],[-72.4966,6.8858],[-72.5025,6.8819],[-72.5016,6.8742],[-72.4983,6.8678],[-72.4906,6.8655],[-72.4886,6.8544],[-72.4835,6.8511],[-72.4835,6.8474],[-72.4771,6.8422],[-72.478,6.8343],[-72.4843,6.8185],[-72.4825,6.8123],[-72.484,6.8081],[-72.4892,6.8067],[-72.492,6.8024],[-72.4985,6.7984],[-72.4989,6.7952],[-72.4958,6.7904],[-72.4967,6.7862],[-72.4955,6.7829],[-72.4986,6.7644],[-72.4952,6.7636],[-72.4909,6.7596],[-72.4876,6.7436],[-72.4922,6.737],[-72.4984,6.7353],[-72.4989,6.7283],[-72.4973,6.7243],[-72.488,6.7162],[-72.4874,6.7066],[-72.4847,6.7026],[-72.4849,6.6953],[-72.4911,6.6818],[-72.4855,6.6722],[-72.4866,6.6695],[-72.4855,6.6571],[-72.4872,6.6533],[-72.4925,6.6506],[-72.492,6.645],[-72.4984,6.6396],[-72.497,6.6339],[-72.5098,6.6302],[-72.5135,6.6274],[-72.5188,6.6201],[-72.5205,6.6043],[-72.5255,6.5974],[-72.527,6.5916],[-72.5377,6.5887],[-72.5427,6.5828],[-72.5425,6.576],[-72.5459,6.5672],[-72.5373,6.5541],[-72.5363,6.5404],[-72.5425,6.5351],[-72.5435,6.5311]]]}},{"type":"Feature","properties":{"nombre":"Jurisdicciones - Santurbán - Berlín","tipo":"páramo","fuente":"MADS","acto":"Resolución No. 2090 de Diciembre 19 de 2014","escala":"25.000","hectareas":129479.9},"geometry":{"type":"MultiPolygon","coordinates":[[[[-73.0203,7.9946],[-73.0186,7.9936],[-73.0187,7.9902],[-73.0164,7.9912],[-73.018,7.9892],[-73.015,7.9877],[-73.016,7.9858],[-73.0145,7.985],[-73.0136,7.9789],[-73.01,7.9787],[-73.0085,7.9771],[-73.0086,7.9727],[-73.006,7.9656],[-72.9883,7.9676],[-72.9893,7.9701],[-72.9876,7.9718],[-72.988,7.9743],[-72.9849,7.9743],[-72.9836,7.972],[-72.9794,7.9748],[-72.976,7.9801],[-72.9679,7.986],[-72.9668,7.9897],[-72.9637,7.9875],[-72.9676,7.984],[-72.9675,7.9807],[-72.9709,7.9791],[-72.9704,7.9764],[-72.9769,7.9753],[-72.9802,7.9694],[-72.9821,7.969],[-72.9832,7.9626],[-72.9813,7.9568],[-72.9826,7.9582],[-72.9837,7.9573],[-72.9833,7.9533],[-72.9856,7.951],[-72.987,7.9527],[-72.989,7.9518],[-72.9873,7.957],[-72.9883,7.9598],[-72.99,7.9586],[-72.9935,7.9627],[-72.9977,7.9623],[-73.0009,7.9654],[-73.0083,7.9628],[-73.0081,7.9595],[-73.0105,7.958],[-73.0111,7.9539],[-73.0147,7.9553],[-73.0178,7.9527],[-73.0191,7.9531],[-73.019,7.9431],[-73.0214,7.9439],[-73.0224,7.9399],[-73.0251,7.9409],[-73.0253,7.9375],[-73.03,7.9384],[-73.0371,7.9195],[-73.0332,7.9184],[-73.0172,7.921],[-73.0134,7.9187],[-73.0148,7.9127],[-73.0129,7.911],[-73.0075,7.9111],[-73.0103,7.906],[-73.0167,7.9031],[-73.0146,7.9009],[-73.0155,7.8922],[-73.0182,7.8898],[-73.0193,7.8911],[-73.0196,7.8895],[-73.0223,7.8904],[-73.0217,7.8939],[-73.0232,7.8914],[-73.0264,7.8919],[-73.0279,7.8905],[-73.0245,7.8863],[-73.0264,7.8838],[-73.0239,7.8734],[-73.0154,7.8756],[-73.0185,7.8691],[-73.0176,7.8663],[-73.012,7.8673],[-73.0106,7.8703],[-73.0008,7.8745],[-72.9993,7.8729],[-73.0006,7.8678],[-72.9966,7.8671],[-72.9943,7.8684],[-72.9909,7.8675],[-72.991,7.8657],[-72.9891,7.8654],[-72.9814,7.8716],[-72.9751,7.88],[-72.9731,7.8765],[-72.9711,7.8769],[-72.9683,7.875],[-72.9703,7.8728],[-72.971,7.8685],[-72.9727,7.8699],[-72.9747,7.8694],[-72.9755,7.8665],[-72.9794,7.8636],[-72.9794,7.8605],[-72.9732,7.8628],[-72.9701,7.8627],[-72.9698,7.8607],[-72.9734,7.8561],[-72.9767,7.8567],[-72.9781,7.8552],[-72.979,7.8561],[-72.9846,7.8545],[-72.9845,7.8508],[-72.9808,7.8506],[-72.9778,7.8462],[-72.9834,7.8406],[-72.9881,7.8388],[-72.99,7.8352],[-72.9834,7.8354],[-72.9834,7.8294],[-72.9795,7.831],[-72.9714,7.8386],[-72.9655,7.8396],[-72.9656,7.837],[-72.9632,7.8365],[-72.966,7.8343],[-72.9698,7.8347],[-72.9694,7.8326],[-72.9715,7.8323],[-72.9721,7.8284],[-72.9705,7.8249],[-72.9774,7.8218],[-72.9782,7.8185],[-72.9767,7.8185],[-72.9761,7.8112],[-72.9788,7.8119],[-72.9799,7.8138],[-72.9803,7.8112],[-72.982,7.8102],[-72.9871,7.8098],[-72.9793,7.8082],[-72.9795,7.8046],[-72.9776,7.8038],[-72.9797,7.8032],[-72.979,7.8014],[-72.9801,7.7999],[-72.9825,7.7999],[-72.9815,7.7957],[-72.9846,7.7956],[-72.981,7.7869],[-72.9839,7.7827],[-72.9778,7.7853],[-72.9778,7.7889],[-72.9761,7.7904],[-72.9716,7.7855],[-72.9688,7.7864],[-72.9691,7.7836],[-72.9671,7.7835],[-72.9665,7.7854],[-72.9621,7.7842],[-72.964,7.785],[-72.9643,7.7869],[-72.9657,7.7864],[-72.9662,7.7889],[-72.9671,7.7883],[-72.9696,7.7905],[-72.9693,7.797],[-72.9663,7.7971],[-72.9645,7.7993],[-72.9631,7.7981],[-72.9614,7.8011],[-72.9596,7.8012],[-72.9601,7.8064],[-72.9578,7.8045],[-72.9568,7.8067],[-72.9545,7.8065],[-72.9556,7.8074],[-72.9547,7.8113],[-72.9516,7.814],[-72.9537,7.8158],[-72.9516,7.8181],[-72.9491,7.8182],[-72.9489,7.8224],[-72.9452,7.8221],[-72.9443,7.8204],[-72.9453,7.8186],[-72.9397,7.8181],[-72.9374,7.8161],[-72.9386,7.8112],[-72.9396,7.8123],[-72.9407,7.8101],[-72.943,7.81],[-72.9462,7.8068],[-72.9464,7.8056],[-72.9421,7.8063],[-72.9424,7.8035],[-72.9455,7.8024],[-72.9469,7.804],[-72.9489,7.8027],[-72.9486,7.799],[-72.9511,7.7946],[-72.9535,7.7933],[-72.9545,7.7826],[-72.9452,7.7829],[-72.9509,7.7794],[-72.9492,7.7789],[-72.9494,7.7759],[-72.9524,7.7739],[-72.9536,7.7712],[-72.9517,7.7701],[-72.9527,7.7683],[-72.9503,7.768],[-72.9517,7.7657],[-72.9561,7.7653],[-72.9537,7.7641],[-72.9545,7.763],[-72.9527,7.7606],[-72.9551,7.7585],[-72.9568,7.7594],[-72.9574,7.7585],[-72.9573,7.7508],[-72.9592,7.7516],[-72.9596,7.7536],[-72.9637,7.7496],[-72.9655,7.7544],[-72.9677,7.755],[-72.9682,7.7526],[-72.9696,7.7535],[-72.9712,7.752],[-72.9731,7.7571],[-72.9741,7.7499],[-72.9765,7.7517],[-72.9774,7.7551],[-72.9786,7.7548],[-72.9803,7.7492],[-72.9822,7.7518],[-72.9851,7.7485],[-72.9867,7.7489],[-72.9869,7.7456],[-72.9907,7.744],[-72.9899,7.7404],[-72.9924,7.7371],[-72.9894,7.7372],[-72.9869,7.7393],[-72.9818,7.739],[-72.9857,7.7288],[-72.9881,7.7268],[-72.9895,7.7196],[-72.9937,7.7174],[-72.9863,7.7164],[-72.9842,7.7214],[-72.9839,7.7195],[-72.979,7.717],[-72.9797,7.7109],[-72.975,7.7127],[-72.9736,7.7118],[-72.9743,7.7053],[-72.9725,7.7047],[-72.9678,7.7147],[-72.9632,7.7194],[-72.9594,7.721],[-72.9604,7.7158],[-72.9588,7.7127],[-72.9548,7.7151],[-72.9566,7.7123],[-72.9547,7.7031],[-72.9523,7.7068],[-72.9471,7.7097],[-72.9464,7.7082],[-72.9449,7.7083],[-72.9456,7.7034],[-72.9399,7.7063],[-72.9404,7.702],[-72.9389,7.7008],[-72.9424,7.6932],[-72.9409,7.6924],[-72.9372,7.6951],[-72.9354,7.6949],[-72.9364,7.6925],[-72.9322,7.691],[-72.9321,7.6876],[-72.9281,7.691],[-72.9238,7.6919],[-72.9236,7.6879],[-72.922,7.6895],[-72.9182,7.6901],[-72.9177,7.6889],[-72.9159,7.6898],[-72.9151,7.688],[-72.9139,7.6881],[-72.9131,7.6906],[-72.9111,7.69],[-72.9111,7.6933],[-72.9134,7.6947],[-72.9151,7.7],[-72.912,7.6991],[-72.9014,7.7012],[-72.8988,7.7038],[-72.8987,7.6996],[-72.9,7.6983],[-72.8982,7.6962],[-72.8992,7.6939],[-72.898,7.692],[-72.9006,7.6901],[-72.9,7.685],[-72.8956,7.6815],[-72.8891,7.6831],[-72.8853,7.6801],[-72.8977,7.678],[-72.9065,7.6848],[-72.9094,7.6842],[-72.9111,7.6807],[-72.9142,7.6793],[-72.9144,7.6753],[-72.9174,7.6727],[-72.9175,7.6713],[-72.9137,7.6695],[-72.914,7.6665],[-72.9164,7.6641],[-72.9147,7.6622],[-72.9122,7.6623],[-72.9127,7.6587],[-72.9091,7.6578],[-72.9062,7.659],[-72.9036,7.6568],[-72.9048,7.6541],[-72.9032,7.6521],[-72.9026,7.6467],[-72.9038,7.6422],[-72.905,7.6437],[-72.9074,7.6427],[-72.9094,7.6465],[-72.9135,7.6417],[-72.9111,7.6363],[-72.9143,7.6348],[-72.9127,7.6318],[-72.9147,7.6296],[-72.9131,7.6281],[-72.9148,7.6269],[-72.911,7.6207],[-72.9148,7.6184],[-72.9125,7.6169],[-72.9152,7.6128],[-72.9192,7.6122],[-72.9229,7.6081],[-72.9234,7.6192],[-72.9259,7.6203],[-72.9279,7.6234],[-72.9327,7.6182],[-72.9375,7.6173],[-72.9399,7.6133],[-72.9408,7.6144],[-72.9455,7.6131],[-72.9532,7.6192],[-72.9539,7.6138],[-72.9527,7.613],[-72.9536,7.6119],[-72.9521,7.6078],[-72.9489,7.6067],[-72.9495,7.6041],[-72.9452,7.6044],[-72.9429,7.6021],[-72.9454,7.6018],[-72.9469,7.5994],[-72.9505,7.5993],[-72.9518,7.5966],[-72.9498,7.5942],[-72.9534,7.592],[-72.9575,7.597],[-72.957,7.6002],[-72.9615,7.6003],[-72.9648,7.6024],[-72.9676,7.5999],[-72.9724,7.6043],[-72.9732,7.5966],[-72.9692,7.5927],[-72.9664,7.5827],[-72.9699,7.5851],[-72.973,7.5908],[-72.9761,7.5915],[-72.9766,7.5901],[-72.9745,7.589],[-72.9749,7.5868],[-72.9779,7.5866],[-72.9755,7.5835],[-72.9769,7.5773],[-72.972,7.5718],[-72.9757,7.5693],[-72.9741,7.5676],[-72.9786,7.5629],[-72.9751,7.5584],[-72.973,7.5603],[-72.9693,7.5587],[-72.9746,7.5555],[-72.973,7.5491],[-72.9687,7.5487],[-72.9705,7.5462],[-72.9691,7.5454],[-72.9704,7.5437],[-72.9692,7.5392],[-72.9709,7.5345],[-72.9663,7.5333],[-72.9678,7.5303],[-72.967,7.5292],[-72.9642,7.53],[-72.963,7.5271],[-72.965,7.525],[-72.9644,7.524],[-72.9558,7.5192],[-72.9562,7.5207],[-72.9551,7.5209],[-72.9538,7.5169],[-72.951,7.5165],[-72.9508,7.5197],[-72.9484,7.5184],[-72.9474,7.5199],[-72.9423,7.5194],[-72.9469,7.5263],[-72.942,7.5261],[-72.9433,7.5282],[-72.9415,7.529],[-72.9457,7.5306],[-72.9445,7.5343],[-72.947,7.5362],[-72.9466,7.5377],[-72.9438,7.538],[-72.9444,7.542],[-72.938,7.5399],[-72.9372,7.5428],[-72.9359,7.5427],[-72.9365,7.5447],[-72.9343,7.5467],[-72.9298,7.5395],[-72.9279,7.5435],[-72.9253,7.5437],[-72.9251,7.546],[-72.9175,7.5483],[-72.9165,7.5532],[-72.9188,7.5536],[-72.9195,7.5554],[-72.917,7.5589],[-72.9153,7.5558],[-72.9124,7.5569],[-72.9101,7.5557],[-72.9079,7.5572],[-72.9101,7.5528],[-72.9091,7.5512],[-72.9074,7.5517],[-72.9076,7.5482],[-72.9113,7.5451],[-72.91,7.54],[-72.9156,7.5391],[-72.9147,7.5377],[-72.917,7.5349],[-72.9166,7.5281],[-72.9121,7.5278],[-72.9145,7.5228],[-72.9169,7.5218],[-72.9158,7.5198],[-72.9173,7.5192],[-72.9135,7.5118],[-72.914,7.5073],[-72.9155,7.5058],[-72.9158,7.4975],[-72.9123,7.4994],[-72.9082,7.4969],[-72.9085,7.501],[-72.9056,7.5027],[-72.9053,7.5043],[-72.9013,7.5036],[-72.9015,7.5056],[-72.8994,7.5056],[-72.8996,7.5068],[-72.898,7.5059],[-72.8962,7.508],[-72.8959,7.5062],[-72.894,7.5079],[-72.8953,7.5031],[-72.8937,7.5024],[-72.8934,7.4963],[-72.8921,7.4951],[-72.8877,7.4956],[-72.8876,7.4899],[-72.8824,7.4905],[-72.8836,7.4853],[-72.8821,7.4831],[-72.8782,7.4886],[-72.8756,7.487],[-72.8755,7.4888],[-72.8733,7.4895],[-72.8754,7.4924],[-72.8726,7.4935],[-72.8734,7.4965],[-72.8658,7.494],[-72.8633,7.4973],[-72.8615,7.4975],[-72.8614,7.5027],[-72.8584,7.5077],[-72.859,7.5115],[-72.8618,7.5148],[-72.8568,7.5137],[-72.8494,7.5182],[-72.8483,7.5215],[-72.8501,7.5232],[-72.8475,7.5266],[-72.8497,7.5312],[-72.8456,7.5313],[-72.846,7.5296],[-72.8448,7.5302],[-72.8443,7.5291],[-72.843,7.5311],[-72.8424,7.5264],[-72.841,7.5269],[-72.8407,7.5253],[-72.8454,7.5242],[-72.848,7.5197],[-72.8483,7.5162],[-72.8519,7.5123],[-72.8552,7.5121],[-72.8574,7.5084],[-72.8546,7.5028],[-72.8556,7.4997],[-72.8541,7.5002],[-72.8532,7.4981],[-72.8516,7.5],[-72.8472,7.4994],[-72.8484,7.4959],[-72.8467,7.4928],[-72.8476,7.4901],[-72.8495,7.491],[-72.8503,7.4946],[-72.8519,7.4948],[-72.8584,7.4914],[-72.8634,7.4916],[-72.867,7.4892],[-72.8662,7.4863],[-72.868,7.48],[-72.8619,7.4792],[-72.8617,7.4774],[-72.8604,7.4774],[-72.8599,7.4751],[-72.8572,7.4732],[-72.8686,7.4721],[-72.8695,7.4686],[-72.8673,7.4661],[-72.8709,7.4612],[-72.8662,7.4607],[-72.8704,7.4543],[-72.8696,7.4477],[-72.8744,7.4452],[-72.8723,7.4445],[-72.8742,7.4427],[-72.8656,7.4451],[-72.8618,7.4509],[-72.857,7.4519],[-72.8577,7.4502],[-72.8566,7.4487],[-72.859,7.4456],[-72.8581,7.4434],[-72.8609,7.4412],[-72.8615,7.4386],[-72.8576,7.4356],[-72.8587,7.4318],[-72.857,7.4292],[-72.8633,7.4232],[-72.8564,7.4165],[-72.855,7.4191],[-72.8497,7.4221],[-72.8458,7.4222],[-72.8449,7.4267],[-72.8429,7.4256],[-72.8409,7.4292],[-72.8391,7.4278],[-72.8357,7.4185],[-72.8308,7.4189],[-72.8263,7.4074],[-72.8243,7.412],[-72.8244,7.4164],[-72.8217,7.4217],[-72.8235,7.4306],[-72.8215,7.4367],[-72.8175,7.4341],[-72.8144,7.4371],[-72.8124,7.4339],[-72.8097,7.4335],[-72.8017,7.4386],[-72.794,7.4474],[-72.7939,7.4521],[-72.7911,7.454],[-72.7903,7.4525],[-72.7875,7.4534],[-72.7873,7.4521],[-72.7831,7.4525],[-72.7834,7.4508],[-72.7854,7.4505],[-72.786,7.4467],[-72.7877,7.4474],[-72.7894,7.4455],[-72.7899,7.4411],[-72.7919,7.4422],[-72.7928,7.4399],[-72.7942,7.4403],[-72.7944,7.4369],[-72.7981,7.4356],[-72.7976,7.4295],[-72.799,7.429],[-72.8002,7.4255],[-72.8045,7.4251],[-72.8062,7.4239],[-72.8052,7.4227],[-72.8062,7.4216],[-72.8098,7.4208],[-72.8086,7.4176],[-72.8067,7.4179],[-72.8082,7.4158],[-72.8067,7.4167],[-72.8052,7.4151],[-72.8088,7.4118],[-72.8087,7.4086],[-72.8068,7.4068],[-72.8057,7.4091],[-72.8036,7.4069],[-72.8015,7.4089],[-72.7982,7.4057],[-72.796,7.4057],[-72.7946,7.4106],[-72.7868,7.4161],[-72.7862,7.4107],[-72.7883,7.4096],[-72.787,7.4078],[-72.7906,7.4043],[-72.7884,7.4037],[-72.791,7.4018],[-72.7889,7.4017],[-72.7916,7.3988],[-72.7921,7.3943],[-72.7883,7.4004],[-72.7785,7.4022],[-72.7777,7.4007],[-72.7718,7.403],[-72.7711,7.4113],[-72.7657,7.4112],[-72.7661,7.4038],[-72.7645,7.4023],[-72.7683,7.3991],[-72.7685,7.3972],[-72.7733,7.3946],[-72.7691,7.3911],[-72.7692,7.3893],[-72.7737,7.386],[-72.7771,7.3866],[-72.7772,7.3852],[-72.7756,7.3828],[-72.7731,7.3826],[-72.7637,7.385],[-72.7663,7.3821],[-72.7697,7.3817],[-72.7724,7.3776],[-72.7744,7.378],[-72.7741,7.3744],[-72.7765,7.3743],[-72.7807,7.3691],[-72.7801,7.3658],[-72.7819,7.3663],[-72.7839,7.3631],[-72.787,7.3664],[-72.7886,7.363],[-72.7876,7.3612],[-72.7962,7.3581],[-72.7945,7.3564],[-72.7964,7.3524],[-72.7908,7.3543],[-72.7881,7.3518],[-72.7862,7.3536],[-72.7855,7.35],[-72.7824,7.3523],[-72.7739,7.351],[-72.7678,7.3524],[-72.7671,7.3501],[-72.7736,7.3483],[-72.7874,7.3407],[-72.7857,7.3402],[-72.786,7.337],[-72.7849,7.3386],[-72.7825,7.3376],[-72.7791,7.3391],[-72.7776,7.3378],[-72.7785,7.3306],[-72.776,7.3326],[-72.7744,7.3311],[-72.7737,7.3328],[-72.7672,7.3306],[-72.7654,7.3256],[-72.7666,7.3242],[-72.7641,7.3192],[-72.7672,7.3172],[-72.7683,7.313],[-72.7669,7.3118],[-72.7631,7.3122],[-72.7626,7.3092],[-72.7596,7.3071],[-72.7601,7.3054],[-72.7567,7.303],[-72.7572,7.2991],[-72.7634,7.2977],[-72.7613,7.2973],[-72.7612,7.2952],[-72.7585,7.2951],[-72.7573,7.2916],[-72.7585,7.2894],[-72.758,7.2854],[-72.7599,7.2842],[-72.76,7.2818],[-72.7621,7.2816],[-72.7631,7.2786],[-72.7693,7.2745],[-72.7681,7.2733],[-72.7632,7.2759],[-72.7589,7.2762],[-72.7588,7.2673],[-72.7558,7.2679],[-72.7558,7.2721],[-72.752,7.2714],[-72.7541,7.2751],[-72.7533,7.2789],[-72.7515,7.2786],[-72.749,7.2807],[-72.7456,7.276],[-72.7439,7.2801],[-72.7445,7.2833],[-72.7424,7.2844],[-72.7431,7.2877],[-72.7357,7.2937],[-72.7322,7.2923],[-72.7316,7.2962],[-72.7329,7.2986],[-72.7309,7.3027],[-72.7285,7.3031],[-72.7253,7.3013],[-72.7211,7.302],[-72.7205,7.3063],[-72.7234,7.3129],[-72.7201,7.3147],[-72.7216,7.318],[-72.7194,7.3224],[-72.7215,7.3237],[-72.7218,7.3265],[-72.7212,7.3298],[-72.7179,7.3313],[-72.7191,7.332],[-72.7186,7.3369],[-72.7205,7.3385],[-72.7179,7.3405],[-72.7195,7.3407],[-72.7191,7.3419],[-72.7215,7.3417],[-72.7154,7.3438],[-72.7185,7.3477],[-72.7143,7.35],[-72.7111,7.3501],[-72.7125,7.3522],[-72.7112,7.3554],[-72.7092,7.3536],[-72.707,7.3541],[-72.7084,7.3566],[-72.7072,7.3566],[-72.7069,7.3584],[-72.7038,7.3571],[-72.7018,7.3605],[-72.6998,7.359],[-72.6995,7.3611],[-72.6972,7.3612],[-72.6989,7.3647],[-72.6961,7.3639],[-72.6956,7.3662],[-72.6943,7.3646],[-72.6935,7.3653],[-72.6922,7.3685],[-72.6928,7.3733],[-72.6978,7.3705],[-72.6922,7.3757],[-72.6894,7.3805],[-72.6825,7.3801],[-72.6881,7.3798],[-72.6903,7.3783],[-72.6889,7.375],[-72.6911,7.3731],[-72.6915,7.3699],[-72.6899,7.3648],[-72.6871,7.3655],[-72.6867,7.3643],[-72.6857,7.3656],[-72.6834,7.3638],[-72.686,7.3614],[-72.689,7.3614],[-72.689,7.3594],[-72.6926,7.3594],[-72.6929,7.3579],[-72.6909,7.3558],[-72.6954,7.3528],[-72.6913,7.3516],[-72.69,7.3482],[-72.6885,7.3513],[-72.6868,7.3519],[-72.6832,7.349],[-72.6805,7.3501],[-72.679,7.3483],[-72.6771,7.3487],[-72.6786,7.3427],[-72.6756,7.3411],[-72.6788,7.338],[-72.6775,7.3354],[-72.6792,7.3337],[-72.6769,7.3298],[-72.6753,7.3284],[-72.6699,7.3313],[-72.6652,7.3254],[-72.6647,7.3305],[-72.6626,7.3309],[-72.6614,7.3293],[-72.6594,7.3312],[-72.6592,7.3341],[-72.6562,7.3342],[-72.655,7.3364],[-72.6532,7.3359],[-72.6513,7.3308],[-72.6492,7.3308],[-72.648,7.3289],[-72.6511,7.3282],[-72.6525,7.3222],[-72.6506,7.3203],[-72.6489,7.3209],[-72.6488,7.3197],[-72.6457,7.3203],[-72.6476,7.3167],[-72.6356,7.3205],[-72.6339,7.3193],[-72.6318,7.323],[-72.6276,7.3212],[-72.6263,7.3149],[-72.6282,7.3083],[-72.6341,7.3118],[-72.635,7.315],[-72.6369,7.316],[-72.6388,7.3146],[-72.6372,7.3116],[-72.639,7.3111],[-72.6374,7.3096],[-72.6383,7.3076],[-72.6356,7.3042],[-72.6381,7.3037],[-72.6347,7.2976],[-72.635,7.2945],[-72.6329,7.2966],[-72.6318,7.2951],[-72.6305,7.2961],[-72.6291,7.2949],[-72.6268,7.2971],[-72.6224,7.2976],[-72.6193,7.2952],[-72.6189,7.2929],[-72.6157,7.2936],[-72.6128,7.2921],[-72.6086,7.2939],[-72.6076,7.2924],[-72.6087,7.2901],[-72.613,7.2897],[-72.6139,7.2878],[-72.6149,7.2807],[-72.6142,7.2795],[-72.611,7.2803],[-72.6161,7.2772],[-72.6144,7.2741],[-72.6149,7.27],[-72.621,7.2712],[-72.6238,7.2701],[-72.6266,7.2717],[-72.6281,7.2647],[-72.6307,7.2685],[-72.6301,7.2759],[-72.6285,7.2784],[-72.6314,7.2782],[-72.6343,7.2823],[-72.637,7.2834],[-72.6393,7.28],[-72.6429,7.2813],[-72.6453,7.2838],[-72.6424,7.2878],[-72.6444,7.2899],[-72.645,7.294],[-72.6471,7.2937],[-72.65,7.2977],[-72.6537,7.2956],[-72.6543,7.3007],[-72.6574,7.2962],[-72.6565,7.2946],[-72.6607,7.2946],[-72.6601,7.2915],[-72.6645,7.2921],[-72.6656,7.2952],[-72.6689,7.2974],[-72.6699,7.2945],[-72.6718,7.2951],[-72.6759,7.2928],[-72.6788,7.2947],[-72.6788,7.2974],[-72.6824,7.2997],[-72.6818,7.3071],[-72.683,7.3096],[-72.6817,7.3106],[-72.6811,7.3154],[-72.6832,7.3128],[-72.6851,7.3128],[-72.6857,7.3052],[-72.6911,7.3052],[-72.6865,7.3012],[-72.6865,7.299],[-72.6888,7.2965],[-72.6847,7.2941],[-72.6848,7.2886],[-72.6833,7.2855],[-72.6807,7.284],[-72.6807,7.281],[-72.6839,7.2825],[-72.6848,7.2809],[-72.687,7.2819],[-72.687,7.2841],[-72.6894,7.285],[-72.6935,7.2822],[-72.6922,7.2803],[-72.6961,7.2788],[-72.6961,7.2775],[-72.6932,7.2761],[-72.6954,7.2724],[-72.6982,7.2728],[-72.6979,7.2714],[-72.6992,7.272],[-72.7001,7.2699],[-72.7026,7.2722],[-72.7026,7.2685],[-72.7085,7.2672],[-72.7064,7.2662],[-72.7073,7.2636],[-72.7031,7.2662],[-72.6989,7.2644],[-72.6996,7.2612],[-72.6982,7.2599],[-72.6937,7.2614],[-72.693,7.2543],[-72.6905,7.2543],[-72.6897,7.2585],[-72.6879,7.2589],[-72.6885,7.2621],[-72.6846,7.2656],[-72.6783,7.258],[-72.6749,7.2585],[-72.6718,7.256],[-72.6676,7.261],[-72.6693,7.2502],[-72.6671,7.2486],[-72.6676,7.2441],[-72.6703,7.2468],[-72.6745,7.2451],[-72.6765,7.2466],[-72.6766,7.2491],[-72.6791,7.2475],[-72.6796,7.2505],[-72.6816,7.2504],[-72.6814,7.2476],[-72.6837,7.2484],[-72.6832,7.2471],[-72.6848,7.2453],[-72.6811,7.2446],[-72.6813,7.2424],[-72.6789,7.2398],[-72.6812,7.2407],[-72.6845,7.2392],[-72.6819,7.2347],[-72.6858,7.2308],[-72.6836,7.2278],[-72.6841,7.2251],[-72.6798,7.2251],[-72.6841,7.2192],[-72.6823,7.218],[-72.6809,7.2142],[-72.6816,7.2131],[-72.6892,7.2181],[-72.6921,7.2248],[-72.6969,7.2231],[-72.6963,7.2217],[-72.6997,7.216],[-72.7038,7.2193],[-72.707,7.21],[-72.7116,7.223],[-72.7159,7.2304],[-72.7178,7.2309],[-72.718,7.2253],[-72.7195,7.2234],[-72.7181,7.2185],[-72.7213,7.2165],[-72.721,7.2141],[-72.7233,7.2118],[-72.7221,7.2108],[-72.7249,7.2055],[-72.7215,7.204],[-72.7233,7.2025],[-72.7227,7.2008],[-72.7245,7.2002],[-72.7233,7.1984],[-72.7254,7.1974],[-72.7225,7.1957],[-72.7227,7.1939],[-72.7205,7.1928],[-72.7201,7.1904],[-72.7268,7.1912],[-72.7275,7.1883],[-72.729,7.1884],[-72.7328,7.1824],[-72.7348,7.1894],[-72.7336,7.1919],[-72.7354,7.1955],[-72.7394,7.198],[-72.739,7.2042],[-72.7427,7.2041],[-72.7415,7.2119],[-72.7389,7.2121],[-72.7414,7.2134],[-72.7402,7.2227],[-72.7422,7.2173],[-72.745,7.2148],[-72.7451,7.2122],[-72.7503,7.2086],[-72.7514,7.2051],[-72.7497,7.2005],[-72.7508,7.197],[-72.7495,7.1952],[-72.7545,7.196],[-72.7526,7.1979],[-72.7509,7.2093],[-72.7473,7.2163],[-72.7511,7.2198],[-72.7494,7.2215],[-72.7518,7.2229],[-72.7498,7.2241],[-72.7502,7.2271],[-72.7527,7.228],[-72.7514,7.2304],[-72.7522,7.2321],[-72.7545,7.2294],[-72.7547,7.2256],[-72.7579,7.2274],[-72.7589,7.2197],[-72.7607,7.2186],[-72.7622,7.2207],[-72.7613,7.2253],[-72.7637,7.2296],[-72.7624,7.2317],[-72.7632,7.2337],[-72.7617,7.2347],[-72.7632,7.2368],[-72.761,7.2378],[-72.7626,7.2386],[-72.7633,7.2426],[-72.7655,7.2378],[-72.7657,7.2327],[-72.7674,7.2309],[-72.7663,7.2256],[-72.7689,7.2229],[-72.7656,7.2198],[-72.7668,7.2156],[-72.7651,7.2141],[-72.77,7.2114],[-72.772,7.2133],[-72.7711,7.2174],[-72.7737,7.2181],[-72.7745,7.2148],[-72.7768,7.2129],[-72.7768,7.215],[-72.7794,7.2155],[-72.7812,7.2178],[-72.7836,7.2161],[-72.7854,7.2178],[-72.7872,7.2159],[-72.7892,7.2181],[-72.7919,7.2186],[-72.7913,7.2201],[-72.7972,7.2192],[-72.8011,7.2231],[-72.8002,7.2302],[-72.8032,7.2309],[-72.8033,7.2326],[-72.811,7.2293],[-72.8189,7.2293],[-72.8242,7.2227],[-72.8264,7.2248],[-72.8266,7.2212],[-72.829,7.2184],[-72.8278,7.2173],[-72.8292,7.2151],[-72.8282,7.214],[-72.8359,7.2112],[-72.8323,7.2097],[-72.8354,7.2077],[-72.8341,7.2065],[-72.8345,7.2031],[-72.8328,7.1999],[-72.8369,7.198],[-72.8343,7.1978],[-72.8344,7.1956],[-72.8312,7.1922],[-72.8299,7.1853],[-72.8288,7.1848],[-72.8301,7.1895],[-72.829,7.1932],[-72.8318,7.1964],[-72.8288,7.1994],[-72.8313,7.205],[-72.8268,7.2063],[-72.8266,7.2091],[-72.8242,7.2078],[-72.8233,7.2087],[-72.821,7.2115],[-72.8221,7.2126],[-72.8198,7.2175],[-72.8169,7.2165],[-72.8097,7.2206],[-72.809,7.2196],[-72.8114,7.2132],[-72.8058,7.2131],[-72.8042,7.2078],[-72.7999,7.2061],[-72.7981,7.2072],[-72.7992,7.2027],[-72.7966,7.2021],[-72.7956,7.2039],[-72.788,7.1996],[-72.7851,7.2001],[-72.7843,7.1954],[-72.7791,7.1972],[-72.7787,7.1958],[-72.7816,7.1937],[-72.781,7.1888],[-72.7826,7.188],[-72.7791,7.182],[-72.7797,7.178],[-72.7817,7.1761],[-72.7813,7.1738],[-72.772,7.1766],[-72.7702,7.1752],[-72.7692,7.1768],[-72.7636,7.175],[-72.7659,7.1701],[-72.77,7.1687],[-72.7702,7.1672],[-72.7752,7.1646],[-72.7781,7.1607],[-72.7826,7.1602],[-72.7828,7.1554],[-72.7795,7.156],[-72.7804,7.1456],[-72.7819,7.1445],[-72.7802,7.1445],[-72.7784,7.1416],[-72.7761,7.1544],[-72.7735,7.155],[-72.7724,7.1569],[-72.7664,7.1579],[-72.7631,7.1622],[-72.758,7.1653],[-72.757,7.1638],[-72.7583,7.1574],[-72.7644,7.1536],[-72.7657,7.1489],[-72.7574,7.1487],[-72.7597,7.1458],[-72.7585,7.1448],[-72.7466,7.1505],[-72.7539,7.1429],[-72.7531,7.1355],[-72.7677,7.1327],[-72.7714,7.1305],[-72.7743,7.1252],[-72.7875,7.1124],[-72.7994,7.0907],[-72.8013,7.0801],[-72.7969,7.0795],[-72.7962,7.0775],[-72.7938,7.0772],[-72.7937,7.0749],[-72.796,7.0714],[-72.7952,7.067],[-72.7897,7.0623],[-72.7918,7.0543],[-72.7933,7.0619],[-72.8016,7.0726],[-72.8113,7.075],[-72.8181,7.0719],[-72.821,7.0732],[-72.8223,7.0785],[-72.8191,7.0901],[-72.826,7.0941],[-72.8346,7.0955],[-72.8375,7.0985],[-72.8377,7.102],[-72.8329,7.1069],[-72.8361,7.1108],[-72.8364,7.1162],[-72.8401,7.121],[-72.8407,7.1265],[-72.8434,7.1289],[-72.8474,7.1373],[-72.8488,7.1314],[-72.8558,7.1177],[-72.8694,7.1074],[-72.8831,7.078],[-72.8903,7.08],[-72.9044,7.0797],[-72.9054,7.0812],[-72.9105,7.0819],[-72.9112,7.0766],[-72.9086,7.0744],[-72.9078,7.0694],[-72.9094,7.0635],[-72.9168,7.0493],[-72.9167,7.0459],[-72.914,7.0411],[-72.9147,7.029],[-72.9175,7.0315],[-72.9153,7.0342],[-72.9172,7.0383],[-72.9196,7.0354],[-72.9243,7.0348],[-72.9228,7.0394],[-72.9257,7.0419],[-72.924,7.0446],[-72.9265,7.0455],[-72.9242,7.0472],[-72.9248,7.0487],[-72.922,7.0528],[-72.9225,7.0552],[-72.9261,7.0586],[-72.921,7.06],[-72.9204,7.0616],[-72.9227,7.0652],[-72.9216,7.0668],[-72.9181,7.0656],[-72.918,7.069],[-72.9215,7.0709],[-72.923,7.0746],[-72.9272,7.0761],[-72.9283,7.0828],[-72.9301,7.0816],[-72.9328,7.085],[-72.935,7.0788],[-72.9343,7.0766],[-72.939,7.075],[-72.939,7.0725],[-72.9422,7.0688],[-72.9411,7.0675],[-72.9425,7.0644],[-72.945,7.0648],[-72.9463,7.063],[-72.9454,7.0668],[-72.9474,7.0679],[-72.9624,7.0665],[-72.9621,7.0741],[-72.9635,7.0749],[-72.9627,7.0766],[-72.9643,7.0772],[-72.9641,7.0818],[-72.9733,7.0749],[-72.9756,7.077],[-72.969,7.0879],[-72.9655,7.0873],[-72.9669,7.0894],[-72.9629,7.0965],[-72.9633,7.1005],[-72.9704,7.1003],[-72.972,7.1032],[-72.9766,7.0987],[-72.977,7.1036],[-72.9784,7.1047],[-72.98,7.1039],[-72.9811,7.1058],[-72.9839,7.105],[-72.9871,7.1112],[-72.9844,7.117],[-72.9797,7.122],[-72.9791,7.1252],[-72.9818,7.1294],[-72.9762,7.1354],[-72.9758,7.1412],[-72.9718,7.1422],[-72.9721,7.144],[-72.9683,7.1479],[-72.9661,7.1529],[-72.9648,7.1522],[-72.9614,7.1553],[-72.9584,7.1543],[-72.9583,7.1559],[-72.955,7.158],[-72.9596,7.1599],[-72.956,7.1621],[-72.9545,7.1613],[-72.9545,7.1645],[-72.96,7.1651],[-72.9587,7.1684],[-72.9553,7.1684],[-72.9562,7.1706],[-72.9535,7.1712],[-72.9543,7.1724],[-72.9521,7.1734],[-72.9524,7.1746],[-72.9503,7.1743],[-72.9502,7.1763],[-72.9487,7.1761],[-72.9476,7.1806],[-72.9456,7.1822],[-72.947,7.1848],[-72.9439,7.1841],[-72.9435,7.1853],[-72.9453,7.1865],[-72.943,7.1868],[-72.9452,7.192],[-72.9409,7.1893],[-72.9399,7.1937],[-72.937,7.1927],[-72.9356,7.1963],[-72.9318,7.1941],[-72.9241,7.1936],[-72.9229,7.1969],[-72.9259,7.2029],[-72.9201,7.2062],[-72.9187,7.21],[-72.9164,7.2106],[-72.9146,7.2153],[-72.9154,7.2174],[-72.9141,7.2207],[-72.9156,7.2242],[-72.9201,7.2239],[-72.9194,7.2296],[-72.9205,7.2338],[-72.9272,7.2325],[-72.927,7.2375],[-72.9302,7.2409],[-72.9352,7.242],[-72.9371,7.2403],[-72.9383,7.241],[-72.9391,7.2389],[-72.943,7.2409],[-72.9415,7.2439],[-72.9389,7.2437],[-72.9308,7.2486],[-72.9279,7.2474],[-72.9282,7.2558],[-72.924,7.2555],[-72.9212,7.2536],[-72.9157,7.2546],[-72.9082,7.2532],[-72.9073,7.2536],[-72.9087,7.2556],[-72.9065,7.2551],[-72.912,7.2593],[-72.9099,7.2646],[-72.9149,7.2641],[-72.9197,7.2667],[-72.9167,7.2705],[-72.9162,7.2734],[-72.9217,7.2753],[-72.9236,7.2783],[-72.9266,7.2786],[-72.9266,7.281],[-72.9291,7.2801],[-72.9302,7.2813],[-72.9294,7.2836],[-72.9321,7.2834],[-72.9323,7.2855],[-72.936,7.2845],[-72.9363,7.2869],[-72.9399,7.2909],[-72.9376,7.2935],[-72.9387,7.2971],[-72.9351,7.2961],[-72.9344,7.2979],[-72.9316,7.2972],[-72.9281,7.2989],[-72.9307,7.3036],[-72.9285,7.307],[-72.9299,7.3076],[-72.9307,7.311],[-72.927,7.3124],[-72.928,7.3149],[-72.9272,7.3197],[-72.9247,7.3193],[-72.9236,7.3223],[-72.9211,7.3222],[-72.918,7.3153],[-72.9114,7.3152],[-72.9086,7.3165],[-72.9078,7.3124],[-72.9034,7.3126],[-72.9032,7.3062],[-72.8996,7.3026],[-72.8984,7.3063],[-72.8963,7.3068],[-72.8952,7.3111],[-72.8913,7.3108],[-72.8898,7.3087],[-72.8873,7.3087],[-72.8853,7.3115],[-72.8814,7.3114],[-72.8809,7.3143],[-72.8792,7.3147],[-72.8735,7.312],[-72.876,7.3165],[-72.8708,7.3206],[-72.871,7.323],[-72.8782,7.3205],[-72.883,7.3207],[-72.8849,7.319],[-72.8863,7.3207],[-72.8932,7.3235],[-72.8924,7.325],[-72.895,7.3259],[-72.8973,7.3288],[-72.8965,7.3299],[-72.8902,7.3294],[-72.8926,7.3319],[-72.889,7.3326],[-72.8878,7.3369],[-72.8939,7.3398],[-72.897,7.3397],[-72.8946,7.3438],[-72.8962,7.3474],[-72.8918,7.35],[-72.8963,7.3542],[-72.8944,7.3557],[-72.8952,7.3577],[-72.8922,7.3602],[-72.8932,7.3609],[-72.8919,7.3634],[-72.8948,7.3604],[-72.8986,7.3602],[-72.9095,7.3528],[-72.9135,7.3543],[-72.9115,7.3583],[-72.9056,7.357],[-72.9019,7.3596],[-72.9001,7.3636],[-72.8982,7.3624],[-72.8959,7.3642],[-72.8933,7.3694],[-72.8953,7.3705],[-72.894,7.3746],[-72.8877,7.3727],[-72.8869,7.3749],[-72.8836,7.3753],[-72.8849,7.3783],[-72.8841,7.3798],[-72.8865,7.3784],[-72.8874,7.3794],[-72.889,7.3788],[-72.892,7.3823],[-72.8915,7.3841],[-72.893,7.3852],[-72.8901,7.3888],[-72.8922,7.3902],[-72.8906,7.3915],[-72.8914,7.3937],[-72.8937,7.3917],[-72.8949,7.3929],[-72.8944,7.3907],[-72.8967,7.391],[-72.896,7.3896],[-72.8993,7.3884],[-72.9003,7.3857],[-72.9029,7.3871],[-72.9036,7.3846],[-72.9062,7.383],[-72.9079,7.3839],[-72.908,7.3857],[-72.9099,7.3855],[-72.9163,7.3836],[-72.9167,7.381],[-72.9195,7.3809],[-72.9202,7.3831],[-72.9205,7.382],[-72.9217,7.3826],[-72.9224,7.3803],[-72.9252,7.3789],[-72.9252,7.383],[-72.9237,7.3847],[-72.9259,7.3878],[-72.9243,7.3876],[-72.924,7.3895],[-72.9195,7.392],[-72.9241,7.3931],[-72.9221,7.3979],[-72.9202,7.3989],[-72.924,7.4021],[-72.9239,7.4038],[-72.9196,7.4042],[-72.9198,7.4054],[-72.9169,7.407],[-72.9171,7.4081],[-72.9204,7.4081],[-72.9188,7.4109],[-72.9206,7.4116],[-72.9204,7.4134],[-72.9244,7.4115],[-72.9255,7.4126],[-72.9305,7.4117],[-72.9351,7.4093],[-72.9343,7.4132],[-72.931,7.4135],[-72.9289,7.4193],[-72.9273,7.4196],[-72.9335,7.4241],[-72.9327,7.4257],[-72.9341,7.4265],[-72.9301,7.4301],[-72.9338,7.432],[-72.9327,7.4364],[-72.9306,7.4381],[-72.9363,7.4362],[-72.943,7.4285],[-72.946,7.4281],[-72.9498,7.4249],[-72.9457,7.4318],[-72.9477,7.435],[-72.9471,7.4403],[-72.9437,7.4379],[-72.9381,7.4401],[-72.936,7.4424],[-72.9367,7.4443],[-72.9345,7.4447],[-72.935,7.4462],[-72.9317,7.45],[-72.9312,7.452],[-72.9337,7.4536],[-72.9333,7.4549],[-72.9299,7.456],[-72.9258,7.4547],[-72.9257,7.4587],[-72.9232,7.4586],[-72.9233,7.4615],[-72.9185,7.4608],[-72.9181,7.4649],[-72.9145,7.4649],[-72.9148,7.4715],[-72.9181,7.4705],[-72.9217,7.4731],[-72.919,7.4768],[-72.9189,7.4798],[-72.9216,7.4798],[-72.9198,7.4834],[-72.9201,7.4871],[-72.9239,7.4811],[-72.9325,7.4742],[-72.942,7.4759],[-72.944,7.4798],[-72.9458,7.478],[-72.9495,7.4778],[-72.9481,7.48],[-72.9487,7.4823],[-72.9545,7.4803],[-72.9544,7.4834],[-72.9577,7.4828],[-72.9613,7.4867],[-72.9603,7.488],[-72.9593,7.487],[-72.9578,7.4878],[-72.9564,7.491],[-72.9547,7.4909],[-72.9534,7.4932],[-72.9547,7.4957],[-72.9512,7.4977],[-72.9493,7.4966],[-72.9485,7.4985],[-72.9453,7.4991],[-72.9498,7.5032],[-72.9566,7.5055],[-72.9545,7.5084],[-72.9504,7.507],[-72.9505,7.5092],[-72.9483,7.5107],[-72.955,7.514],[-72.9585,7.5203],[-72.9619,7.519],[-72.9618,7.5168],[-72.9637,7.5165],[-72.9649,7.5136],[-72.9677,7.5135],[-72.97,7.5159],[-72.9711,7.5145],[-72.9728,7.5153],[-72.9744,7.5097],[-72.9786,7.5092],[-72.9796,7.5067],[-72.9819,7.5073],[-72.986,7.5054],[-72.9883,7.5019],[-72.9898,7.5062],[-72.9836,7.5134],[-72.9838,7.5194],[-72.9903,7.5148],[-72.9931,7.5182],[-72.9953,7.5145],[-72.9988,7.5147],[-73.0004,7.5129],[-72.9988,7.5165],[-73.0014,7.5164],[-73.0035,7.5186],[-73.0053,7.5178],[-73.0099,7.5193],[-73.014,7.5123],[-73.0166,7.5184],[-73.0149,7.5202],[-73.0127,7.5214],[-73.01,7.5197],[-73.009,7.5214],[-73.0043,7.5213],[-73.0028,7.5266],[-72.9967,7.5228],[-72.9945,7.5284],[-72.9914,7.5263],[-72.9902,7.5277],[-72.9882,7.5271],[-72.9857,7.5311],[-72.9887,7.5341],[-72.9837,7.5378],[-72.9873,7.5382],[-72.988,7.5418],[-72.9933,7.5392],[-72.9961,7.5432],[-72.9971,7.5429],[-72.9969,7.5407],[-72.9996,7.5402],[-72.9988,7.5438],[-73.0022,7.5445],[-73.0018,7.5474],[-73.0004,7.5468],[-73.0003,7.5504],[-72.9992,7.548],[-72.9969,7.5468],[-72.9962,7.5562],[-72.9935,7.5577],[-72.9975,7.5593],[-73.0036,7.5594],[-73.0026,7.5639],[-73.0012,7.5637],[-73.0012,7.5678],[-72.9995,7.5687],[-73.0012,7.5708],[-73.0057,7.5706],[-73.007,7.5683],[-73.0104,7.5682],[-73.0106,7.5663],[-73.0132,7.5658],[-73.0135,7.5633],[-73.0205,7.5605],[-73.026,7.5534],[-73.0285,7.5533],[-73.0244,7.5594],[-73.022,7.5664],[-73.0235,7.5695],[-73.0252,7.57],[-73.025,7.5718],[-73.0199,7.5729],[-73.0161,7.5703],[-73.0131,7.5725],[-73.0106,7.5718],[-73.0104,7.5738],[-73.0086,7.5741],[-73.0089,7.5778],[-73.0069,7.5782],[-73.0067,7.5798],[-73.0037,7.5794],[-73.0055,7.5828],[-73.0045,7.5853],[-73.0065,7.5854],[-73.0073,7.583],[-73.0106,7.5832],[-73.0112,7.5845],[-73.0142,7.5844],[-73.0164,7.5896],[-73.0205,7.5902],[-73.0179,7.5937],[-73.0127,7.595],[-73.0161,7.5977],[-73.0129,7.5981],[-73.0104,7.6007],[-73.0087,7.5999],[-73.0111,7.6041],[-73.0132,7.6034],[-73.0164,7.6054],[-73.0151,7.61],[-73.0128,7.6107],[-73.0115,7.6137],[-73.0055,7.6148],[-73.0078,7.6168],[-73.0115,7.6167],[-73.0121,7.6183],[-73.015,7.6169],[-73.0177,7.6185],[-73.019,7.6169],[-73.0209,7.6191],[-73.0228,7.6174],[-73.022,7.614],[-73.0264,7.6148],[-73.0246,7.6103],[-73.0308,7.6112],[-73.0307,7.609],[-73.0279,7.6055],[-73.0301,7.6029],[-73.0332,7.6024],[-73.037,7.6041],[-73.0409,7.6011],[-73.0445,7.6034],[-73.0457,7.5985],[-73.0502,7.5966],[-73.0512,7.5924],[-73.0501,7.5915],[-73.053,7.5899],[-73.0564,7.5843],[-73.0553,7.5891],[-73.0572,7.5902],[-73.0528,7.5987],[-73.054,7.6031],[-73.0557,7.603],[-73.0579,7.6054],[-73.0557,7.6085],[-73.0505,7.6107],[-73.0496,7.6151],[-73.0508,7.617],[-73.0482,7.6177],[-73.0482,7.621],[-73.0527,7.6196],[-73.0521,7.6249],[-73.0552,7.6263],[-73.0539,7.6293],[-73.0556,7.6311],[-73.0549,7.6361],[-73.0515,7.6395],[-73.0528,7.6422],[-73.0492,7.6422],[-73.0512,7.6462],[-73.0511,7.6513],[-73.0468,7.646],[-73.0442,7.6461],[-73.0434,7.6401],[-73.0393,7.6398],[-73.0408,7.6364],[-73.0395,7.6351],[-73.0407,7.6309],[-73.0391,7.6312],[-73.0386,7.629],[-73.0367,7.6339],[-73.0353,7.6328],[-73.0309,7.6362],[-73.0301,7.6345],[-73.0278,7.6354],[-73.0276,7.6337],[-73.0246,7.6322],[-73.025,7.6286],[-73.0271,7.6271],[-73.0236,7.6261],[-73.0246,7.6239],[-73.0223,7.6234],[-73.0214,7.6218],[-73.0154,7.6246],[-73.0151,7.6274],[-73.013,7.6285],[-73.008,7.6271],[-73.0052,7.6238],[-73.0034,7.6248],[-73.0014,7.6237],[-72.9994,7.6254],[-73.0044,7.63],[-72.9992,7.6306],[-72.9978,7.6333],[-73.0046,7.6331],[-73.0084,7.6361],[-73.0096,7.6384],[-73.007,7.6417],[-73.0115,7.6425],[-73.0086,7.6444],[-73.0109,7.6511],[-73.0103,7.6545],[-73.0155,7.6544],[-73.0135,7.6598],[-73.0149,7.6607],[-73.0196,7.6596],[-73.0208,7.6607],[-73.0165,7.6648],[-73.0128,7.6638],[-73.0089,7.6686],[-73.0055,7.6674],[-72.9973,7.6719],[-72.995,7.6715],[-72.9948,7.6729],[-72.9917,7.6716],[-72.9917,7.6734],[-72.9899,7.6735],[-72.9912,7.6763],[-72.9986,7.6782],[-72.999,7.6808],[-72.9975,7.6829],[-72.9936,7.684],[-72.9893,7.689],[-72.9899,7.6902],[-73.0037,7.6863],[-73.0036,7.691],[-73.012,7.6864],[-73.0154,7.6869],[-73.0146,7.694],[-73.0216,7.6906],[-73.025,7.6916],[-73.0231,7.697],[-73.0258,7.6992],[-73.0252,7.7021],[-73.0208,7.7024],[-73.0172,7.7054],[-73.0145,7.7046],[-73.0142,7.7064],[-73.0098,7.7101],[-73.0112,7.7116],[-73.0169,7.7109],[-73.0192,7.7158],[-73.0246,7.7165],[-73.0249,7.7216],[-73.0221,7.7192],[-73.0097,7.7267],[-73.011,7.731],[-73.0092,7.7336],[-73.0102,7.7351],[-73.0085,7.739],[-73.0089,7.7426],[-73.005,7.7483],[-73.0069,7.7488],[-73.0076,7.7515],[-73.0091,7.747],[-73.0169,7.7368],[-73.0222,7.7367],[-73.0217,7.7382],[-73.0245,7.7374],[-73.0252,7.7434],[-73.0224,7.7443],[-73.0224,7.7465],[-73.0197,7.7478],[-73.0182,7.7506],[-73.019,7.7527],[-73.0224,7.7582],[-73.0246,7.7559],[-73.0287,7.7571],[-73.0306,7.7612],[-73.0345,7.7592],[-73.0371,7.7608],[-73.0364,7.762],[-73.0385,7.7661],[-73.0359,7.7657],[-73.0313,7.7704],[-73.0339,7.7703],[-73.0349,7.7741],[-73.0372,7.7735],[-73.0382,7.7759],[-73.0368,7.7851],[-73.0385,7.7921],[-73.0408,7.7929],[-73.043,7.797],[-73.0474,7.7961],[-73.0505,7.7929],[-73.0525,7.7929],[-73.0535,7.7982],[-73.0555,7.8005],[-73.0543,7.8029],[-73.0549,7.8071],[-73.0499,7.8077],[-73.0502,7.8099],[-73.0468,7.8097],[-73.0454,7.8113],[-73.0437,7.8211],[-73.0454,7.8236],[-73.0509,7.824],[-73.0491,7.8285],[-73.0511,7.8292],[-73.0508,7.8316],[-73.0489,7.8332],[-73.0515,7.8342],[-73.0519,7.8371],[-73.0541,7.8387],[-73.0527,7.8417],[-73.0562,7.8465],[-73.0526,7.8486],[-73.0533,7.8501],[-73.052,7.8512],[-73.0524,7.855],[-73.0557,7.8575],[-73.0527,7.8593],[-73.0527,7.8618],[-73.0548,7.8655],[-73.061,7.8677],[-73.0579,7.8674],[-73.0577,7.8688],[-73.0565,7.8667],[-73.0535,7.8677],[-73.0548,7.8694],[-73.053,7.8699],[-73.0554,7.8714],[-73.0554,7.8736],[-73.0489,7.884],[-73.0505,7.8911],[-73.0489,7.891],[-73.0488,7.8942],[-73.0441,7.8981],[-73.0487,7.8997],[-73.0462,7.9041],[-73.0503,7.9064],[-73.0491,7.9087],[-73.052,7.9097],[-73.0504,7.9121],[-73.053,7.9139],[-73.0496,7.9172],[-73.0512,7.9219],[-73.0507,7.9291],[-73.052,7.9305],[-73.0567,7.9288],[-73.0589,7.9354],[-73.062,7.9371],[-73.0636,7.9361],[-73.0641,7.9405],[-73.068,7.9398],[-73.0687,7.9412],[-73.0658,7.9446],[-73.0518,7.9485],[-73.0512,7.9439],[-73.0465,7.9383],[-73.0387,7.9386],[-73.0379,7.9401],[-73.0355,7.9377],[-73.0335,7.9418],[-73.034,7.9447],[-73.0312,7.9456],[-73.0306,7.9506],[-73.0271,7.9525],[-73.0265,7.9555],[-73.0242,7.9578],[-73.0235,7.9644],[-73.0196,7.9594],[-73.0167,7.9603],[-73.0151,7.9634],[-73.0124,7.9644],[-73.0107,7.9685],[-73.0154,7.976],[-73.0148,7.9785],[-73.0188,7.9834],[-73.0194,7.9867],[-73.0247,7.9834],[-73.0256,7.9844],[-73.0257,7.9861],[-73.0232,7.9887],[-73.0226,7.9979],[-73.0258,8.0001],[-73.0258,8.0019],[-73.0239,8.0038],[-73.022,8.0028],[-73.0202,7.9996],[-73.0203,7.9946]]],[[[-72.5803,7.4275],[-72.5768,7.4245],[-72.5776,7.4214],[-72.5759,7.4193],[-72.5736,7.4196],[-72.5715,7.4156],[-72.5724,7.4144],[-72.5755,7.4151],[-72.5746,7.4142],[-72.5757,7.4123],[-72.5718,7.4098],[-72.5774,7.4053],[-72.5757,7.4027],[-72.5738,7.4051],[-72.5699,7.4035],[-72.5653,7.4053],[-72.5645,7.4088],[-72.5632,7.4079],[-72.5643,7.4064],[-72.5629,7.4048],[-72.5635,7.4028],[-72.5609,7.4025],[-72.5622,7.4003],[-72.5604,7.3985],[-72.5578,7.3996],[-72.5554,7.3984],[-72.5521,7.3926],[-72.5545,7.3916],[-72.5535,7.3891],[-72.5549,7.3877],[-72.5647,7.3862],[-72.5639,7.3837],[-72.5586,7.3838],[-72.5583,7.3827],[-72.561,7.3819],[-72.5601,7.3802],[-72.5556,7.3799],[-72.555,7.3766],[-72.5517,7.3759],[-72.5514,7.3737],[-72.5576,7.3715],[-72.5598,7.3724],[-72.5607,7.3711],[-72.5631,7.3714],[-72.5627,7.3694],[-72.566,7.3706],[-72.5649,7.3679],[-72.5674,7.368],[-72.5673,7.3658],[-72.5632,7.3639],[-72.5708,7.363],[-72.5727,7.3612],[-72.5696,7.3613],[-72.5648,7.3576],[-72.5684,7.3558],[-72.5661,7.3546],[-72.5624,7.3558],[-72.5494,7.354],[-72.5537,7.3471],[-72.5531,7.346],[-72.5559,7.3431],[-72.5553,7.3421],[-72.5603,7.3378],[-72.557,7.3369],[-72.5568,7.3344],[-72.5534,7.3352],[-72.5506,7.3342],[-72.5424,7.3377],[-72.5415,7.3365],[-72.5475,7.3342],[-72.548,7.3291],[-72.5461,7.3244],[-72.5483,7.323],[-72.5495,7.3199],[-72.5485,7.319],[-72.5438,7.3208],[-72.5443,7.3145],[-72.5418,7.3132],[-72.5425,7.3086],[-72.544,7.3074],[-72.5424,7.3062],[-72.5429,7.3014],[-72.5456,7.2952],[-72.5441,7.2924],[-72.5447,7.2903],[-72.5513,7.2967],[-72.553,7.3003],[-72.5566,7.3008],[-72.56,7.298],[-72.5668,7.3057],[-72.5772,7.2908],[-72.5788,7.2942],[-72.5822,7.2958],[-72.5832,7.2986],[-72.5817,7.3055],[-72.5849,7.3096],[-72.5839,7.3122],[-72.5893,7.3116],[-72.5911,7.3135],[-72.5883,7.3161],[-72.5901,7.318],[-72.5909,7.3162],[-72.5947,7.3166],[-72.5947,7.3204],[-72.5969,7.3209],[-72.5955,7.3233],[-72.5986,7.324],[-72.5995,7.3262],[-72.5981,7.3305],[-72.6015,7.3282],[-72.6001,7.3335],[-72.6031,7.3325],[-72.6032,7.3356],[-72.6063,7.3406],[-72.6075,7.3364],[-72.6095,7.3398],[-72.6086,7.346],[-72.6077,7.343],[-72.6043,7.3416],[-72.6024,7.3429],[-72.6033,7.3453],[-72.6,7.3447],[-72.6009,7.3464],[-72.5989,7.3491],[-72.6005,7.3511],[-72.5988,7.3533],[-72.5964,7.3531],[-72.595,7.3552],[-72.5889,7.352],[-72.5901,7.3596],[-72.5916,7.3599],[-72.5886,7.3648],[-72.5903,7.3655],[-72.5884,7.3663],[-72.5902,7.3678],[-72.5891,7.37],[-72.5905,7.3705],[-72.5899,7.3733],[-72.588,7.3752],[-72.5862,7.3749],[-72.5797,7.3856],[-72.5866,7.3873],[-72.5829,7.3949],[-72.5832,7.3995],[-72.5877,7.4047],[-72.5906,7.4107],[-72.5932,7.4109],[-72.595,7.4131],[-72.5913,7.4158],[-72.591,7.4178],[-72.5829,7.4154],[-72.5827,7.4172],[-72.5796,7.4171],[-72.581,7.4219],[-72.5867,7.4263],[-72.5854,7.427],[-72.5855,7.4288],[-72.5826,7.4305],[-72.5803,7.4275]]],[[[-72.5803,7.4275],[-72.5803,7.4275],[-72.5803,7.4276],[-72.5803,7.4275]]],[[[-73.2439,7.9181],[-73.2367,7.9138],[-73.2355,7.9112],[-73.234,7.9117],[-73.2352,7.9081],[-73.2298,7.9029],[-73.2321,7.9023],[-73.231,7.8991],[-73.2327,7.898],[-73.2315,7.896],[-73.2327,7.8933],[-73.2313,7.894],[-73.2292,7.891],[-73.2264,7.8907],[-73.2249,7.887],[-73.2262,7.8836],[-73.2231,7.8825],[-73.2219,7.8792],[-73.2178,7.8798],[-73.219,7.8754],[-73.2203,7.8753],[-73.2187,7.8738],[-73.2163,7.8734],[-73.2168,7.8769],[-73.2142,7.8758],[-73.2158,7.8722],[-73.2146,7.87],[-73.2123,7.8715],[-73.2126,7.8588],[-73.2103,7.8547],[-73.2121,7.8528],[-73.2105,7.8511],[-73.2133,7.8484],[-73.2098,7.8481],[-73.2084,7.8462],[-73.2097,7.844],[-73.2133,7.8436],[-73.2122,7.8401],[-73.2167,7.838],[-73.2156,7.8366],[-73.2181,7.8336],[-73.2236,7.8345],[-73.225,7.8301],[-73.2282,7.8318],[-73.2359,7.8306],[-73.2376,7.8286],[-73.2364,7.8264],[-73.2377,7.8248],[-73.2329,7.8201],[-73.2334,7.8182],[-73.2362,7.8188],[-73.2361,7.8198],[-73.2392,7.8196],[-73.2397,7.8262],[-73.2384,7.8317],[-73.24,7.8345],[-73.2382,7.8368],[-73.2397,7.8387],[-73.2386,7.8405],[-73.2403,7.843],[-73.24,7.8454],[-73.2413,7.846],[-73.2405,7.8503],[-73.2376,7.8494],[-73.2339,7.851],[-73.2357,7.8545],[-73.2323,7.8587],[-73.2352,7.865],[-73.2335,7.8684],[-73.2371,7.8702],[-73.2357,7.8729],[-73.2368,7.8746],[-73.2412,7.8768],[-73.238,7.881],[-73.2403,7.884],[-73.2434,7.8851],[-73.2422,7.8864],[-73.2429,7.8891],[-73.2488,7.892],[-73.2504,7.8908],[-73.2535,7.893],[-73.2516,7.8957],[-73.252,7.8988],[-73.2461,7.8986],[-73.2408,7.9005],[-73.2412,7.9064],[-73.2443,7.9133],[-73.243,7.9142],[-73.2439,7.9181]]],[[[-72.5798,7.4785],[-72.5741,7.4772],[-72.5717,7.4743],[-72.5731,7.4697],[-72.5729,7.4683],[-72.5704,7.4673],[-72.5702,7.4631],[-72.5667,7.4646],[-72.562,7.4625],[-72.5612,7.4648],[-72.5575,7.4623],[-72.558,7.4595],[-72.5639,7.46],[-72.5611,7.4576],[-72.5617,7.4556],[-72.5588,7.4564],[-72.5542,7.4525],[-72.5575,7.4498],[-72.5577,7.4462],[-72.5602,7.4465],[-72.5617,7.4486],[-72.5657,7.4468],[-72.5662,7.4482],[-72.5714,7.4496],[-72.5714,7.4466],[-72.5738,7.4455],[-72.5729,7.4418],[-72.5765,7.4445],[-72.5788,7.4431],[-72.5789,7.4457],[-72.5813,7.4453],[-72.5832,7.4482],[-72.5876,7.449],[-72.5869,7.4498],[-72.5889,7.451],[-72.588,7.4524],[-72.5918,7.4523],[-72.5899,7.4485],[-72.5906,7.4456],[-72.5868,7.4432],[-72.5881,7.44],[-72.5908,7.4436],[-72.5949,7.4432],[-72.5953,7.4462],[-72.5964,7.4476],[-72.5972,7.4468],[-72.5971,7.45],[-72.6027,7.4543],[-72.6001,7.4614],[-72.5982,7.4627],[-72.5955,7.4625],[-72.5948,7.4609],[-72.5913,7.4616],[-72.5881,7.456],[-72.585,7.4572],[-72.5836,7.4599],[-72.5812,7.4589],[-72.5788,7.4602],[-72.5791,7.4637],[-72.5752,7.466],[-72.5749,7.468],[-72.5763,7.469],[-72.5743,7.4727],[-72.5794,7.4758],[-72.5811,7.4786],[-72.5818,7.4845],[-72.5798,7.4785]]],[[[-72.8866,7.9171],[-72.8855,7.9147],[-72.889,7.9069],[-72.8881,7.905],[-72.8849,7.9044],[-72.8889,7.8992],[-72.893,7.8968],[-72.8924,7.8946],[-72.8861,7.8934],[-72.8853,7.8898],[-72.8879,7.8881],[-72.8873,7.8854],[-72.8908,7.8857],[-72.8925,7.8888],[-72.8966,7.8852],[-72.8994,7.8879],[-72.9014,7.8879],[-72.9043,7.886],[-72.9042,7.8846],[-72.9075,7.884],[-72.9034,7.8907],[-72.9031,7.8935],[-72.9048,7.8945],[-72.904,7.8958],[-72.9072,7.8975],[-72.908,7.8958],[-72.9106,7.8964],[-72.9126,7.8984],[-72.9152,7.8981],[-72.9149,7.9002],[-72.919,7.901],[-72.9199,7.9051],[-72.9187,7.9097],[-72.914,7.9047],[-72.9116,7.9075],[-72.9046,7.9102],[-72.9037,7.9125],[-72.8974,7.9095],[-72.895,7.9101],[-72.8919,7.9122],[-72.8878,7.9197],[-72.8866,7.9171]]],[[[-72.9674,7.4476],[-72.9664,7.4444],[-72.9764,7.4306],[-72.9806,7.4307],[-72.9829,7.4287],[-72.9826,7.4245],[-72.992,7.4235],[-72.9964,7.4176],[-72.9947,7.4123],[-72.9983,7.4107],[-73.0015,7.4037],[-72.9999,7.4001],[-73.0024,7.3852],[-73.0003,7.3825],[-73.007,7.375],[-73.0059,7.3815],[-73.008,7.383],[-73.0072,7.3839],[-73.0095,7.3848],[-73.0059,7.3872],[-73.0068,7.3917],[-73.0042,7.3943],[-73.0072,7.3981],[-73.0047,7.3998],[-73.0053,7.4014],[-73.0039,7.4017],[-73.0046,7.4029],[-73.003,7.4043],[-73.0079,7.4094],[-73.0038,7.4134],[-73.0047,7.4142],[-73.0036,7.4146],[-73.0034,7.4174],[-73.0071,7.4219],[-73.0111,7.4216],[-73.0133,7.4245],[-73.015,7.4226],[-73.0167,7.4233],[-73.0163,7.4243],[-73.0197,7.4242],[-73.0198,7.4262],[-73.0219,7.4266],[-73.0215,7.4293],[-73.0184,7.4277],[-73.0156,7.43],[-73.0121,7.4275],[-73.0127,7.4333],[-73.0106,7.4331],[-73.0097,7.4273],[-73.0059,7.425],[-73.0057,7.4235],[-73.0008,7.4237],[-73.0004,7.4211],[-72.9963,7.4208],[-72.9944,7.4216],[-72.9947,7.4235],[-72.9931,7.4238],[-72.9913,7.4279],[-72.9874,7.4284],[-72.9817,7.4322],[-72.9814,7.4352],[-72.9791,7.4349],[-72.977,7.4388],[-72.9773,7.4466],[-72.9741,7.4484],[-72.9726,7.447],[-72.9711,7.4516],[-72.9674,7.4476]]],[[[-72.7236,7.5524],[-72.7178,7.5474],[-72.7162,7.5484],[-72.7153,7.5475],[-72.7142,7.5505],[-72.7126,7.5501],[-72.7126,7.5525],[-72.7109,7.5528],[-72.7096,7.5508],[-72.7108,7.5486],[-72.7099,7.547],[-72.7075,7.5467],[-72.7075,7.5436],[-72.7047,7.5425],[-72.7068,7.5412],[-72.7055,7.5384],[-72.7076,7.5367],[-72.7068,7.5333],[-72.7084,7.5339],[-72.7089,7.5361],[-72.7106,7.5353],[-72.7112,7.5386],[-72.7128,7.5367],[-72.716,7.5363],[-72.7161,7.5343],[-72.7174,7.5356],[-72.7193,7.5351],[-72.7223,7.5299],[-72.7246,7.5333],[-72.727,7.5342],[-72.7271,7.5354],[-72.7247,7.5359],[-72.7255,7.5382],[-72.7199,7.5392],[-72.7222,7.5413],[-72.7255,7.5414],[-72.7221,7.5443],[-72.7228,7.5461],[-72.7291,7.543],[-72.7244,7.5489],[-72.7241,7.5521],[-72.7255,7.5544],[-72.7241,7.5547],[-72.7236,7.5524]]],[[[-72.6976,7.5116],[-72.6951,7.5014],[-72.6925,7.4979],[-72.6943,7.4957],[-72.6931,7.4918],[-72.6954,7.4923],[-72.6944,7.4961],[-72.6975,7.4971],[-72.6943,7.4991],[-72.6964,7.5007],[-72.6961,7.5032],[-72.6983,7.5074],[-72.7024,7.5111],[-72.7054,7.511],[-72.7024,7.5127],[-72.7008,7.5115],[-72.6998,7.514],[-72.6976,7.5116]]]]}}]}