{"type":"FeatureCollection","name":"subzonas_hidrograficas_cdmb","features":[{"type":"Feature","properties":{"nombre":"Río Chicamocha","tipo":"subzona-hidrografica","fuente":"IDEAM","codigo":"2403"},"geometry":{"type":"Polygon","coordinates":[[[-72.9287,7.0925],[-72.9017,7.0783],[-72.8833,7.0796],[-72.8833,7.0692],[-72.8788,7.0675],[-72.8767,7.0563],[-72.8554,7.0567],[-72.8392,7.0446],[-72.8275,7.0463],[-72.8087,7.0375],[-72.7904,7.0383],[-72.7833,7.0304],[-72.785,7.0225],[-72.7567,7.0133],[-72.7442,6.9888],[-72.7367,6.9858],[-72.7267,6.9925],[-72.715,6.9829],[-72.7033,6.9579],[-72.695,6.96],[-72.68,6.9558],[-72.6813,6.9467],[-72.6767,6.9442],[-72.6733,6.9333],[-72.6708,6.9333],[-72.6675,6.9125],[-72.6633,6.9096],[-72.6542,6.8775],[-72.65,6.87159],[-72.65,6.6],[-72.9408,6.6],[-72.95,6.6058],[-72.9521,6.6158],[-72.9596,6.6083],[-72.9825,6.6092],[-72.9912,6.6258],[-72.9958,6.6283],[-72.995,6.6408],[-73.0017,6.6425],[-73.0038,6.6517],[-73.0075,6.6479],[-73.0317,6.6408],[-73.0458,6.6475],[-73.055,6.665],[-73.0654,6.6667],[-73.075,6.6638],[-73.0863,6.6483],[-73.1196,6.6492],[-73.1275,6.6529],[-73.1288,6.6692],[-73.1396,6.6783],[-73.1367,6.6917],[-73.1408,6.6921],[-73.1458,6.6988],[-73.1642,6.7046],[-73.1904,6.7233],[-73.2058,6.7638],[-73.1988,6.7733],[-73.1765,6.7758],[-73.1567,6.7564],[-73.1087,6.75],[-73.0808,6.765],[-73.0879,6.78],[-73.0875,6.7879],[-73.1004,6.8025],[-73.0983,6.8167],[-73.0837,6.8192],[-73.075,6.8346],[-73.0783,6.8379],[-73.0775,6.845],[-73.07,6.8471],[-73.0638,6.855],[-73.0483,6.8471],[-73.0425,6.8479],[-73.0458,6.85],[-73.0454,6.8542],[-73.0321,6.8758],[-73.0242,6.8754],[-73.0208,6.8788],[-73.0233,6.8854],[-73.0333,6.8892],[-73.035,6.8938],[-73.0267,6.8975],[-73.0283,6.91],[-73.0038,6.9217],[-72.9942,6.95],[-72.9925,6.9625],[-72.9967,6.9713],[-72.9946,6.9825],[-72.9796,7.0058],[-72.9746,7.0258],[-72.97,7.0333],[-72.9546,7.04],[-72.9529,7.05],[-72.9437,7.0667],[-72.9446,7.0725],[-72.9492,7.0742],[-72.9488,7.0875],[-72.9396,7.0992],[-72.9287,7.0925]]]}},{"type":"Feature","properties":{"nombre":"Río Chítaga","tipo":"subzona-hidrografica","fuente":"IDEAM","codigo":"3701"},"geometry":{"type":"Polygon","coordinates":[[[-72.65,6.87159],[-72.6542,6.8775],[-72.6633,6.9096],[-72.6675,6.9125],[-72.6708,6.9333],[-72.6733,6.9333],[-72.6767,6.9442],[-72.6813,6.9467],[-72.68,6.9558],[-72.695,6.96],[-72.7033,6.9579],[-72.715,6.9829],[-72.7267,6.9925],[-72.7367,6.9858],[-72.7442,6.9888],[-72.7567,7.0133],[-72.785,7.0225],[-72.7833,7.0304],[-72.7904,7.0383],[-72.8087,7.0375],[-72.8275,7.0463],[-72.8392,7.0446],[-72.8554,7.0567],[-72.8767,7.0563],[-72.8788,7.0675],[-72.8833,7.0692],[-72.8833,7.0796],[-72.9017,7.0783],[-72.9396,7.0992],[-72.9475,7.0896],[-72.9592,7.1108],[-72.955,7.1183],[-72.9492,7.1208],[-72.9488,7.1308],[-72.9433,7.1392],[-72.9367,7.1408],[-72.9375,7.1483],[-72.945,7.1517],[-72.9413,7.16],[-72.9246,7.1658],[-72.9242,7.1842],[-72.9167,7.1867],[-72.9121,7.1967],[-72.9042,7.2],[-72.8996,7.2075],[-72.8908,7.2271],[-72.8992,7.2442],[-72.8917,7.2537],[-72.8763,7.26],[-72.8758,7.2683],[-72.8717,7.2692],[-72.8683,7.2796],[-72.855,7.285],[-72.8458,7.2958],[-72.8333,7.3042],[-72.8242,7.3008],[-72.8283,7.2875],[-72.8342,7.2863],[-72.8392,7.2796],[-72.8379,7.2742],[-72.8296,7.2683],[-72.8267,7.2621],[-72.8117,7.2521],[-72.8096,7.2533],[-72.8008,7.2471],[-72.785,7.2471],[-72.7767,7.2508],[-72.7746,7.26],[-72.77,7.2617],[-72.7617,7.2546],[-72.7438,7.2492],[-72.7375,7.2546],[-72.7267,7.2571],[-72.7288,7.2742],[-72.7242,7.2758],[-72.725,7.2792],[-72.7125,7.2842],[-72.7121,7.29],[-72.7046,7.2975],[-72.7067,7.31],[-72.6992,7.3392],[-72.6942,7.3417],[-72.6842,7.3404],[-72.6787,7.3292],[-72.6683,7.3246],[-72.6617,7.3175],[-72.65,7.3412],[-72.65,6.87159]]]}},{"type":"Feature","properties":{"nombre":"Río Lebrija y otros directos al Magdalena","tipo":"subzona-hidrografica","fuente":"IDEAM","codigo":"2319"},"geometry":{"type":"Polygon","coordinates":[[[-73.2482,7.95],[-73.2421,7.9358],[-73.2433,7.9187],[-73.2379,7.9092],[-73.2379,7.8983],[-73.2417,7.895],[-73.2329,7.8867],[-73.2258,7.8729],[-73.2275,7.8542],[-73.2242,7.8492],[-73.2133,7.8558],[-73.199,7.851],[-73.1917,7.8525],[-73.1794,7.8453],[-73.1604,7.8446],[-73.1599,7.8375],[-73.1525,7.8329],[-73.1492,7.7975],[-73.14,7.7954],[-73.1338,7.7867],[-73.13,7.79],[-73.1233,7.7871],[-73.115,7.7758],[-73.11,7.7775],[-73.1075,7.7829],[-73.0958,7.7829],[-73.0892,7.7737],[-73.0858,7.7733],[-73.0717,7.785],[-73.0683,7.8004],[-73.0492,7.8012],[-73.0333,7.8096],[-73.0192,7.8071],[-73.0125,7.7987],[-73.0067,7.7975],[-73.0158,7.7846],[-73.0062,7.7683],[-72.995,7.7608],[-73,7.7358],[-72.9992,7.7158],[-72.9908,7.7033],[-72.9842,7.7042],[-72.9783,7.7008],[-72.9633,7.6833],[-72.9575,7.6813],[-72.96,7.6758],[-72.9517,7.6604],[-72.9525,7.6575],[-72.9633,7.6608],[-72.9667,7.6575],[-72.9754,7.6375],[-72.9817,7.6304],[-72.9804,7.61],[-72.9858,7.6017],[-72.9917,7.5992],[-72.9837,7.55],[-72.9767,7.5404],[-72.9775,7.5292],[-72.9692,7.5225],[-72.955,7.5208],[-72.9525,7.5162],[-72.94,7.5138],[-72.9367,7.5058],[-72.9308,7.505],[-72.9271,7.495],[-72.9108,7.4896],[-72.9021,7.4775],[-72.8958,7.48],[-72.8925,7.4737],[-72.9008,7.4479],[-72.8996,7.4333],[-72.8929,7.4267],[-72.8917,7.4192],[-72.8858,7.4171],[-72.8767,7.4062],[-72.8729,7.3917],[-72.8504,7.375],[-72.8558,7.3629],[-72.8375,7.3604],[-72.8417,7.3271],[-72.8392,7.3221],[-72.8425,7.3163],[-72.8337,7.3025],[-72.8458,7.2958],[-72.855,7.285],[-72.8683,7.2796],[-72.8717,7.2692],[-72.8758,7.2683],[-72.8763,7.26],[-72.8917,7.2537],[-72.8992,7.2442],[-72.8908,7.2271],[-72.8996,7.2075],[-72.9042,7.2],[-72.9121,7.1967],[-72.9167,7.1867],[-72.9242,7.1842],[-72.9246,7.1658],[-72.9383,7.1629],[-72.945,7.1525],[-72.9375,7.1483],[-72.9367,7.1408],[-72.9433,7.1392],[-72.9488,7.1308],[-72.9492,7.1208],[-72.955,7.1183],[-72.9592,7.1108],[-72.9538,7.1042],[-72.9504,7.0925],[-72.9458,7.0892],[-72.9488,7.0875],[-72.9492,7.0742],[-72.9446,7.0725],[-72.9437,7.0667],[-72.9529,7.05],[-72.9546,7.04],[-72.97,7.0333],[-72.9746,7.0258],[-72.9796,7.0058],[-72.9946,6.9825],[-72.9967,6.9713],[-72.9925,6.9625],[-72.9942,6.95],[-73.0038,6.9217],[-73.0271,6.91],[-73.0425,6.9229],[-73.0542,6.9217],[-73.0558,6.9267],[-73.0533,6.9313],[-73.0617,6.9375],[-73.0837,6.9425],[-73.09,6.9392],[-73.0942,6.9442],[-73.1,6.945],[-73.1217,6.9396],[-73.1367,6.9296],[-73.1513,6.925],[-73.1608,6.9308],[-73.18,6.9288],[-73.1846,6.94],[-73.1996,6.9375],[-73.2058,6.94],[-73.2142,6.9692],[-73.2183,6.9692],[-73.2204,6.9767],[-73.2358,6.9954],[-73.2442,6.9983],[-73.2487,6.9942],[-73.2533,7.0004],[-73.2592,7],[-73.2633,7.0138],[-73.2487,7.0233],[-73.2487,7.03],[-73.2517,7.0392],[-73.26,7.0396],[-73.2658,7.0462],[-73.25,7.0625],[-73.2458,7.0763],[-73.2529,7.09],[-73.2542,7.105],[-73.2583,7.1054],[-73.2592,7.1096],[-73.2542,7.1283],[-73.2583,7.1292],[-73.2608,7.1358],[-73.2725,7.1358],[-73.2717,7.1475],[-73.2825,7.1442],[-73.2883,7.1479],[-73.2833,7.1583],[-73.2833,7.1696],[-73.2783,7.1846],[-73.2887,7.1892],[-73.3042,7.19],[-73.3,7.2075],[-73.3012,7.215],[-73.3058,7.2258],[-73.3158,7.2342],[-73.3133,7.2442],[-73.3167,7.2554],[-73.3142,7.28],[-73.3333,7.2783],[-73.335,7.2833],[-73.3492,7.2854],[-73.3508,7.2917],[-73.3558,7.2937],[-73.3558,7.3021],[-73.3642,7.3008],[-73.3806,7.2833],[-73.3992,7.2842],[-73.4017,7.2875],[-73.415,7.2917],[-73.4179,7.2892],[-73.4233,7.2925],[-73.4317,7.2867],[-73.4367,7.2783],[-73.4333,7.2746],[-73.4383,7.2725],[-73.4383,7.2692],[-73.445,7.2687],[-73.4563,7.2592],[-73.4675,7.2704],[-73.4675,7.2758],[-73.4779,7.2758],[-73.4846,7.28],[-73.4892,7.2783],[-73.4925,7.2817],[-73.5008,7.2792],[-73.5017,7.2892],[-73.5079,7.2908],[-73.5158,7.3075],[-73.5233,7.3117],[-73.5713,7.2708],[-73.6516,7.2752],[-73.6926,7.2708],[-73.7527,7.2855],[-73.7666,7.294],[-73.7796,7.294],[-73.7862,7.2847],[-73.7903,7.2676],[-73.799,7.2562],[-73.8286,7.2442],[-73.8743,7.2069],[-73.8938,7.2058],[-73.9112,7.2133],[-73.9192,7.2125],[-73.9221,7.2079],[-73.9238,7.2104],[-73.9262,7.2288],[-73.9229,7.2413],[-73.9229,7.2821],[-73.9154,7.2938],[-73.9137,7.3029],[-73.9137,7.3754],[-73.9121,7.3829],[-73.9037,7.3921],[-73.8971,7.4254],[-73.8971,7.4488],[-73.9062,7.4612],[-73.9146,7.4846],[-73.9129,7.5054],[-73.9054,7.5246],[-73.8946,7.5354],[-73.8779,7.5396],[-73.8637,7.5538],[-73.8529,7.5912],[-73.8429,7.6071],[-73.8438,7.6171],[-73.8396,7.6246],[-73.8421,7.6287],[-73.8412,7.6504],[-73.8313,7.6654],[-73.8337,7.7137],[-73.8296,7.7296],[-73.8238,7.7404],[-73.8037,7.7621],[-73.8021,7.7695],[-73.8073,7.8081],[-73.8166,7.8248],[-73.82,7.85],[-73.8188,7.8671],[-73.8279,7.8837],[-73.8338,7.9453],[-73.8383,7.95],[-73.2482,7.95]]]}},{"type":"Feature","properties":{"nombre":"Río Sogamoso","tipo":"subzona-hidrografica","fuente":"IDEAM","codigo":"2405"},"geometry":{"type":"Polygon","coordinates":[[[-73.5008,7.2792],[-73.4925,7.2817],[-73.4892,7.2783],[-73.4846,7.28],[-73.4779,7.2758],[-73.4675,7.2758],[-73.4675,7.2704],[-73.4563,7.2592],[-73.445,7.2687],[-73.4383,7.2692],[-73.4383,7.2725],[-73.4333,7.2746],[-73.4367,7.2783],[-73.4317,7.2867],[-73.4233,7.2925],[-73.4179,7.2892],[-73.415,7.2917],[-73.4017,7.2875],[-73.3992,7.2842],[-73.3806,7.2833],[-73.3642,7.3008],[-73.3579,7.3025],[-73.3558,7.2937],[-73.3508,7.2917],[-73.3492,7.2854],[-73.335,7.2833],[-73.3333,7.2783],[-73.3142,7.28],[-73.3167,7.2554],[-73.3133,7.2442],[-73.3158,7.2342],[-73.3058,7.2258],[-73.3012,7.215],[-73.3,7.2075],[-73.3042,7.19],[-73.2887,7.1892],[-73.2783,7.1846],[-73.2833,7.1696],[-73.2833,7.1583],[-73.2883,7.1479],[-73.2825,7.1442],[-73.2717,7.1475],[-73.2725,7.1358],[-73.2608,7.1358],[-73.2583,7.1292],[-73.2542,7.1283],[-73.2592,7.1096],[-73.2583,7.1054],[-73.2542,7.105],[-73.2529,7.09],[-73.2458,7.0763],[-73.25,7.0625],[-73.2658,7.0462],[-73.26,7.0396],[-73.2517,7.0392],[-73.2487,7.03],[-73.2487,7.0233],[-73.2633,7.0138],[-73.2592,7],[-73.2533,7.0004],[-73.2487,6.9942],[-73.2442,6.9983],[-73.2358,6.9954],[-73.2204,6.9767],[-73.2183,6.9692],[-73.2142,6.9692],[-73.2058,6.94],[-73.1996,6.9375],[-73.1846,6.94],[-73.18,6.9288],[-73.1608,6.9308],[-73.1513,6.925],[-73.1367,6.9296],[-73.1217,6.9396],[-73.1,6.945],[-73.0942,6.9442],[-73.09,6.9392],[-73.0837,6.9425],[-73.0617,6.9375],[-73.0533,6.9313],[-73.0558,6.9267],[-73.0542,6.9217],[-73.0425,6.9229],[-73.0283,6.9104],[-73.0267,6.8975],[-73.035,6.8938],[-73.0333,6.8892],[-73.0233,6.8854],[-73.0208,6.8788],[-73.0242,6.8754],[-73.0321,6.8758],[-73.0454,6.8542],[-73.0458,6.85],[-73.0425,6.8479],[-73.0483,6.8471],[-73.0638,6.855],[-73.07,6.8471],[-73.0775,6.845],[-73.0783,6.8379],[-73.075,6.8346],[-73.0837,6.8192],[-73.0983,6.8167],[-73.1004,6.8025],[-73.0875,6.7879],[-73.0879,6.78],[-73.0808,6.765],[-73.1087,6.75],[-73.1567,6.7564],[-73.1765,6.7758],[-73.2016,6.7708],[-73.211,6.7767],[-73.2276,6.7771],[-73.2433,6.7863],[-73.2668,6.7819],[-73.2812,6.7727],[-73.2904,6.7727],[-73.3301,6.7893],[-73.3524,6.7858],[-73.3602,6.7797],[-73.3707,6.7609],[-73.3659,6.7308],[-73.3855,6.7003],[-73.386,6.6571],[-73.3881,6.6506],[-73.3988,6.64],[-73.4058,6.6529],[-73.4267,6.6604],[-73.4417,6.6721],[-73.4592,6.68],[-73.4567,6.685],[-73.4608,6.7025],[-73.4708,6.7092],[-73.4758,6.7225],[-73.4825,6.7279],[-73.4829,6.7558],[-73.4858,6.7646],[-73.4808,6.7954],[-73.47,6.8121],[-73.4725,6.8196],[-73.4704,6.8308],[-73.4621,6.8392],[-73.4592,6.8471],[-73.465,6.8583],[-73.4575,6.8617],[-73.4492,6.8963],[-73.4517,6.9033],[-73.4608,6.9129],[-73.4483,6.9258],[-73.4442,6.9425],[-73.4483,6.9479],[-73.4512,6.9492],[-73.4617,6.9425],[-73.4687,6.945],[-73.4775,6.9354],[-73.4904,6.9283],[-73.4979,6.9333],[-73.5071,6.9275],[-73.52,6.9271],[-73.5781,6.9012],[-73.6159,6.9063],[-73.6391,6.9135],[-73.6945,6.9038],[-73.7198,6.9298],[-73.7499,6.9352],[-73.7603,6.9393],[-73.7688,6.9469],[-73.7833,6.9788],[-73.7871,6.9962],[-73.7884,7.0477],[-73.793,7.0574],[-73.7961,7.0597],[-73.8043,7.0559],[-73.8091,7.0587],[-73.8476,7.0901],[-73.8806,7.1113],[-73.901,7.132],[-73.9235,7.1705],[-73.9242,7.1961],[-73.9192,7.2125],[-73.9092,7.2129],[-73.8938,7.2058],[-73.8743,7.2069],[-73.8286,7.2442],[-73.799,7.2562],[-73.7903,7.2676],[-73.7862,7.2847],[-73.7796,7.294],[-73.7666,7.294],[-73.7527,7.2855],[-73.6926,7.2708],[-73.6516,7.2752],[-73.5713,7.2708],[-73.5233,7.3117],[-73.5158,7.3075],[-73.5079,7.2908],[-73.5017,7.2892],[-73.5008,7.2792]]]}},{"type":"Feature","properties":{"nombre":"Río Zulia","tipo":"subzona-hidrografica","fuente":"IDEAM","codigo":"1602"},"geometry":{"type":"MultiPolygon","coordinates":[[[[-72.65,7.95],[-72.65,7.6769],[-72.6567,7.6717],[-72.6637,7.66],[-72.6783,7.6475],[-72.6792,7.6425],[-72.7012,7.6333],[-72.7058,7.6271],[-72.7,7.6167],[-72.7017,7.6108],[-72.6975,7.6012],[-72.7008,7.5875],[-72.6975,7.5796],[-72.7067,7.5725],[-72.7133,7.5446],[-72.7087,7.5408],[-72.7063,7.525],[-72.6937,7.5008],[-72.6933,7.4792],[-72.69,7.4708],[-72.6929,7.4608],[-72.7,7.4529],[-72.6988,7.4467],[-72.695,7.4442],[-72.695,7.4354],[-72.7017,7.4183],[-72.7067,7.415],[-72.7033,7.4067],[-72.705,7.3967],[-72.69,7.3942],[-72.6883,7.3804],[-72.6913,7.375],[-72.6908,7.3642],[-72.6996,7.3525],[-72.6992,7.3392],[-72.7067,7.31],[-72.7042,7.2987],[-72.7121,7.29],[-72.7125,7.2842],[-72.725,7.2792],[-72.7242,7.2758],[-72.7288,7.2742],[-72.7267,7.2571],[-72.7375,7.2546],[-72.7438,7.2492],[-72.7617,7.2546],[-72.7708,7.2617],[-72.7746,7.26],[-72.7767,7.2508],[-72.7825,7.2479],[-72.8008,7.2471],[-72.8225,7.2587],[-72.8379,7.2742],[-72.8392,7.2796],[-72.8342,7.2863],[-72.8283,7.2875],[-72.8242,7.3008],[-72.8367,7.3062],[-72.8425,7.3163],[-72.8392,7.3221],[-72.8417,7.3271],[-72.8375,7.3604],[-72.8558,7.3629],[-72.8504,7.375],[-72.8729,7.3917],[-72.8767,7.4062],[-72.8858,7.4171],[-72.8917,7.4192],[-72.8929,7.4267],[-72.8996,7.4333],[-72.9008,7.4479],[-72.8925,7.4737],[-72.8958,7.48],[-72.9021,7.4775],[-72.9108,7.4896],[-72.9271,7.495],[-72.9308,7.505],[-72.9367,7.5058],[-72.94,7.5138],[-72.9525,7.5162],[-72.955,7.5208],[-72.9692,7.5225],[-72.9775,7.5292],[-72.9767,7.5404],[-72.9837,7.55],[-72.9917,7.5992],[-72.9858,7.6017],[-72.9804,7.61],[-72.9817,7.6304],[-72.9754,7.6375],[-72.9667,7.6575],[-72.9633,7.6608],[-72.9525,7.6575],[-72.9517,7.6604],[-72.96,7.6758],[-72.9575,7.6813],[-72.9633,7.6833],[-72.9783,7.7008],[-72.9842,7.7042],[-72.9908,7.7033],[-72.9992,7.7158],[-73,7.7358],[-72.995,7.7608],[-72.9808,7.7683],[-72.9679,7.7717],[-72.9629,7.7675],[-72.9604,7.77],[-72.955,7.7792],[-72.9583,7.7954],[-72.945,7.8146],[-72.9258,7.8108],[-72.9275,7.8183],[-72.9242,7.8321],[-72.9275,7.8425],[-72.9212,7.8533],[-72.9137,7.8583],[-72.9175,7.8675],[-72.915,7.8783],[-72.8975,7.8925],[-72.9,7.9029],[-72.8783,7.9046],[-72.855,7.9246],[-72.8467,7.9246],[-72.8429,7.9208],[-72.8175,7.9242],[-72.80475,7.95],[-72.65,7.95]]]]}}]}